{
"type": "FeatureCollection",
"name": "MFR DOMINIO PUBLICO",
"features": [
{ "type": "Feature", "properties": { "Name": "MFR 785200" }, "geometry": { "type": "Point", "coordinates": [ -64.4236858, -31.4574708 ] } },
{ "type": "Feature", "properties": { "Name": "MFR 823714" }, "geometry": { "type": "Point", "coordinates": [ -64.4218246, -31.4569229 ] } },
{ "type": "Feature", "properties": { "Name": "MFR 824834" }, "geometry": { "type": "Point", "coordinates": [ -64.4127811, -31.4579069 ] } },
{ "type": "Feature", "properties": { "Name": "MFR 825093" }, "geometry": { "type": "Point", "coordinates": [ -64.4236029, -31.4571323 ] } },
{ "type": "Feature", "properties": { "Name": "MFR 827545" }, "geometry": { "type": "Point", "coordinates": [ -64.4218055, -31.4561533 ] } },
{ "type": "Feature", "properties": { "Name": "MFR 831047" }, "geometry": { "type": "Point", "coordinates": [ -64.4151181, -31.457978 ] } },
{ "type": "Feature", "properties": { "Name": "MFR 832592" }, "geometry": { "type": "Point", "coordinates": [ -64.4232252, -31.4561547 ] } },
{ "type": "Feature", "properties": { "Name": "MFR 842304" }, "geometry": { "type": "Point", "coordinates": [ -64.4157314, -31.4578605 ] } },
{ "type": "Feature", "properties": { "Name": "MFR 842732" }, "geometry": { "type": "Point", "coordinates": [ -64.4151147, -31.4575681 ] } },
{ "type": "Feature", "properties": { "Name": "MFR 843464" }, "geometry": { "type": "Point", "coordinates": [ -64.4132961, -31.4578001 ] } },
{ "type": "Feature", "properties": { "Name": "MFR 844386" }, "geometry": { "type": "Point", "coordinates": [ -64.4132068, -31.4590004 ] } },
{ "type": "Feature", "properties": { "Name": "MFR 844599" }, "geometry": { "type": "Point", "coordinates": [ -64.4210653, -31.4566253 ] } },
{ "type": "Feature", "properties": { "Name": "MFR 850445" }, "geometry": { "type": "Point", "coordinates": [ -64.4150137, -31.4572114 ] } },
{ "type": "Feature", "properties": { "Name": "MFR 853664" }, "geometry": { "type": "Point", "coordinates": [ -64.0540951, -31.3823198 ] } },
{ "type": "Feature", "properties": { "Name": "MFR 853666" }, "geometry": { "type": "Point", "coordinates": [ -64.0543185, -31.3822453 ] } },
{ "type": "Feature", "properties": { "Name": "MFR 853669" }, "geometry": { "type": "Point", "coordinates": [ -64.0545792, -31.3821772 ] } },
{ "type": "Feature", "properties": { "Name": "MFR 855573" }, "geometry": { "type": "Point", "coordinates": [ -64.055226, -31.3824104 ] } },
{ "type": "Feature", "properties": { "Name": "MFR 873641" }, "geometry": { "type": "Point", "coordinates": [ -64.0529859, -31.3823764 ] } },
{ "type": "Feature", "properties": { "Name": "MFR 873758" }, "geometry": { "type": "Point", "coordinates": [ -64.0549488, -31.3830497 ] } },
{ "type": "Feature", "properties": { "Name": "MFR 875524" }, "geometry": { "type": "Point", "coordinates": [ -64.0572041, -31.3823975 ] } },
{ "type": "Feature", "properties": { "Name": "MFR 875661" }, "geometry": { "type": "Point", "coordinates": [ -64.0508051, -31.3817775 ] } },
{ "type": "Feature", "properties": { "Name": "MFR 876558" }, "geometry": { "type": "Point", "coordinates": [ -63.9833702, -31.3625154 ] } },
{ "type": "Feature", "properties": { "Name": "MFR 1051633" }, "geometry": { "type": "Point", "coordinates": [ -64.4213479, -31.4562369 ] } },
{ "type": "Feature", "properties": { "Name": "MFR 1724052" }, "geometry": { "type": "Point", "coordinates": [ -64.0573111, -31.3836745 ] } },
{ "type": "Feature", "properties": { "Name": "MFR 1783284" }, "geometry": { "type": "Point", "coordinates": [ -64.2436261, -32.1741695 ] } },
{ "type": "Feature", "properties": { "Name": "MFR 107327" }, "geometry": { "type": "Point", "coordinates": [ -64.2398101, -31.3577582 ] } },
{ "type": "Feature", "properties": { "Name": "MFR 77291" }, "geometry": { "type": "Point", "coordinates": [ -64.2182304, -31.4610602 ] } },
{ "type": "Feature", "properties": { "Name": "MFR 107335" }, "geometry": { "type": "Point", "coordinates": [ -64.2523161, -31.4584838 ] } },
{ "type": "Feature", "properties": { "Name": "MFR 109237" }, "geometry": { "type": "Point", "coordinates": [ -64.2221556, -31.4644155 ] } },
{ "type": "Feature", "properties": { "Name": "MFR 110690" }, "geometry": { "type": "Point", "coordinates": [ -64.1189951, -31.438281 ] } },
{ "type": "Feature", "properties": { "Name": "MFR 117" }, "geometry": { "type": "Point", "coordinates": [ -64.2532312, -31.4371677 ] } },
{ "type": "Feature", "properties": { "Name": "MFR 4595" }, "geometry": { "type": "Point", "coordinates": [ -64.201879, -31.4652571 ] } },
{ "type": "Feature", "properties": { "Name": "MFR 10111" }, "geometry": { "type": "Point", "coordinates": [ -64.1880144, -31.4694766 ] } },
{ "type": "Feature", "properties": { "Name": "MFR 15611" }, "geometry": { "type": "Point", "coordinates": [ -64.2233337, -31.4657194 ] } },
{ "type": "Feature", "properties": { "Name": "MFR 21323" }, "geometry": { "type": "Point", "coordinates": [ -64.2027822, -31.4637998 ] } },
{ "type": "Feature", "properties": { "Name": "MFR 29758" }, "geometry": { "type": "Point", "coordinates": [ -64.2412735, -31.3605835 ] } },
{ "type": "Feature", "properties": { "Name": "MFR 31040" }, "geometry": { "type": "Point", "coordinates": [ -64.2223079, -31.4645604 ] } },
{ "type": "Feature", "properties": { "Name": "MFR 37384" }, "geometry": { "type": "Point", "coordinates": [ -64.1178522, -31.4377004 ] } },
{ "type": "Feature", "properties": { "Name": "MFR 51719" }, "geometry": { "type": "Point", "coordinates": [ -64.1114833, -31.4218982 ] } },
{ "type": "Feature", "properties": { "Name": "MFR 53754" }, "geometry": { "type": "Point", "coordinates": [ -64.1223004, -31.440601 ] } },
{ "type": "Feature", "properties": { "Name": "MFR 126426" }, "geometry": { "type": "Point", "coordinates": [ -64.2401913, -31.3575422 ] } },
{ "type": "Feature", "properties": { "Name": "MFR 881943" }, "geometry": { "type": "Point", "coordinates": [ -64.2525745, -31.4389363 ] } },
{ "type": "Feature", "properties": { "Name": "MFR 882442" }, "geometry": { "type": "Point", "coordinates": [ -64.1343821, -31.4503228 ] } },
{ "type": "Feature", "properties": { "Name": "MFR 883848" }, "geometry": { "type": "Point", "coordinates": [ -64.1378311, -31.4522002 ] } },
{ "type": "Feature", "properties": { "Name": "MFR 890263" }, "geometry": { "type": "Point", "coordinates": [ -64.2531924, -31.4470629 ] } },
{ "type": "Feature", "properties": { "Name": "MFR 1124798" }, "geometry": { "type": "Point", "coordinates": [ -64.25291, -31.4388381 ] } },
{ "type": "Feature", "properties": { "Name": "MFR 1720928" }, "geometry": { "type": "Point", "coordinates": [ -64.1178551, -31.4367927 ] } },
{ "type": "Feature", "properties": { "Name": "MFR 1780836" }, "geometry": { "type": "Point", "coordinates": [ -64.2386825, -31.3555609 ] } },
{ "type": "Feature", "properties": { "Name": "MFR 1870941" }, "geometry": { "type": "Point", "coordinates": [ -64.2027664, -31.4633276 ] } },
{ "type": "Feature", "properties": { "Name": "MFR 879577" }, "geometry": { "type": "Point", "coordinates": [ -64.3765442, -33.1010873 ] } },
{ "type": "Feature", "properties": { "Name": "MFR  879578" }, "geometry": { "type": "Point", "coordinates": [ -64.377113, -33.101971 ] } },
{ "type": "Feature", "properties": { "Name": "MFR  879579" }, "geometry": { "type": "Point", "coordinates": [ -64.3774588, -33.1029469 ] } },
{ "type": "Feature", "properties": { "Name": "MFR 881900" }, "geometry": { "type": "Point", "coordinates": [ -64.3841509, -33.1320149 ] } },
{ "type": "Feature", "properties": { "Name": "MFR 881897" }, "geometry": { "type": "Point", "coordinates": [ -64.3844181, -33.1299408 ] } },
{ "type": "Feature", "properties": { "Name": "MFR  883258" }, "geometry": { "type": "Point", "coordinates": [ -64.3239955, -33.0930696 ] } },
{ "type": "Feature", "properties": { "Name": "MFR  874911" }, "geometry": { "type": "Point", "coordinates": [ -64.3222348, -33.0938343 ] } },
{ "type": "Feature", "properties": { "Name": "MFR  874914" }, "geometry": { "type": "Point", "coordinates": [ -64.3221562, -33.0938923 ] } },
{ "type": "Feature", "properties": { "Name": "MFR  874924" }, "geometry": { "type": "Point", "coordinates": [ -64.3227875, -33.0929717 ] } },
{ "type": "Feature", "properties": { "Name": "MFR  874930" }, "geometry": { "type": "Point", "coordinates": [ -64.3227411, -33.0938683 ] } },
{ "type": "Feature", "properties": { "Name": "MFR  874935" }, "geometry": { "type": "Point", "coordinates": [ -64.3235004, -33.0936934 ] } },
{ "type": "Feature", "properties": { "Name": "MFR  875495" }, "geometry": { "type": "Point", "coordinates": [ -64.3243745, -33.0926461 ] } },
{ "type": "Feature", "properties": { "Name": "MFR  875917" }, "geometry": { "type": "Point", "coordinates": [ -64.3237129, -33.0932127 ] } },
{ "type": "Feature", "properties": { "Name": "MFR  875918" }, "geometry": { "type": "Point", "coordinates": [ -64.3237944, -33.0931506 ] } },
{ "type": "Feature", "properties": { "Name": "MFR 876805" }, "geometry": { "type": "Point", "coordinates": [ -64.3824825, -33.1188147 ] } },
{ "type": "Feature", "properties": { "Name": "MFR   878195" }, "geometry": { "type": "Point", "coordinates": [ -64.3131651, -33.1007404 ] } },
{ "type": "Feature", "properties": { "Name": "MFR 146317" }, "geometry": { "type": "Point", "coordinates": [ -64.2194411, -31.4625307 ] } },
{ "type": "Feature", "properties": { "Name": "CARPETA 6192" }, "geometry": { "type": "Point", "coordinates": [ -64.3167905, -33.0979438 ] } },
{ "type": "Feature", "properties": { "Name": "MFR  876915" }, "geometry": { "type": "Point", "coordinates": [ -64.3160208, -33.0985559 ] } },
{ "type": "Feature", "properties": { "Name": "MFR  883134" }, "geometry": { "type": "Point", "coordinates": [ -64.3111326, -33.1038266 ] } },
{ "type": "Feature", "properties": { "Name": "MFR  838019" }, "geometry": { "type": "Point", "coordinates": [ -62.4227059, -33.6229573 ] } },
{ "type": "Feature", "properties": { "Name": "MFR  865909" }, "geometry": { "type": "Point", "coordinates": [ -63.7430697, -33.2661751 ] } },
{ "type": "Feature", "properties": { "Name": "MFR  865944" }, "geometry": { "type": "Point", "coordinates": [ -63.8106517, -33.2331311 ] } },
{ "type": "Feature", "properties": { "Name": "MFR  865948" }, "geometry": { "type": "Point", "coordinates": [ -63.8114846, -33.2343896 ] } },
{ "type": "Feature", "properties": { "Name": "MFR  867154" }, "geometry": { "type": "Point", "coordinates": [ -62.846423, -33.5372769 ] } },
{ "type": "Feature", "properties": { "Name": "MFR 870984" }, "geometry": { "type": "Point", "coordinates": [ -64.3850466, -33.1682346 ] } },
{ "type": "Feature", "properties": { "Name": "MFR  874861" }, "geometry": { "type": "Point", "coordinates": [ -64.3229929, -33.0932334 ] } },
{ "type": "Feature", "properties": { "Name": "MFR  874865" }, "geometry": { "type": "Point", "coordinates": [ -64.3229257, -33.0931474 ] } },
{ "type": "Feature", "properties": { "Name": "MFR  874868" }, "geometry": { "type": "Point", "coordinates": [ -64.3228609, -33.0930376 ] } },
{ "type": "Feature", "properties": { "Name": "MFR  874871" }, "geometry": { "type": "Point", "coordinates": [ -64.3227925, -33.0934175 ] } },
{ "type": "Feature", "properties": { "Name": "MFR  874875" }, "geometry": { "type": "Point", "coordinates": [ -64.3227129, -33.093481 ] } },
{ "type": "Feature", "properties": { "Name": "MFR  874878" }, "geometry": { "type": "Point", "coordinates": [ -64.3226355, -33.093533 ] } },
{ "type": "Feature", "properties": { "Name": "MFR  874890" }, "geometry": { "type": "Point", "coordinates": [ -64.3225553, -33.093595 ] } },
{ "type": "Feature", "properties": { "Name": "MFR  874894" }, "geometry": { "type": "Point", "coordinates": [ -64.3224745, -33.0936534 ] } },
{ "type": "Feature", "properties": { "Name": "MFR  874897" }, "geometry": { "type": "Point", "coordinates": [ -64.3223998, -33.0937116 ] } },
{ "type": "Feature", "properties": { "Name": "MFR  874904" }, "geometry": { "type": "Point", "coordinates": [ -64.3223208, -33.0937735 ] } },
{ "type": "Feature", "properties": { "Name": "MFR  884741" }, "geometry": { "type": "Point", "coordinates": [ -64.3116916, -33.1027788 ] } }
]
}
