{
"type": "FeatureCollection",
"name": "MOJONES RN 1V20",
"features": [
{ "type": "Feature", "properties": { "Name": "0", "P.K.": null, "Al.Dist. Izq.": 35, "Al.Dist. Der.": 35, "Ruta": "1V20" }, "geometry": { "type": "Point", "coordinates": [ -65.164154, -31.988876 ] } },
{ "type": "Feature", "properties": { "Name": "0.17", "P.K.": null, "Al.Dist. Izq.": 35, "Al.Dist. Der.": 35, "Ruta": "1V20" }, "geometry": { "type": "Point", "coordinates": [ -65.165997, -31.988968 ] } },
{ "type": "Feature", "properties": { "Name": "0.65", "P.K.": null, "Al.Dist. Izq.": 35, "Al.Dist. Der.": 35, "Ruta": "1V20" }, "geometry": { "type": "Point", "coordinates": [ -65.170861, -31.987963 ] } },
{ "type": "Feature", "properties": { "Name": "1.5", "P.K.": null, "Al.Dist. Izq.": 35, "Al.Dist. Der.": 35, "Ruta": "1V20" }, "geometry": { "type": "Point", "coordinates": [ -65.179689, -31.986257 ] } },
{ "type": "Feature", "properties": { "Name": "1.55", "P.K.": null, "Al.Dist. Izq.": 35, "Al.Dist. Der.": 35, "Ruta": "1V20" }, "geometry": { "type": "Point", "coordinates": [ -65.180232, -31.986231 ] } },
{ "type": "Feature", "properties": { "Name": "1.57", "P.K.": null, "Al.Dist. Izq.": 35, "Al.Dist. Der.": 35, "Ruta": "1V20" }, "geometry": { "type": "Point", "coordinates": [ -65.180373, -31.986207 ] } },
{ "type": "Feature", "properties": { "Name": "2.02", "P.K.": null, "Al.Dist. Izq.": 35, "Al.Dist. Der.": 35, "Ruta": "1V20" }, "geometry": { "type": "Point", "coordinates": [ -65.185123, -31.985491 ] } },
{ "type": "Feature", "properties": { "Name": "2.05", "P.K.": null, "Al.Dist. Izq.": 35, "Al.Dist. Der.": 35, "Ruta": "1V20" }, "geometry": { "type": "Point", "coordinates": [ -65.18539, -31.985218 ] } },
{ "type": "Feature", "properties": { "Name": "2.14", "P.K.": null, "Al.Dist. Izq.": 35, "Al.Dist. Der.": 35, "Ruta": "1V20" }, "geometry": { "type": "Point", "coordinates": [ -65.186349, -31.985082 ] } },
{ "type": "Feature", "properties": { "Name": "2.18", "P.K.": null, "Al.Dist. Izq.": 35, "Al.Dist. Der.": 35, "Ruta": "1V20" }, "geometry": { "type": "Point", "coordinates": [ -65.186722, -31.985037 ] } },
{ "type": "Feature", "properties": { "Name": "2.2", "P.K.": null, "Al.Dist. Izq.": 35, "Al.Dist. Der.": 35, "Ruta": "1V20" }, "geometry": { "type": "Point", "coordinates": [ -65.186882, -31.984997 ] } },
{ "type": "Feature", "properties": { "Name": "2.28", "P.K.": null, "Al.Dist. Izq.": 35, "Al.Dist. Der.": 35, "Ruta": "1V20" }, "geometry": { "type": "Point", "coordinates": [ -65.187808, -31.984936 ] } },
{ "type": "Feature", "properties": { "Name": "2.32", "P.K.": null, "Al.Dist. Izq.": 35, "Al.Dist. Der.": 35, "Ruta": "1V20" }, "geometry": { "type": "Point", "coordinates": [ -65.188203, -31.984854 ] } },
{ "type": "Feature", "properties": { "Name": "2.37", "P.K.": null, "Al.Dist. Izq.": 35, "Al.Dist. Der.": 35, "Ruta": "1V20" }, "geometry": { "type": "Point", "coordinates": [ -65.188732, -31.984934 ] } },
{ "type": "Feature", "properties": { "Name": "2.56", "P.K.": null, "Al.Dist. Izq.": 35, "Al.Dist. Der.": 35, "Ruta": "1V20" }, "geometry": { "type": "Point", "coordinates": [ -65.190736, -31.984957 ] } },
{ "type": "Feature", "properties": { "Name": "2.63", "P.K.": null, "Al.Dist. Izq.": 35, "Al.Dist. Der.": 35, "Ruta": "1V20" }, "geometry": { "type": "Point", "coordinates": [ -65.191486, -31.984826 ] } },
{ "type": "Feature", "properties": { "Name": "2.65", "P.K.": null, "Al.Dist. Izq.": 35, "Al.Dist. Der.": 35, "Ruta": "1V20" }, "geometry": { "type": "Point", "coordinates": [ -65.191648, -31.984802 ] } },
{ "type": "Feature", "properties": { "Name": "2.68", "P.K.": null, "Al.Dist. Izq.": 35, "Al.Dist. Der.": 35, "Ruta": "1V20" }, "geometry": { "type": "Point", "coordinates": [ -65.191944, -31.984741 ] } },
{ "type": "Feature", "properties": { "Name": "2.71", "P.K.": null, "Al.Dist. Izq.": 35, "Al.Dist. Der.": 35, "Ruta": "1V20" }, "geometry": { "type": "Point", "coordinates": [ -65.192344, -31.984675 ] } },
{ "type": "Feature", "properties": { "Name": "2.72", "P.K.": null, "Al.Dist. Izq.": 35, "Al.Dist. Der.": 35, "Ruta": "1V20" }, "geometry": { "type": "Point", "coordinates": [ -65.192414, -31.984654 ] } },
{ "type": "Feature", "properties": { "Name": "2.72", "P.K.": null, "Al.Dist. Izq.": 45, "Al.Dist. Der.": 25, "Ruta": "1V20" }, "geometry": { "type": "Point", "coordinates": [ -65.192414, -31.984654 ] } },
{ "type": "Feature", "properties": { "Name": "2.75", "P.K.": null, "Al.Dist. Izq.": 45, "Al.Dist. Der.": 25, "Ruta": "1V20" }, "geometry": { "type": "Point", "coordinates": [ -65.192718, -31.984617 ] } },
{ "type": "Feature", "properties": { "Name": "2.85", "P.K.": null, "Al.Dist. Izq.": 45, "Al.Dist. Der.": 25, "Ruta": "1V20" }, "geometry": { "type": "Point", "coordinates": [ -65.193767, -31.984429 ] } },
{ "type": "Feature", "properties": { "Name": "2.98", "P.K.": null, "Al.Dist. Izq.": 45, "Al.Dist. Der.": 25, "Ruta": "1V20" }, "geometry": { "type": "Point", "coordinates": [ -65.195148, -31.984185 ] } },
{ "type": "Feature", "properties": { "Name": "3", "P.K.": null, "Al.Dist. Izq.": 45, "Al.Dist. Der.": 25, "Ruta": "1V20" }, "geometry": { "type": "Point", "coordinates": [ -65.195308, -31.984157 ] } },
{ "type": "Feature", "properties": { "Name": "3.01", "P.K.": null, "Al.Dist. Izq.": 45, "Al.Dist. Der.": 25, "Ruta": "1V20" }, "geometry": { "type": "Point", "coordinates": [ -65.195448, -31.98421 ] } },
{ "type": "Feature", "properties": { "Name": "3.24", "P.K.": null, "Al.Dist. Izq.": 45, "Al.Dist. Der.": 25, "Ruta": "1V20" }, "geometry": { "type": "Point", "coordinates": [ -65.197745, -31.98372 ] } },
{ "type": "Feature", "properties": { "Name": "3.24", "P.K.": null, "Al.Dist. Izq.": 45, "Al.Dist. Der.": 25, "Ruta": "1V20" }, "geometry": { "type": "Point", "coordinates": [ -65.197745, -31.98372 ] } },
{ "type": "Feature", "properties": { "Name": "3.5", "P.K.": null, "Al.Dist. Izq.": 45, "Al.Dist. Der.": 25, "Ruta": "1V20" }, "geometry": { "type": "Point", "coordinates": [ -65.200436, -31.983187 ] } },
{ "type": "Feature", "properties": { "Name": "3.51", "P.K.": null, "Al.Dist. Izq.": 45, "Al.Dist. Der.": 25, "Ruta": "1V20" }, "geometry": { "type": "Point", "coordinates": [ -65.200546, -31.983312 ] } },
{ "type": "Feature", "properties": { "Name": "3.52", "P.K.": null, "Al.Dist. Izq.": 45, "Al.Dist. Der.": 25, "Ruta": "1V20" }, "geometry": { "type": "Point", "coordinates": [ -65.200656, -31.983081 ] } },
{ "type": "Feature", "properties": { "Name": "3.55", "P.K.": null, "Al.Dist. Izq.": 45, "Al.Dist. Der.": 25, "Ruta": "1V20" }, "geometry": { "type": "Point", "coordinates": [ -65.201055, -31.983241 ] } },
{ "type": "Feature", "properties": { "Name": "3.56", "P.K.": null, "Al.Dist. Izq.": 45, "Al.Dist. Der.": 25, "Ruta": "1V20" }, "geometry": { "type": "Point", "coordinates": [ -65.201153, -31.983111 ] } },
{ "type": "Feature", "properties": { "Name": "3.57", "P.K.": null, "Al.Dist. Izq.": 45, "Al.Dist. Der.": 25, "Ruta": "1V20" }, "geometry": { "type": "Point", "coordinates": [ -65.201183, -31.98296 ] } },
{ "type": "Feature", "properties": { "Name": "3.61", "P.K.": null, "Al.Dist. Izq.": 45, "Al.Dist. Der.": 25, "Ruta": "1V20" }, "geometry": { "type": "Point", "coordinates": [ -65.201494, -31.982809 ] } },
{ "type": "Feature", "properties": { "Name": "3.61", "P.K.": null, "Al.Dist. Izq.": 35, "Al.Dist. Der.": 35, "Ruta": "1V20" }, "geometry": { "type": "Point", "coordinates": [ -65.201494, -31.982809 ] } },
{ "type": "Feature", "properties": { "Name": "3.61", "P.K.": null, "Al.Dist. Izq.": 35, "Al.Dist. Der.": 35, "Ruta": "1V20" }, "geometry": { "type": "Point", "coordinates": [ -65.20165, -31.983347 ] } },
{ "type": "Feature", "properties": { "Name": "3.64", "P.K.": null, "Al.Dist. Izq.": 35, "Al.Dist. Der.": 35, "Ruta": "1V20" }, "geometry": { "type": "Point", "coordinates": [ -65.201941, -31.98311 ] } },
{ "type": "Feature", "properties": { "Name": "3.65", "P.K.": null, "Al.Dist. Izq.": 35, "Al.Dist. Der.": 35, "Ruta": "1V20" }, "geometry": { "type": "Point", "coordinates": [ -65.202002, -31.982977 ] } },
{ "type": "Feature", "properties": { "Name": "3.83", "P.K.": null, "Al.Dist. Izq.": 35, "Al.Dist. Der.": 35, "Ruta": "1V20" }, "geometry": { "type": "Point", "coordinates": [ -65.203883, -31.982846 ] } },
{ "type": "Feature", "properties": { "Name": "3.95", "P.K.": null, "Al.Dist. Izq.": 35, "Al.Dist. Der.": 35, "Ruta": "1V20" }, "geometry": { "type": "Point", "coordinates": [ -65.205189, -31.982685 ] } },
{ "type": "Feature", "properties": { "Name": "4.04", "P.K.": null, "Al.Dist. Izq.": 35, "Al.Dist. Der.": 35, "Ruta": "1V20" }, "geometry": { "type": "Point", "coordinates": [ -65.206136, -31.982492 ] } },
{ "type": "Feature", "properties": { "Name": "4.17", "P.K.": null, "Al.Dist. Izq.": 35, "Al.Dist. Der.": 35, "Ruta": "1V20" }, "geometry": { "type": "Point", "coordinates": [ -65.20743, -31.982282 ] } },
{ "type": "Feature", "properties": { "Name": "4.32", "P.K.": null, "Al.Dist. Izq.": 35, "Al.Dist. Der.": 35, "Ruta": "1V20" }, "geometry": { "type": "Point", "coordinates": [ -65.209471, -31.981911 ] } },
{ "type": "Feature", "properties": { "Name": "4.57", "P.K.": null, "Al.Dist. Izq.": 35, "Al.Dist. Der.": 35, "Ruta": "1V20" }, "geometry": { "type": "Point", "coordinates": [ -65.211627, -31.981505 ] } },
{ "type": "Feature", "properties": { "Name": "4.99", "P.K.": null, "Al.Dist. Izq.": 35, "Al.Dist. Der.": 35, "Ruta": "1V20" }, "geometry": { "type": "Point", "coordinates": [ -65.215951, -31.980752 ] } },
{ "type": "Feature", "properties": { "Name": "5.21", "P.K.": null, "Al.Dist. Izq.": 35, "Al.Dist. Der.": 35, "Ruta": "1V20" }, "geometry": { "type": "Point", "coordinates": [ -65.218172, -31.980361 ] } },
{ "type": "Feature", "properties": { "Name": "5.25", "P.K.": null, "Al.Dist. Izq.": 35, "Al.Dist. Der.": 35, "Ruta": "1V20" }, "geometry": { "type": "Point", "coordinates": [ -65.218628, -31.980275 ] } },
{ "type": "Feature", "properties": { "Name": "5.53", "P.K.": null, "Al.Dist. Izq.": 35, "Al.Dist. Der.": 35, "Ruta": "1V20" }, "geometry": { "type": "Point", "coordinates": [ -65.221477, -31.979724 ] } },
{ "type": "Feature", "properties": { "Name": "5.7", "P.K.": null, "Al.Dist. Izq.": 35, "Al.Dist. Der.": 35, "Ruta": "1V20" }, "geometry": { "type": "Point", "coordinates": [ -65.223209, -31.979385 ] } },
{ "type": "Feature", "properties": { "Name": "5.84", "P.K.": null, "Al.Dist. Izq.": 35, "Al.Dist. Der.": 35, "Ruta": "1V20" }, "geometry": { "type": "Point", "coordinates": [ -65.224696, -31.9793 ] } },
{ "type": "Feature", "properties": { "Name": "6.16", "P.K.": null, "Al.Dist. Izq.": 35, "Al.Dist. Der.": 35, "Ruta": "1V20" }, "geometry": { "type": "Point", "coordinates": [ -65.228058, -31.978602 ] } },
{ "type": "Feature", "properties": { "Name": "6.23", "P.K.": null, "Al.Dist. Izq.": 35, "Al.Dist. Der.": 35, "Ruta": "1V20" }, "geometry": { "type": "Point", "coordinates": [ -65.228805, -31.978541 ] } },
{ "type": "Feature", "properties": { "Name": "6.25", "P.K.": null, "Al.Dist. Izq.": 35, "Al.Dist. Der.": 35, "Ruta": "1V20" }, "geometry": { "type": "Point", "coordinates": [ -65.228946, -31.978388 ] } },
{ "type": "Feature", "properties": { "Name": "6.54", "P.K.": null, "Al.Dist. Izq.": 35, "Al.Dist. Der.": 35, "Ruta": "1V20" }, "geometry": { "type": "Point", "coordinates": [ -65.23192, -31.977821 ] } },
{ "type": "Feature", "properties": { "Name": "6.54", "P.K.": null, "Al.Dist. Izq.": 35, "Al.Dist. Der.": 35, "Ruta": "1V20" }, "geometry": { "type": "Point", "coordinates": [ -65.23192, -31.977821 ] } },
{ "type": "Feature", "properties": { "Name": "6.62", "P.K.": null, "Al.Dist. Izq.": 35, "Al.Dist. Der.": 35, "Ruta": "1V20" }, "geometry": { "type": "Point", "coordinates": [ -65.232847, -31.977639 ] } },
{ "type": "Feature", "properties": { "Name": "6.63", "P.K.": null, "Al.Dist. Izq.": 35, "Al.Dist. Der.": 35, "Ruta": "1V20" }, "geometry": { "type": "Point", "coordinates": [ -65.232936, -31.977625 ] } },
{ "type": "Feature", "properties": { "Name": "6.92", "P.K.": null, "Al.Dist. Izq.": 35, "Al.Dist. Der.": 35, "Ruta": "1V20" }, "geometry": { "type": "Point", "coordinates": [ -65.235859, -31.977118 ] } },
{ "type": "Feature", "properties": { "Name": "7.06", "P.K.": null, "Al.Dist. Izq.": 35, "Al.Dist. Der.": 35, "Ruta": "1V20" }, "geometry": { "type": "Point", "coordinates": [ -65.237368, -31.976817 ] } },
{ "type": "Feature", "properties": { "Name": "7.12", "P.K.": null, "Al.Dist. Izq.": 35, "Al.Dist. Der.": 35, "Ruta": "1V20" }, "geometry": { "type": "Point", "coordinates": [ -65.237881, -31.976472 ] } }
]
}
