{
"type": "FeatureCollection",
"name": "MOJONES RN 2V09",
"features": [
{ "type": "Feature", "properties": { "Name": "0", "P.K.": null, "Al.Dist. Izq.": 65, "Al.Dist. Der.": 35, "Ruta": "2V09" }, "geometry": { "type": "Point", "coordinates": [ -64.189371, -31.3547911 ] } },
{ "type": "Feature", "properties": { "Name": "0.11", "P.K.": null, "Al.Dist. Izq.": 65, "Al.Dist. Der.": 35, "Ruta": "2V09" }, "geometry": { "type": "Point", "coordinates": [ -64.1883127, -31.3551779 ] } },
{ "type": "Feature", "properties": { "Name": "0.24", "P.K.": null, "Al.Dist. Izq.": 65, "Al.Dist. Der.": 35, "Ruta": "2V09" }, "geometry": { "type": "Point", "coordinates": [ -64.1884636, -31.3560053 ] } },
{ "type": "Feature", "properties": { "Name": "0.35", "P.K.": null, "Al.Dist. Izq.": 65, "Al.Dist. Der.": 35, "Ruta": "2V09" }, "geometry": { "type": "Point", "coordinates": [ -64.1893569, -31.3553115 ] } },
{ "type": "Feature", "properties": { "Name": "0.41", "P.K.": null, "Al.Dist. Izq.": 65, "Al.Dist. Der.": 35, "Ruta": "2V09" }, "geometry": { "type": "Point", "coordinates": [ -64.189371, -31.3547911 ] } },
{ "type": "Feature", "properties": { "Name": "0.54", "P.K.": null, "Al.Dist. Izq.": 65, "Al.Dist. Der.": 35, "Ruta": "2V09" }, "geometry": { "type": "Point", "coordinates": [ -64.1894118, -31.3537566 ] } },
{ "type": "Feature", "properties": { "Name": "0.7", "P.K.": null, "Al.Dist. Izq.": 65, "Al.Dist. Der.": 35, "Ruta": "2V09" }, "geometry": { "type": "Point", "coordinates": [ -64.1887967, -31.3517951 ] } },
{ "type": "Feature", "properties": { "Name": "0.82", "P.K.": null, "Al.Dist. Izq.": 65, "Al.Dist. Der.": 35, "Ruta": "2V09" }, "geometry": { "type": "Point", "coordinates": [ -64.1887114, -31.3505693 ] } },
{ "type": "Feature", "properties": { "Name": "0.83", "P.K.": null, "Al.Dist. Izq.": 65, "Al.Dist. Der.": 35, "Ruta": "2V09" }, "geometry": { "type": "Point", "coordinates": [ -64.188984, -31.351173 ] } },
{ "type": "Feature", "properties": { "Name": "0.86", "P.K.": null, "Al.Dist. Izq.": 65, "Al.Dist. Der.": 35, "Ruta": "2V09" }, "geometry": { "type": "Point", "coordinates": [ -64.1889486, -31.350861 ] } },
{ "type": "Feature", "properties": { "Name": "0.87", "P.K.": null, "Al.Dist. Izq.": 65, "Al.Dist. Der.": 35, "Ruta": "2V09" }, "geometry": { "type": "Point", "coordinates": [ -64.1890111, -31.3508281 ] } },
{ "type": "Feature", "properties": { "Name": "0.89", "P.K.": null, "Al.Dist. Izq.": 65, "Al.Dist. Der.": 35, "Ruta": "2V09" }, "geometry": { "type": "Point", "coordinates": [ -64.1886368, -31.3506542 ] } },
{ "type": "Feature", "properties": { "Name": "0.94", "P.K.": null, "Al.Dist. Izq.": 65, "Al.Dist. Der.": 35, "Ruta": "2V09" }, "geometry": { "type": "Point", "coordinates": [ -64.1886392, -31.3493412 ] } },
{ "type": "Feature", "properties": { "Name": "0.96", "P.K.": null, "Al.Dist. Izq.": 65, "Al.Dist. Der.": 35, "Ruta": "2V09" }, "geometry": { "type": "Point", "coordinates": [ -64.188446, -31.350025 ] } },
{ "type": "Feature", "properties": { "Name": "0.97", "P.K.": null, "Al.Dist. Izq.": 65, "Al.Dist. Der.": 35, "Ruta": "2V09" }, "geometry": { "type": "Point", "coordinates": [ -64.1884051, -31.3499315 ] } },
{ "type": "Feature", "properties": { "Name": "1.03", "P.K.": null, "Al.Dist. Izq.": 65, "Al.Dist. Der.": 35, "Ruta": "2V09" }, "geometry": { "type": "Point", "coordinates": [ -64.1884228, -31.3494115 ] } },
{ "type": "Feature", "properties": { "Name": "1.07", "P.K.": null, "Al.Dist. Izq.": 65, "Al.Dist. Der.": 35, "Ruta": "2V09" }, "geometry": { "type": "Point", "coordinates": [ -64.1883118, -31.3490403 ] } },
{ "type": "Feature", "properties": { "Name": "1.18", "P.K.": null, "Al.Dist. Izq.": 65, "Al.Dist. Der.": 35, "Ruta": "2V09" }, "geometry": { "type": "Point", "coordinates": [ -64.1881196, -31.3480774 ] } },
{ "type": "Feature", "properties": { "Name": "1.2", "P.K.": null, "Al.Dist. Izq.": 65, "Al.Dist. Der.": 35, "Ruta": "2V09" }, "geometry": { "type": "Point", "coordinates": [ -64.1882623, -31.3467028 ] } },
{ "type": "Feature", "properties": { "Name": "1.3", "P.K.": null, "Al.Dist. Izq.": 65, "Al.Dist. Der.": 35, "Ruta": "2V09" }, "geometry": { "type": "Point", "coordinates": [ -64.1882062, -31.345679 ] } },
{ "type": "Feature", "properties": { "Name": "1.33", "P.K.": null, "Al.Dist. Izq.": 65, "Al.Dist. Der.": 35, "Ruta": "2V09" }, "geometry": { "type": "Point", "coordinates": [ -64.1882373, -31.3467147 ] } },
{ "type": "Feature", "properties": { "Name": "1.34", "P.K.": null, "Al.Dist. Izq.": 65, "Al.Dist. Der.": 35, "Ruta": "2V09" }, "geometry": { "type": "Point", "coordinates": [ -64.1879519, -31.3466757 ] } },
{ "type": "Feature", "properties": { "Name": "1.51", "P.K.": null, "Al.Dist. Izq.": 65, "Al.Dist. Der.": 35, "Ruta": "2V09" }, "geometry": { "type": "Point", "coordinates": [ -64.1883112, -31.3450749 ] } },
{ "type": "Feature", "properties": { "Name": "1.52", "P.K.": null, "Al.Dist. Izq.": 65, "Al.Dist. Der.": 35, "Ruta": "2V09" }, "geometry": { "type": "Point", "coordinates": [ -64.1882406, -31.3434259 ] } },
{ "type": "Feature", "properties": { "Name": "1.54", "P.K.": null, "Al.Dist. Izq.": 65, "Al.Dist. Der.": 35, "Ruta": "2V09" }, "geometry": { "type": "Point", "coordinates": [ -64.1878621, -31.3448779 ] } },
{ "type": "Feature", "properties": { "Name": "1.94", "P.K.": null, "Al.Dist. Izq.": 65, "Al.Dist. Der.": 35, "Ruta": "2V09" }, "geometry": { "type": "Point", "coordinates": [ -64.1885828, -31.3412947 ] } },
{ "type": "Feature", "properties": { "Name": "2.03", "P.K.": null, "Al.Dist. Izq.": 65, "Al.Dist. Der.": 35, "Ruta": "2V09" }, "geometry": { "type": "Point", "coordinates": [ -64.18836, -31.340472 ] } },
{ "type": "Feature", "properties": { "Name": "2.1", "P.K.": null, "Al.Dist. Izq.": 65, "Al.Dist. Der.": 35, "Ruta": "2V09" }, "geometry": { "type": "Point", "coordinates": [ -64.1884, -31.3398 ] } },
{ "type": "Feature", "properties": { "Name": "2.12", "P.K.": null, "Al.Dist. Izq.": 65, "Al.Dist. Der.": 35, "Ruta": "2V09" }, "geometry": { "type": "Point", "coordinates": [ -64.188577, -31.339682 ] } },
{ "type": "Feature", "properties": { "Name": "2.2", "P.K.": null, "Al.Dist. Izq.": null, "Al.Dist. Der.": null, "Ruta": "2V09" }, "geometry": { "type": "Point", "coordinates": [ -64.1885592, -31.3389005 ] } },
{ "type": "Feature", "properties": { "Name": "2.22", "P.K.": null, "Al.Dist. Izq.": null, "Al.Dist. Der.": null, "Ruta": "2V09" }, "geometry": { "type": "Point", "coordinates": [ -64.1885781, -31.3387086 ] } },
{ "type": "Feature", "properties": { "Name": "2.23", "P.K.": null, "Al.Dist. Izq.": null, "Al.Dist. Der.": null, "Ruta": "2V09" }, "geometry": { "type": "Point", "coordinates": [ -64.1889242, -31.3361783 ] } },
{ "type": "Feature", "properties": { "Name": "2.49", "P.K.": null, "Al.Dist. Izq.": null, "Al.Dist. Der.": null, "Ruta": "2V09" }, "geometry": { "type": "Point", "coordinates": [ -64.1888072, -31.3362802 ] } },
{ "type": "Feature", "properties": { "Name": "2.52", "P.K.": null, "Al.Dist. Izq.": null, "Al.Dist. Der.": null, "Ruta": "2V09" }, "geometry": { "type": "Point", "coordinates": [ -64.1889342, -31.3335745 ] } },
{ "type": "Feature", "properties": { "Name": "2.66", "P.K.": null, "Al.Dist. Izq.": null, "Al.Dist. Der.": null, "Ruta": "2V09" }, "geometry": { "type": "Point", "coordinates": [ -64.1888378, -31.3347564 ] } },
{ "type": "Feature", "properties": { "Name": "2.7", "P.K.": null, "Al.Dist. Izq.": null, "Al.Dist. Der.": null, "Ruta": "2V09" }, "geometry": { "type": "Point", "coordinates": [ -64.1888356, -31.3344493 ] } },
{ "type": "Feature", "properties": { "Name": "2.74", "P.K.": null, "Al.Dist. Izq.": null, "Al.Dist. Der.": null, "Ruta": "2V09" }, "geometry": { "type": "Point", "coordinates": [ -64.1890605, -31.3340126 ] } },
{ "type": "Feature", "properties": { "Name": "2.87", "P.K.": null, "Al.Dist. Izq.": null, "Al.Dist. Der.": null, "Ruta": "2V09" }, "geometry": { "type": "Point", "coordinates": [ -64.1886956, -31.3328894 ] } },
{ "type": "Feature", "properties": { "Name": "2.92", "P.K.": null, "Al.Dist. Izq.": null, "Al.Dist. Der.": null, "Ruta": "2V09" }, "geometry": { "type": "Point", "coordinates": [ -64.1886802, -31.3324039 ] } },
{ "type": "Feature", "properties": { "Name": "2.97", "P.K.": null, "Al.Dist. Izq.": null, "Al.Dist. Der.": null, "Ruta": "2V09" }, "geometry": { "type": "Point", "coordinates": [ -64.1889596, -31.3320148 ] } },
{ "type": "Feature", "properties": { "Name": "3.07", "P.K.": null, "Al.Dist. Izq.": null, "Al.Dist. Der.": null, "Ruta": "2V09" }, "geometry": { "type": "Point", "coordinates": [ -64.1888568, -31.3311037 ] } },
{ "type": "Feature", "properties": { "Name": "3.19", "P.K.": null, "Al.Dist. Izq.": null, "Al.Dist. Der.": null, "Ruta": "2V09" }, "geometry": { "type": "Point", "coordinates": [ -64.1884175, -31.3300105 ] } },
{ "type": "Feature", "properties": { "Name": "3.25", "P.K.": null, "Al.Dist. Izq.": null, "Al.Dist. Der.": null, "Ruta": "2V09" }, "geometry": { "type": "Point", "coordinates": [ -64.1881116, -31.3270757 ] } },
{ "type": "Feature", "properties": { "Name": "3.26", "P.K.": null, "Al.Dist. Izq.": null, "Al.Dist. Der.": null, "Ruta": "2V09" }, "geometry": { "type": "Point", "coordinates": [ -64.188411, -31.329373 ] } },
{ "type": "Feature", "properties": { "Name": "3.26", "P.K.": null, "Al.Dist. Izq.": 60, "Al.Dist. Der.": 35, "Ruta": "2V09" }, "geometry": { "type": "Point", "coordinates": [ -64.188411, -31.329373 ] } },
{ "type": "Feature", "properties": { "Name": "3.31", "P.K.": null, "Al.Dist. Izq.": 60, "Al.Dist. Der.": 35, "Ruta": "2V09" }, "geometry": { "type": "Point", "coordinates": [ -64.1882529, -31.3289856 ] } },
{ "type": "Feature", "properties": { "Name": "3.48", "P.K.": null, "Al.Dist. Izq.": 60, "Al.Dist. Der.": 35, "Ruta": "2V09" }, "geometry": { "type": "Point", "coordinates": [ -64.1880834, -31.3274198 ] } },
{ "type": "Feature", "properties": { "Name": "3.51", "P.K.": null, "Al.Dist. Izq.": 60, "Al.Dist. Der.": 35, "Ruta": "2V09" }, "geometry": { "type": "Point", "coordinates": [ -64.1880727, -31.3271505 ] } },
{ "type": "Feature", "properties": { "Name": "3.53", "P.K.": null, "Al.Dist. Izq.": 60, "Al.Dist. Der.": 35, "Ruta": "2V09" }, "geometry": { "type": "Point", "coordinates": [ -64.1878343, -31.3269606 ] } },
{ "type": "Feature", "properties": { "Name": "3.58", "P.K.": null, "Al.Dist. Izq.": 60, "Al.Dist. Der.": 35, "Ruta": "2V09" }, "geometry": { "type": "Point", "coordinates": [ -64.1881236, -31.326474 ] } },
{ "type": "Feature", "properties": { "Name": "3.65", "P.K.": null, "Al.Dist. Izq.": 60, "Al.Dist. Der.": 35, "Ruta": "2V09" }, "geometry": { "type": "Point", "coordinates": [ -64.1876204, -31.3259511 ] } },
{ "type": "Feature", "properties": { "Name": "3.7", "P.K.": null, "Al.Dist. Izq.": 60, "Al.Dist. Der.": 35, "Ruta": "2V09" }, "geometry": { "type": "Point", "coordinates": [ -64.1872304, -31.3231335 ] } },
{ "type": "Feature", "properties": { "Name": "3.81", "P.K.": null, "Al.Dist. Izq.": 60, "Al.Dist. Der.": 35, "Ruta": "2V09" }, "geometry": { "type": "Point", "coordinates": [ -64.1872858, -31.3245483 ] } },
{ "type": "Feature", "properties": { "Name": "3.82", "P.K.": null, "Al.Dist. Izq.": 60, "Al.Dist. Der.": 35, "Ruta": "2V09" }, "geometry": { "type": "Point", "coordinates": [ -64.1872254, -31.3244408 ] } },
{ "type": "Feature", "properties": { "Name": "3.96", "P.K.": null, "Al.Dist. Izq.": 60, "Al.Dist. Der.": 35, "Ruta": "2V09" }, "geometry": { "type": "Point", "coordinates": [ -64.1868737, -31.3232518 ] } },
{ "type": "Feature", "properties": { "Name": "4.08", "P.K.": null, "Al.Dist. Izq.": 60, "Al.Dist. Der.": 35, "Ruta": "2V09" }, "geometry": { "type": "Point", "coordinates": [ -64.1868541, -31.3221367 ] } },
{ "type": "Feature", "properties": { "Name": "4.11", "P.K.": null, "Al.Dist. Izq.": 60, "Al.Dist. Der.": 35, "Ruta": "2V09" }, "geometry": { "type": "Point", "coordinates": [ -64.1865644, -31.3219081 ] } },
{ "type": "Feature", "properties": { "Name": "4.45", "P.K.": null, "Al.Dist. Izq.": 60, "Al.Dist. Der.": 35, "Ruta": "2V09" }, "geometry": { "type": "Point", "coordinates": [ -64.1860085, -31.3189057 ] } },
{ "type": "Feature", "properties": { "Name": "4.58", "P.K.": null, "Al.Dist. Izq.": 60, "Al.Dist. Der.": 35, "Ruta": "2V09" }, "geometry": { "type": "Point", "coordinates": [ -64.1850273, -31.3154967 ] } },
{ "type": "Feature", "properties": { "Name": "4.66", "P.K.": null, "Al.Dist. Izq.": 60, "Al.Dist. Der.": 35, "Ruta": "2V09" }, "geometry": { "type": "Point", "coordinates": [ -64.1854175, -31.3168328 ] } },
{ "type": "Feature", "properties": { "Name": "4.95", "P.K.": null, "Al.Dist. Izq.": 60, "Al.Dist. Der.": 35, "Ruta": "2V09" }, "geometry": { "type": "Point", "coordinates": [ -64.184557, -31.3121101 ] } },
{ "type": "Feature", "properties": { "Name": "5.02", "P.K.": null, "Al.Dist. Izq.": 60, "Al.Dist. Der.": 35, "Ruta": "2V09" }, "geometry": { "type": "Point", "coordinates": [ -64.1843612, -31.3139153 ] } },
{ "type": "Feature", "properties": { "Name": "5.08", "P.K.": null, "Al.Dist. Izq.": 60, "Al.Dist. Der.": 35, "Ruta": "2V09" }, "geometry": { "type": "Point", "coordinates": [ -64.1846325, -31.3135916 ] } },
{ "type": "Feature", "properties": { "Name": "5.08", "P.K.": null, "Al.Dist. Izq.": 60, "Al.Dist. Der.": 35, "Ruta": "2V09" }, "geometry": { "type": "Point", "coordinates": [ -64.1842995, -31.3133207 ] } },
{ "type": "Feature", "properties": { "Name": "5.92", "P.K.": null, "Al.Dist. Izq.": 60, "Al.Dist. Der.": 35, "Ruta": "2V09" }, "geometry": { "type": "Point", "coordinates": [ -64.184757, -31.3031125 ] } },
{ "type": "Feature", "properties": { "Name": "6.08", "P.K.": null, "Al.Dist. Izq.": 60, "Al.Dist. Der.": 35, "Ruta": "2V09" }, "geometry": { "type": "Point", "coordinates": [ -64.1844133, -31.3043101 ] } },
{ "type": "Feature", "properties": { "Name": "6.09", "P.K.": null, "Al.Dist. Izq.": 60, "Al.Dist. Der.": 35, "Ruta": "2V09" }, "geometry": { "type": "Point", "coordinates": [ -64.184931, -31.3042509 ] } },
{ "type": "Feature", "properties": { "Name": "6.48", "P.K.": null, "Al.Dist. Izq.": 60, "Al.Dist. Der.": 35, "Ruta": "2V09" }, "geometry": { "type": "Point", "coordinates": [ -64.1860295, -31.2981146 ] } },
{ "type": "Feature", "properties": { "Name": "6.84", "P.K.": null, "Al.Dist. Izq.": 60, "Al.Dist. Der.": 35, "Ruta": "2V09" }, "geometry": { "type": "Point", "coordinates": [ -64.1873504, -31.2950468 ] } },
{ "type": "Feature", "properties": { "Name": "6.87", "P.K.": null, "Al.Dist. Izq.": 60, "Al.Dist. Der.": 35, "Ruta": "2V09" }, "geometry": { "type": "Point", "coordinates": [ -64.1860411, -31.2974102 ] } },
{ "type": "Feature", "properties": { "Name": "7.15", "P.K.": null, "Al.Dist. Izq.": 60, "Al.Dist. Der.": 35, "Ruta": "2V09" }, "geometry": { "type": "Point", "coordinates": [ -64.1870271, -31.2950626 ] } },
{ "type": "Feature", "properties": { "Name": "7.32", "P.K.": null, "Al.Dist. Izq.": 60, "Al.Dist. Der.": 35, "Ruta": "2V09" }, "geometry": { "type": "Point", "coordinates": [ -64.1879299, -31.2936312 ] } },
{ "type": "Feature", "properties": { "Name": "7.39", "P.K.": null, "Al.Dist. Izq.": 60, "Al.Dist. Der.": 35, "Ruta": "2V09" }, "geometry": { "type": "Point", "coordinates": [ -64.1880774, -31.2929869 ] } },
{ "type": "Feature", "properties": { "Name": "7.45", "P.K.": null, "Al.Dist. Izq.": 60, "Al.Dist. Der.": 35, "Ruta": "2V09" }, "geometry": { "type": "Point", "coordinates": [ -64.1883638, -31.2895083 ] } },
{ "type": "Feature", "properties": { "Name": "7.54", "P.K.": null, "Al.Dist. Izq.": 60, "Al.Dist. Der.": 35, "Ruta": "2V09" }, "geometry": { "type": "Point", "coordinates": [ -64.1883351, -31.291677 ] } },
{ "type": "Feature", "properties": { "Name": "7.62", "P.K.": null, "Al.Dist. Izq.": 60, "Al.Dist. Der.": 35, "Ruta": "2V09" }, "geometry": { "type": "Point", "coordinates": [ -64.1882823, -31.2909337 ] } },
{ "type": "Feature", "properties": { "Name": "7.68", "P.K.": null, "Al.Dist. Izq.": 60, "Al.Dist. Der.": 35, "Ruta": "2V09" }, "geometry": { "type": "Point", "coordinates": [ -64.1880779, -31.2903867 ] } },
{ "type": "Feature", "properties": { "Name": "7.69", "P.K.": null, "Al.Dist. Izq.": 60, "Al.Dist. Der.": 35, "Ruta": "2V09" }, "geometry": { "type": "Point", "coordinates": [ -64.188295, -31.290289 ] } },
{ "type": "Feature", "properties": { "Name": "7.69", "P.K.": null, "Al.Dist. Izq.": 60, "Al.Dist. Der.": 35, "Ruta": "2V09" }, "geometry": { "type": "Point", "coordinates": [ -64.1884652, -31.2902982 ] } },
{ "type": "Feature", "properties": { "Name": "8.15", "P.K.": null, "Al.Dist. Izq.": 60, "Al.Dist. Der.": 35, "Ruta": "2V09" }, "geometry": { "type": "Point", "coordinates": [ -64.1881558, -31.2860884 ] } },
{ "type": "Feature", "properties": { "Name": "8.4", "P.K.": null, "Al.Dist. Izq.": 60, "Al.Dist. Der.": 35, "Ruta": "2V09" }, "geometry": { "type": "Point", "coordinates": [ -64.1885534, -31.2838594 ] } },
{ "type": "Feature", "properties": { "Name": "8.41", "P.K.": null, "Al.Dist. Izq.": 60, "Al.Dist. Der.": 35, "Ruta": "2V09" }, "geometry": { "type": "Point", "coordinates": [ -64.1882274, -31.283735 ] } },
{ "type": "Feature", "properties": { "Name": "8.41", "P.K.": null, "Al.Dist. Izq.": 60, "Al.Dist. Der.": 35, "Ruta": "2V09" }, "geometry": { "type": "Point", "coordinates": [ -64.1881292, -31.2837802 ] } },
{ "type": "Feature", "properties": { "Name": "8.49", "P.K.": null, "Al.Dist. Izq.": 60, "Al.Dist. Der.": 35, "Ruta": "2V09" }, "geometry": { "type": "Point", "coordinates": [ -64.1886969, -31.2830326 ] } },
{ "type": "Feature", "properties": { "Name": "8.49", "P.K.": null, "Al.Dist. Izq.": 60, "Al.Dist. Der.": 35, "Ruta": "2V09" }, "geometry": { "type": "Point", "coordinates": [ -64.1887005, -31.2830469 ] } },
{ "type": "Feature", "properties": { "Name": "8.62", "P.K.": null, "Al.Dist. Izq.": 60, "Al.Dist. Der.": 35, "Ruta": "2V09" }, "geometry": { "type": "Point", "coordinates": [ -64.1887386, -31.2818712 ] } },
{ "type": "Feature", "properties": { "Name": "8.68", "P.K.": null, "Al.Dist. Izq.": 60, "Al.Dist. Der.": 35, "Ruta": "2V09" }, "geometry": { "type": "Point", "coordinates": [ -64.188597, -31.2813327 ] } },
{ "type": "Feature", "properties": { "Name": "8.84", "P.K.": null, "Al.Dist. Izq.": 60, "Al.Dist. Der.": 35, "Ruta": "2V09" }, "geometry": { "type": "Point", "coordinates": [ -64.1883153, -31.2798986 ] } },
{ "type": "Feature", "properties": { "Name": "9.03", "P.K.": null, "Al.Dist. Izq.": 60, "Al.Dist. Der.": 35, "Ruta": "2V09" }, "geometry": { "type": "Point", "coordinates": [ -64.1887627, -31.2781558 ] } },
{ "type": "Feature", "properties": { "Name": "9.05", "P.K.": null, "Al.Dist. Izq.": 60, "Al.Dist. Der.": 35, "Ruta": "2V09" }, "geometry": { "type": "Point", "coordinates": [ -64.1883, -31.278 ] } },
{ "type": "Feature", "properties": { "Name": "9.3", "P.K.": null, "Al.Dist. Izq.": 60, "Al.Dist. Der.": 35, "Ruta": "2V09" }, "geometry": { "type": "Point", "coordinates": [ -64.188834, -31.2757407 ] } },
{ "type": "Feature", "properties": { "Name": "9.72", "P.K.": null, "Al.Dist. Izq.": 60, "Al.Dist. Der.": 35, "Ruta": "2V09" }, "geometry": { "type": "Point", "coordinates": [ -64.1884509, -31.2719277 ] } },
{ "type": "Feature", "properties": { "Name": "9.74", "P.K.": null, "Al.Dist. Izq.": 60, "Al.Dist. Der.": 35, "Ruta": "2V09" }, "geometry": { "type": "Point", "coordinates": [ -64.1886646, -31.2718285 ] } },
{ "type": "Feature", "properties": { "Name": "9.79", "P.K.": null, "Al.Dist. Izq.": 60, "Al.Dist. Der.": 35, "Ruta": "2V09" }, "geometry": { "type": "Point", "coordinates": [ -64.1888698, -31.271297 ] } },
{ "type": "Feature", "properties": { "Name": "9.88", "P.K.": null, "Al.Dist. Izq.": 60, "Al.Dist. Der.": 35, "Ruta": "2V09" }, "geometry": { "type": "Point", "coordinates": [ -64.1886041, -31.2705012 ] } },
{ "type": "Feature", "properties": { "Name": "9.89", "P.K.": null, "Al.Dist. Izq.": 60, "Al.Dist. Der.": 35, "Ruta": "2V09" }, "geometry": { "type": "Point", "coordinates": [ -64.1884495, -31.2704733 ] } },
{ "type": "Feature", "properties": { "Name": "9.96", "P.K.": null, "Al.Dist. Izq.": 60, "Al.Dist. Der.": 35, "Ruta": "2V09" }, "geometry": { "type": "Point", "coordinates": [ -64.1884556, -31.2698102 ] } },
{ "type": "Feature", "properties": { "Name": "10.03", "P.K.": null, "Al.Dist. Izq.": 60, "Al.Dist. Der.": 35, "Ruta": "2V09" }, "geometry": { "type": "Point", "coordinates": [ -64.188477, -31.2691297 ] } },
{ "type": "Feature", "properties": { "Name": "10.11", "P.K.": null, "Al.Dist. Izq.": 60, "Al.Dist. Der.": 35, "Ruta": "2V09" }, "geometry": { "type": "Point", "coordinates": [ -64.1884857, -31.2684776 ] } },
{ "type": "Feature", "properties": { "Name": "10.18", "P.K.": null, "Al.Dist. Izq.": 60, "Al.Dist. Der.": 35, "Ruta": "2V09" }, "geometry": { "type": "Point", "coordinates": [ -64.1885092, -31.267792 ] } },
{ "type": "Feature", "properties": { "Name": "10.3", "P.K.": null, "Al.Dist. Izq.": 60, "Al.Dist. Der.": 35, "Ruta": "2V09" }, "geometry": { "type": "Point", "coordinates": [ -64.1888126, -31.266776 ] } },
{ "type": "Feature", "properties": { "Name": "10.5", "P.K.": null, "Al.Dist. Izq.": 60, "Al.Dist. Der.": 35, "Ruta": "2V09" }, "geometry": { "type": "Point", "coordinates": [ -64.1888136, -31.2612139 ] } },
{ "type": "Feature", "properties": { "Name": "10.76", "P.K.": null, "Al.Dist. Izq.": 60, "Al.Dist. Der.": 35, "Ruta": "2V09" }, "geometry": { "type": "Point", "coordinates": [ -64.1886041, -31.2626176 ] } },
{ "type": "Feature", "properties": { "Name": "11.73", "P.K.": null, "Al.Dist. Izq.": 60, "Al.Dist. Der.": 35, "Ruta": "2V09" }, "geometry": { "type": "Point", "coordinates": [ -64.1821969, -31.252491 ] } },
{ "type": "Feature", "properties": { "Name": "12.86", "P.K.": null, "Al.Dist. Izq.": 60, "Al.Dist. Der.": 35, "Ruta": "2V09" }, "geometry": { "type": "Point", "coordinates": [ -64.1756801, -31.2483915 ] } },
{ "type": "Feature", "properties": { "Name": "13.05", "P.K.": null, "Al.Dist. Izq.": 60, "Al.Dist. Der.": 35, "Ruta": "2V09" }, "geometry": { "type": "Point", "coordinates": [ -64.1740712, -31.2473746 ] } },
{ "type": "Feature", "properties": { "Name": "13.35", "P.K.": null, "Al.Dist. Izq.": 60, "Al.Dist. Der.": 35, "Ruta": "2V09" }, "geometry": { "type": "Point", "coordinates": [ -64.1712328, -31.2461431 ] } },
{ "type": "Feature", "properties": { "Name": "13.46", "P.K.": null, "Al.Dist. Izq.": 60, "Al.Dist. Der.": 35, "Ruta": "2V09" }, "geometry": { "type": "Point", "coordinates": [ -64.1703723, -31.2454457 ] } },
{ "type": "Feature", "properties": { "Name": "13.56", "P.K.": null, "Al.Dist. Izq.": 60, "Al.Dist. Der.": 35, "Ruta": "2V09" }, "geometry": { "type": "Point", "coordinates": [ -64.1697161, -31.2447424 ] } },
{ "type": "Feature", "properties": { "Name": "13.56", "P.K.": null, "Al.Dist. Izq.": 60, "Al.Dist. Der.": 35, "Ruta": "2V09" }, "geometry": { "type": "Point", "coordinates": [ -64.1695972, -31.2448463 ] } },
{ "type": "Feature", "properties": { "Name": "13.7", "P.K.": null, "Al.Dist. Izq.": 60, "Al.Dist. Der.": 35, "Ruta": "2V09" }, "geometry": { "type": "Point", "coordinates": [ -64.1684518, -31.2439761 ] } },
{ "type": "Feature", "properties": { "Name": "13.7", "P.K.": null, "Al.Dist. Izq.": 60, "Al.Dist. Der.": 35, "Ruta": "2V09" }, "geometry": { "type": "Point", "coordinates": [ -64.1683434, -31.2440928 ] } },
{ "type": "Feature", "properties": { "Name": "13.7", "P.K.": null, "Al.Dist. Izq.": 60, "Al.Dist. Der.": 35, "Ruta": "2V09" }, "geometry": { "type": "Point", "coordinates": [ -64.1682567, -31.2442053 ] } },
{ "type": "Feature", "properties": { "Name": "13.71", "P.K.": null, "Al.Dist. Izq.": 60, "Al.Dist. Der.": 35, "Ruta": "2V09" }, "geometry": { "type": "Point", "coordinates": [ -64.1681678, -31.244258 ] } },
{ "type": "Feature", "properties": { "Name": "13.75", "P.K.": null, "Al.Dist. Izq.": 60, "Al.Dist. Der.": 35, "Ruta": "2V09" }, "geometry": { "type": "Point", "coordinates": [ -64.1679055, -31.2439495 ] } },
{ "type": "Feature", "properties": { "Name": "13.75", "P.K.": null, "Al.Dist. Izq.": 60, "Al.Dist. Der.": 35, "Ruta": "2V09" }, "geometry": { "type": "Point", "coordinates": [ -64.167905, -31.24383 ] } },
{ "type": "Feature", "properties": { "Name": "13.79", "P.K.": null, "Al.Dist. Izq.": 60, "Al.Dist. Der.": 35, "Ruta": "2V09" }, "geometry": { "type": "Point", "coordinates": [ -64.167673, -31.243605 ] } },
{ "type": "Feature", "properties": { "Name": "13.8", "P.K.": null, "Al.Dist. Izq.": 60, "Al.Dist. Der.": 35, "Ruta": "2V09" }, "geometry": { "type": "Point", "coordinates": [ -64.1673321, -31.2437553 ] } },
{ "type": "Feature", "properties": { "Name": "13.89", "P.K.": null, "Al.Dist. Izq.": 60, "Al.Dist. Der.": 35, "Ruta": "2V09" }, "geometry": { "type": "Point", "coordinates": [ -64.1666238, -31.2432625 ] } },
{ "type": "Feature", "properties": { "Name": "13.92", "P.K.": null, "Al.Dist. Izq.": 60, "Al.Dist. Der.": 35, "Ruta": "2V09" }, "geometry": { "type": "Point", "coordinates": [ -64.1666428, -31.2428857 ] } },
{ "type": "Feature", "properties": { "Name": "13.98", "P.K.": null, "Al.Dist. Izq.": 60, "Al.Dist. Der.": 35, "Ruta": "2V09" }, "geometry": { "type": "Point", "coordinates": [ -64.1658771, -31.2427596 ] } },
{ "type": "Feature", "properties": { "Name": "14.02", "P.K.": null, "Al.Dist. Izq.": 60, "Al.Dist. Der.": 35, "Ruta": "2V09" }, "geometry": { "type": "Point", "coordinates": [ -64.165609, -31.242443 ] } },
{ "type": "Feature", "properties": { "Name": "14.02", "P.K.": null, "Al.Dist. Izq.": null, "Al.Dist. Der.": null, "Ruta": "2V09" }, "geometry": { "type": "Point", "coordinates": [ -64.165609, -31.242443 ] } },
{ "type": "Feature", "properties": { "Name": "14.1", "P.K.": null, "Al.Dist. Izq.": null, "Al.Dist. Der.": null, "Ruta": "2V09" }, "geometry": { "type": "Point", "coordinates": [ -64.1628592, -31.24065 ] } },
{ "type": "Feature", "properties": { "Name": "14.11", "P.K.": null, "Al.Dist. Izq.": null, "Al.Dist. Der.": null, "Ruta": "2V09" }, "geometry": { "type": "Point", "coordinates": [ -64.1648689, -31.2419947 ] } },
{ "type": "Feature", "properties": { "Name": "14.14", "P.K.": null, "Al.Dist. Izq.": null, "Al.Dist. Der.": null, "Ruta": "2V09" }, "geometry": { "type": "Point", "coordinates": [ -64.1645578, -31.2418951 ] } },
{ "type": "Feature", "properties": { "Name": "14.14", "P.K.": null, "Al.Dist. Izq.": null, "Al.Dist. Der.": null, "Ruta": "2V09" }, "geometry": { "type": "Point", "coordinates": [ -64.1645578, -31.2418951 ] } },
{ "type": "Feature", "properties": { "Name": "14.21", "P.K.": null, "Al.Dist. Izq.": null, "Al.Dist. Der.": null, "Ruta": "2V09" }, "geometry": { "type": "Point", "coordinates": [ -64.163979, -31.24145 ] } },
{ "type": "Feature", "properties": { "Name": "14.35", "P.K.": null, "Al.Dist. Izq.": null, "Al.Dist. Der.": null, "Ruta": "2V09" }, "geometry": { "type": "Point", "coordinates": [ -64.162788, -31.2408075 ] } },
{ "type": "Feature", "properties": { "Name": "14.56", "P.K.": null, "Al.Dist. Izq.": null, "Al.Dist. Der.": null, "Ruta": "2V09" }, "geometry": { "type": "Point", "coordinates": [ -64.1613, -31.2394 ] } },
{ "type": "Feature", "properties": { "Name": "14.57", "P.K.": null, "Al.Dist. Izq.": null, "Al.Dist. Der.": null, "Ruta": "2V09" }, "geometry": { "type": "Point", "coordinates": [ -64.1614668, -31.2391767 ] } },
{ "type": "Feature", "properties": { "Name": "14.6", "P.K.": null, "Al.Dist. Izq.": null, "Al.Dist. Der.": null, "Ruta": "2V09" }, "geometry": { "type": "Point", "coordinates": [ -64.1613096, -31.238897 ] } },
{ "type": "Feature", "properties": { "Name": "14.8", "P.K.": null, "Al.Dist. Izq.": null, "Al.Dist. Der.": null, "Ruta": "2V09" }, "geometry": { "type": "Point", "coordinates": [ -64.1607861, -31.2349481 ] } },
{ "type": "Feature", "properties": { "Name": "14.81", "P.K.": null, "Al.Dist. Izq.": null, "Al.Dist. Der.": null, "Ruta": "2V09" }, "geometry": { "type": "Point", "coordinates": [ -64.1606797, -31.2371994 ] } },
{ "type": "Feature", "properties": { "Name": "14.89", "P.K.": null, "Al.Dist. Izq.": null, "Al.Dist. Der.": null, "Ruta": "2V09" }, "geometry": { "type": "Point", "coordinates": [ -64.1603643, -31.2365237 ] } },
{ "type": "Feature", "properties": { "Name": "14.9", "P.K.": null, "Al.Dist. Izq.": null, "Al.Dist. Der.": null, "Ruta": "2V09" }, "geometry": { "type": "Point", "coordinates": [ -64.1610405, -31.234049 ] } },
{ "type": "Feature", "properties": { "Name": "15.2", "P.K.": null, "Al.Dist. Izq.": null, "Al.Dist. Der.": null, "Ruta": "2V09" }, "geometry": { "type": "Point", "coordinates": [ -64.1613266, -31.2312703 ] } },
{ "type": "Feature", "properties": { "Name": "15.21", "P.K.": null, "Al.Dist. Izq.": null, "Al.Dist. Der.": null, "Ruta": "2V09" }, "geometry": { "type": "Point", "coordinates": [ -64.1609883, -31.2337031 ] } },
{ "type": "Feature", "properties": { "Name": "15.34", "P.K.": null, "Al.Dist. Izq.": null, "Al.Dist. Der.": null, "Ruta": "2V09" }, "geometry": { "type": "Point", "coordinates": [ -64.1613091, -31.2324851 ] } },
{ "type": "Feature", "properties": { "Name": "15.36", "P.K.": null, "Al.Dist. Izq.": null, "Al.Dist. Der.": null, "Ruta": "2V09" }, "geometry": { "type": "Point", "coordinates": [ -64.1612, -31.2323 ] } },
{ "type": "Feature", "properties": { "Name": "15.37", "P.K.": null, "Al.Dist. Izq.": null, "Al.Dist. Der.": null, "Ruta": "2V09" }, "geometry": { "type": "Point", "coordinates": [ -64.1611647, -31.2322095 ] } },
{ "type": "Feature", "properties": { "Name": "15.38", "P.K.": null, "Al.Dist. Izq.": null, "Al.Dist. Der.": null, "Ruta": "2V09" }, "geometry": { "type": "Point", "coordinates": [ -64.1612, -31.2322 ] } },
{ "type": "Feature", "properties": { "Name": "15.42", "P.K.": null, "Al.Dist. Izq.": null, "Al.Dist. Der.": null, "Ruta": "2V09" }, "geometry": { "type": "Point", "coordinates": [ -64.161355, -31.231794 ] } },
{ "type": "Feature", "properties": { "Name": "15.48", "P.K.": null, "Al.Dist. Izq.": null, "Al.Dist. Der.": null, "Ruta": "2V09" }, "geometry": { "type": "Point", "coordinates": [ -64.1613, -31.2313 ] } }
]
}
