{
"type": "FeatureCollection",
"name": "MOJONES RN 148",
"features": [
{ "type": "Feature", "properties": { "Name": "925.12", "P.K.": null, "Al.Dist. Izq.": 25, "Al.Dist. Der.": 75, "Ruta": 148 }, "geometry": { "type": "Point", "coordinates": [ -65.1731139, -32.3218994 ] } },
{ "type": "Feature", "properties": { "Name": "925.15", "P.K.": null, "Al.Dist. Izq.": 25, "Al.Dist. Der.": 75, "Ruta": 148 }, "geometry": { "type": "Point", "coordinates": [ -65.1730291, -32.3216554 ] } },
{ "type": "Feature", "properties": { "Name": "925.17", "P.K.": null, "Al.Dist. Izq.": 25, "Al.Dist. Der.": 75, "Ruta": 148 }, "geometry": { "type": "Point", "coordinates": [ -65.1730234, -32.3214911 ] } },
{ "type": "Feature", "properties": { "Name": "925.2", "P.K.": null, "Al.Dist. Izq.": 25, "Al.Dist. Der.": 75, "Ruta": 148 }, "geometry": { "type": "Point", "coordinates": [ -65.1730157, -32.3211794 ] } },
{ "type": "Feature", "properties": { "Name": "925.37", "P.K.": null, "Al.Dist. Izq.": 25, "Al.Dist. Der.": 75, "Ruta": 148 }, "geometry": { "type": "Point", "coordinates": [ -65.1730968, -32.3196483 ] } },
{ "type": "Feature", "properties": { "Name": "925.39", "P.K.": null, "Al.Dist. Izq.": 25, "Al.Dist. Der.": 75, "Ruta": 148 }, "geometry": { "type": "Point", "coordinates": [ -65.1729493, -32.3194655 ] } },
{ "type": "Feature", "properties": { "Name": "925.53", "P.K.": null, "Al.Dist. Izq.": 25, "Al.Dist. Der.": 75, "Ruta": 148 }, "geometry": { "type": "Point", "coordinates": [ -65.1728937, -32.3182183 ] } },
{ "type": "Feature", "properties": { "Name": "925.75", "P.K.": null, "Al.Dist. Izq.": 25, "Al.Dist. Der.": 75, "Ruta": 148 }, "geometry": { "type": "Point", "coordinates": [ -65.1728174, -32.3162423 ] } },
{ "type": "Feature", "properties": { "Name": "925.85", "P.K.": null, "Al.Dist. Izq.": 25, "Al.Dist. Der.": 75, "Ruta": 148 }, "geometry": { "type": "Point", "coordinates": [ -65.1727932, -32.3153201 ] } },
{ "type": "Feature", "properties": { "Name": "926", "P.K.": "PK926", "Al.Dist. Izq.": 25, "Al.Dist. Der.": 75, "Ruta": 148 }, "geometry": { "type": "Point", "coordinates": [ -65.1727914, -32.3139539 ] } },
{ "type": "Feature", "properties": { "Name": "926.13", "P.K.": null, "Al.Dist. Izq.": 25, "Al.Dist. Der.": 75, "Ruta": 148 }, "geometry": { "type": "Point", "coordinates": [ -65.1726566, -32.3128352 ] } },
{ "type": "Feature", "properties": { "Name": "926.52", "P.K.": null, "Al.Dist. Izq.": 25, "Al.Dist. Der.": 75, "Ruta": 148 }, "geometry": { "type": "Point", "coordinates": [ -65.1725164, -32.3092808 ] } },
{ "type": "Feature", "properties": { "Name": "926.54", "P.K.": null, "Al.Dist. Izq.": 25, "Al.Dist. Der.": 75, "Ruta": 148 }, "geometry": { "type": "Point", "coordinates": [ -65.1725097, -32.3091005 ] } },
{ "type": "Feature", "properties": { "Name": "926.56", "P.K.": null, "Al.Dist. Izq.": 25, "Al.Dist. Der.": 75, "Ruta": 148 }, "geometry": { "type": "Point", "coordinates": [ -65.1725057, -32.3089469 ] } },
{ "type": "Feature", "properties": { "Name": "927", "P.K.": "PK927", "Al.Dist. Izq.": 25, "Al.Dist. Der.": 75, "Ruta": 148 }, "geometry": { "type": "Point", "coordinates": [ -65.1723689, -32.3049521 ] } },
{ "type": "Feature", "properties": { "Name": "927.21", "P.K.": null, "Al.Dist. Izq.": 25, "Al.Dist. Der.": 75, "Ruta": 148 }, "geometry": { "type": "Point", "coordinates": [ -65.1723083, -32.30303 ] } },
{ "type": "Feature", "properties": { "Name": "927.75", "P.K.": null, "Al.Dist. Izq.": 25, "Al.Dist. Der.": 75, "Ruta": 148 }, "geometry": { "type": "Point", "coordinates": [ -65.1721611, -32.2980619 ] } },
{ "type": "Feature", "properties": { "Name": "927.95", "P.K.": null, "Al.Dist. Izq.": 25, "Al.Dist. Der.": 75, "Ruta": 148 }, "geometry": { "type": "Point", "coordinates": [ -65.1721416, -32.2963077 ] } },
{ "type": "Feature", "properties": { "Name": "928", "P.K.": "PK928", "Al.Dist. Izq.": 25, "Al.Dist. Der.": 75, "Ruta": 148 }, "geometry": { "type": "Point", "coordinates": [ -65.1722161, -32.2958938 ] } },
{ "type": "Feature", "properties": { "Name": "928.26", "P.K.": null, "Al.Dist. Izq.": 25, "Al.Dist. Der.": 75, "Ruta": 148 }, "geometry": { "type": "Point", "coordinates": [ -65.1721453, -32.2935168 ] } },
{ "type": "Feature", "properties": { "Name": "928.48", "P.K.": null, "Al.Dist. Izq.": 25, "Al.Dist. Der.": 75, "Ruta": 148 }, "geometry": { "type": "Point", "coordinates": [ -65.1720199, -32.2914921 ] } },
{ "type": "Feature", "properties": { "Name": "928.49", "P.K.": null, "Al.Dist. Izq.": 25, "Al.Dist. Der.": 75, "Ruta": 148 }, "geometry": { "type": "Point", "coordinates": [ -65.1717494, -32.2914515 ] } },
{ "type": "Feature", "properties": { "Name": "928.58", "P.K.": null, "Al.Dist. Izq.": 25, "Al.Dist. Der.": 75, "Ruta": 148 }, "geometry": { "type": "Point", "coordinates": [ -65.1720488, -32.2906517 ] } },
{ "type": "Feature", "properties": { "Name": "928.69", "P.K.": null, "Al.Dist. Izq.": 25, "Al.Dist. Der.": 75, "Ruta": 148 }, "geometry": { "type": "Point", "coordinates": [ -65.171977, -32.2896753 ] } },
{ "type": "Feature", "properties": { "Name": "929.33", "P.K.": null, "Al.Dist. Izq.": 25, "Al.Dist. Der.": 75, "Ruta": 148 }, "geometry": { "type": "Point", "coordinates": [ -65.1717852, -32.2839113 ] } },
{ "type": "Feature", "properties": { "Name": "929.83", "P.K.": null, "Al.Dist. Izq.": 25, "Al.Dist. Der.": 75, "Ruta": 148 }, "geometry": { "type": "Point", "coordinates": [ -65.1716689, -32.2794078 ] } },
{ "type": "Feature", "properties": { "Name": "930", "P.K.": "PK930", "Al.Dist. Izq.": 25, "Al.Dist. Der.": 75, "Ruta": 148 }, "geometry": { "type": "Point", "coordinates": [ -65.1717319, -32.2778851 ] } },
{ "type": "Feature", "properties": { "Name": "930.14", "P.K.": null, "Al.Dist. Izq.": 25, "Al.Dist. Der.": 75, "Ruta": 148 }, "geometry": { "type": "Point", "coordinates": [ -65.1715884, -32.276745 ] } },
{ "type": "Feature", "properties": { "Name": "930.59", "P.K.": null, "Al.Dist. Izq.": 25, "Al.Dist. Der.": 75, "Ruta": 148 }, "geometry": { "type": "Point", "coordinates": [ -65.1715025, -32.2728404 ] } },
{ "type": "Feature", "properties": { "Name": "930.61", "P.K.": null, "Al.Dist. Izq.": 25, "Al.Dist. Der.": 75, "Ruta": 148 }, "geometry": { "type": "Point", "coordinates": [ -65.1714889, -32.2727161 ] } },
{ "type": "Feature", "properties": { "Name": "931", "P.K.": "PK931", "Al.Dist. Izq.": 25, "Al.Dist. Der.": 75, "Ruta": 148 }, "geometry": { "type": "Point", "coordinates": [ -65.1713457, -32.269383 ] } },
{ "type": "Feature", "properties": { "Name": "931.07", "P.K.": null, "Al.Dist. Izq.": 25, "Al.Dist. Der.": 75, "Ruta": 148 }, "geometry": { "type": "Point", "coordinates": [ -65.1714369, -32.2687349 ] } },
{ "type": "Feature", "properties": { "Name": "931.26", "P.K.": null, "Al.Dist. Izq.": 25, "Al.Dist. Der.": 75, "Ruta": 148 }, "geometry": { "type": "Point", "coordinates": [ -65.1713263, -32.2668831 ] } },
{ "type": "Feature", "properties": { "Name": "931.29", "P.K.": null, "Al.Dist. Izq.": 25, "Al.Dist. Der.": 75, "Ruta": 148 }, "geometry": { "type": "Point", "coordinates": [ -65.1713404, -32.2666163 ] } },
{ "type": "Feature", "properties": { "Name": "931.37", "P.K.": null, "Al.Dist. Izq.": 25, "Al.Dist. Der.": 75, "Ruta": 148 }, "geometry": { "type": "Point", "coordinates": [ -65.171511, -32.2659612 ] } },
{ "type": "Feature", "properties": { "Name": "931.37", "P.K.": null, "Al.Dist. Izq.": 25, "Al.Dist. Der.": 75, "Ruta": 148 }, "geometry": { "type": "Point", "coordinates": [ -65.1713305, -32.265929 ] } },
{ "type": "Feature", "properties": { "Name": "931.97", "P.K.": null, "Al.Dist. Izq.": 25, "Al.Dist. Der.": 75, "Ruta": 148 }, "geometry": { "type": "Point", "coordinates": [ -65.1711782, -32.2603923 ] } },
{ "type": "Feature", "properties": { "Name": "932.42", "P.K.": null, "Al.Dist. Izq.": 25, "Al.Dist. Der.": 75, "Ruta": 148 }, "geometry": { "type": "Point", "coordinates": [ -65.1710713, -32.2561869 ] } },
{ "type": "Feature", "properties": { "Name": "932.5", "P.K.": null, "Al.Dist. Izq.": 25, "Al.Dist. Der.": 75, "Ruta": 148 }, "geometry": { "type": "Point", "coordinates": [ -65.1710178, -32.255463 ] } },
{ "type": "Feature", "properties": { "Name": "932.51", "P.K.": null, "Al.Dist. Izq.": 25, "Al.Dist. Der.": 75, "Ruta": 148 }, "geometry": { "type": "Point", "coordinates": [ -65.1710201, -32.2553879 ] } },
{ "type": "Feature", "properties": { "Name": "932.64", "P.K.": null, "Al.Dist. Izq.": 25, "Al.Dist. Der.": 75, "Ruta": 148 }, "geometry": { "type": "Point", "coordinates": [ -65.1711388, -32.2542101 ] } },
{ "type": "Feature", "properties": { "Name": "933", "P.K.": "PK933", "Al.Dist. Izq.": 25, "Al.Dist. Der.": 75, "Ruta": 148 }, "geometry": { "type": "Point", "coordinates": [ -65.1709288, -32.2508307 ] } },
{ "type": "Feature", "properties": { "Name": "933.11", "P.K.": null, "Al.Dist. Izq.": 25, "Al.Dist. Der.": 75, "Ruta": 148 }, "geometry": { "type": "Point", "coordinates": [ -65.1709027, -32.2498384 ] } },
{ "type": "Feature", "properties": { "Name": "933.19", "P.K.": null, "Al.Dist. Izq.": 25, "Al.Dist. Der.": 75, "Ruta": 148 }, "geometry": { "type": "Point", "coordinates": [ -65.1708777, -32.2491981 ] } },
{ "type": "Feature", "properties": { "Name": "933.22", "P.K.": null, "Al.Dist. Izq.": 25, "Al.Dist. Der.": 75, "Ruta": 148 }, "geometry": { "type": "Point", "coordinates": [ -65.1708964, -32.2489993 ] } },
{ "type": "Feature", "properties": { "Name": "933.3", "P.K.": null, "Al.Dist. Izq.": 25, "Al.Dist. Der.": 75, "Ruta": 148 }, "geometry": { "type": "Point", "coordinates": [ -65.1710326, -32.2482139 ] } },
{ "type": "Feature", "properties": { "Name": "933.53", "P.K.": null, "Al.Dist. Izq.": 25, "Al.Dist. Der.": 75, "Ruta": 148 }, "geometry": { "type": "Point", "coordinates": [ -65.1707801, -32.2462802 ] } },
{ "type": "Feature", "properties": { "Name": "933.57", "P.K.": null, "Al.Dist. Izq.": 25, "Al.Dist. Der.": 75, "Ruta": 148 }, "geometry": { "type": "Point", "coordinates": [ -65.1708629, -32.2458844 ] } },
{ "type": "Feature", "properties": { "Name": "933.69", "P.K.": null, "Al.Dist. Izq.": 25, "Al.Dist. Der.": 75, "Ruta": 148 }, "geometry": { "type": "Point", "coordinates": [ -65.1707696, -32.2447871 ] } },
{ "type": "Feature", "properties": { "Name": "934", "P.K.": "PK934", "Al.Dist. Izq.": 25, "Al.Dist. Der.": 75, "Ruta": 148 }, "geometry": { "type": "Point", "coordinates": [ -65.1707663, -32.2421282 ] } },
{ "type": "Feature", "properties": { "Name": "934.39", "P.K.": null, "Al.Dist. Izq.": 25, "Al.Dist. Der.": 75, "Ruta": 148 }, "geometry": { "type": "Point", "coordinates": [ -65.1706047, -32.2384918 ] } },
{ "type": "Feature", "properties": { "Name": "935", "P.K.": "PK935", "Al.Dist. Izq.": 25, "Al.Dist. Der.": 75, "Ruta": 148 }, "geometry": { "type": "Point", "coordinates": [ -65.1704534, -32.2327901 ] } },
{ "type": "Feature", "properties": { "Name": "935.07", "P.K.": null, "Al.Dist. Izq.": 25, "Al.Dist. Der.": 75, "Ruta": 148 }, "geometry": { "type": "Point", "coordinates": [ -65.1703794, -32.2321875 ] } },
{ "type": "Feature", "properties": { "Name": "935.07", "P.K.": null, "Al.Dist. Izq.": 25, "Al.Dist. Der.": 75, "Ruta": 148 }, "geometry": { "type": "Point", "coordinates": [ -65.170534, -32.2321829 ] } },
{ "type": "Feature", "properties": { "Name": "935.25", "P.K.": null, "Al.Dist. Izq.": 25, "Al.Dist. Der.": 75, "Ruta": 148 }, "geometry": { "type": "Point", "coordinates": [ -65.170416, -32.230484 ] } },
{ "type": "Feature", "properties": { "Name": "935.25", "P.K.": null, "Al.Dist. Izq.": 25, "Al.Dist. Der.": 75, "Ruta": 148 }, "geometry": { "type": "Point", "coordinates": [ -65.170416, -32.230484 ] } },
{ "type": "Feature", "properties": { "Name": "935.77", "P.K.": null, "Al.Dist. Izq.": 25, "Al.Dist. Der.": 75, "Ruta": 148 }, "geometry": { "type": "Point", "coordinates": [ -65.1700981, -32.2258673 ] } },
{ "type": "Feature", "properties": { "Name": "935.77", "P.K.": null, "Al.Dist. Izq.": 30, "Al.Dist. Der.": 65, "Ruta": 148 }, "geometry": { "type": "Point", "coordinates": [ -65.1700981, -32.2258673 ] } },
{ "type": "Feature", "properties": { "Name": "935.8", "P.K.": null, "Al.Dist. Izq.": 30, "Al.Dist. Der.": 65, "Ruta": 148 }, "geometry": { "type": "Point", "coordinates": [ -65.1702698, -32.2255857 ] } },
{ "type": "Feature", "properties": { "Name": "936", "P.K.": "PK936", "Al.Dist. Izq.": 30, "Al.Dist. Der.": 65, "Ruta": 148 }, "geometry": { "type": "Point", "coordinates": [ -65.170253, -32.2238249 ] } },
{ "type": "Feature", "properties": { "Name": "936.12", "P.K.": null, "Al.Dist. Izq.": 30, "Al.Dist. Der.": 65, "Ruta": 148 }, "geometry": { "type": "Point", "coordinates": [ -65.1701896, -32.2227775 ] } },
{ "type": "Feature", "properties": { "Name": "936.41", "P.K.": null, "Al.Dist. Izq.": 30, "Al.Dist. Der.": 65, "Ruta": 148 }, "geometry": { "type": "Point", "coordinates": [ -65.1701207, -32.2201616 ] } },
{ "type": "Feature", "properties": { "Name": "936.69", "P.K.": null, "Al.Dist. Izq.": 30, "Al.Dist. Der.": 65, "Ruta": 148 }, "geometry": { "type": "Point", "coordinates": [ -65.1700518, -32.2175457 ] } },
{ "type": "Feature", "properties": { "Name": "937", "P.K.": "PK937", "Al.Dist. Izq.": 30, "Al.Dist. Der.": 65, "Ruta": 148 }, "geometry": { "type": "Point", "coordinates": [ -65.1699781, -32.2147494 ] } },
{ "type": "Feature", "properties": { "Name": "937.41", "P.K.": null, "Al.Dist. Izq.": 30, "Al.Dist. Der.": 65, "Ruta": 148 }, "geometry": { "type": "Point", "coordinates": [ -65.1698806, -32.2110511 ] } },
{ "type": "Feature", "properties": { "Name": "938", "P.K.": "PK938", "Al.Dist. Izq.": 30, "Al.Dist. Der.": 65, "Ruta": 148 }, "geometry": { "type": "Point", "coordinates": [ -65.1697592, -32.2058274 ] } },
{ "type": "Feature", "properties": { "Name": "938.39", "P.K.": null, "Al.Dist. Izq.": 30, "Al.Dist. Der.": 65, "Ruta": 148 }, "geometry": { "type": "Point", "coordinates": [ -65.1696524, -32.2023916 ] } },
{ "type": "Feature", "properties": { "Name": "938.65", "P.K.": null, "Al.Dist. Izq.": 30, "Al.Dist. Der.": 65, "Ruta": 148 }, "geometry": { "type": "Point", "coordinates": [ -65.1696083, -32.1999894 ] } },
{ "type": "Feature", "properties": { "Name": "938.67", "P.K.": null, "Al.Dist. Izq.": 30, "Al.Dist. Der.": 65, "Ruta": 148 }, "geometry": { "type": "Point", "coordinates": [ -65.1696911, -32.1998757 ] } },
{ "type": "Feature", "properties": { "Name": "938.74", "P.K.": null, "Al.Dist. Izq.": 30, "Al.Dist. Der.": 65, "Ruta": 148 }, "geometry": { "type": "Point", "coordinates": [ -65.1695691, -32.1992343 ] } },
{ "type": "Feature", "properties": { "Name": "938.85", "P.K.": null, "Al.Dist. Izq.": 30, "Al.Dist. Der.": 65, "Ruta": 148 }, "geometry": { "type": "Point", "coordinates": [ -65.1695597, -32.198309 ] } },
{ "type": "Feature", "properties": { "Name": "938.88", "P.K.": null, "Al.Dist. Izq.": 30, "Al.Dist. Der.": 65, "Ruta": 148 }, "geometry": { "type": "Point", "coordinates": [ -65.169637, -32.198047 ] } },
{ "type": "Feature", "properties": { "Name": "938.88", "P.K.": null, "Al.Dist. Izq.": 30, "Al.Dist. Der.": 65, "Ruta": 148 }, "geometry": { "type": "Point", "coordinates": [ -65.169514, -32.19805 ] } },
{ "type": "Feature", "properties": { "Name": "939", "P.K.": "PK939", "Al.Dist. Izq.": 30, "Al.Dist. Der.": 65, "Ruta": 148 }, "geometry": { "type": "Point", "coordinates": [ -65.1694728, -32.1969423 ] } },
{ "type": "Feature", "properties": { "Name": "939.01", "P.K.": null, "Al.Dist. Izq.": 30, "Al.Dist. Der.": 65, "Ruta": 148 }, "geometry": { "type": "Point", "coordinates": [ -65.1696324, -32.1968725 ] } },
{ "type": "Feature", "properties": { "Name": "939.05", "P.K.": null, "Al.Dist. Izq.": 30, "Al.Dist. Der.": 65, "Ruta": 148 }, "geometry": { "type": "Point", "coordinates": [ -65.1694715, -32.1964949 ] } },
{ "type": "Feature", "properties": { "Name": "939.1", "P.K.": null, "Al.Dist. Izq.": 30, "Al.Dist. Der.": 65, "Ruta": 148 }, "geometry": { "type": "Point", "coordinates": [ -65.1696355, -32.1960671 ] } },
{ "type": "Feature", "properties": { "Name": "939.63", "P.K.": null, "Al.Dist. Izq.": 30, "Al.Dist. Der.": 65, "Ruta": 148 }, "geometry": { "type": "Point", "coordinates": [ -65.1694018, -32.1910956 ] } },
{ "type": "Feature", "properties": { "Name": "940", "P.K.": "PK940", "Al.Dist. Izq.": 30, "Al.Dist. Der.": 65, "Ruta": 148 }, "geometry": { "type": "Point", "coordinates": [ -65.1692854, -32.1876881 ] } },
{ "type": "Feature", "properties": { "Name": "940.88", "P.K.": null, "Al.Dist. Izq.": 30, "Al.Dist. Der.": 65, "Ruta": 148 }, "geometry": { "type": "Point", "coordinates": [ -65.1690279, -32.1799523 ] } },
{ "type": "Feature", "properties": { "Name": "941", "P.K.": "PK941", "Al.Dist. Izq.": 30, "Al.Dist. Der.": 65, "Ruta": 148 }, "geometry": { "type": "Point", "coordinates": [ -65.1690085, -32.1788541 ] } },
{ "type": "Feature", "properties": { "Name": "941.04", "P.K.": null, "Al.Dist. Izq.": 30, "Al.Dist. Der.": 65, "Ruta": 148 }, "geometry": { "type": "Point", "coordinates": [ -65.1690283, -32.1785067 ] } },
{ "type": "Feature", "properties": { "Name": "941.05", "P.K.": null, "Al.Dist. Izq.": 30, "Al.Dist. Der.": 65, "Ruta": 148 }, "geometry": { "type": "Point", "coordinates": [ -65.169036, -32.1783547 ] } },
{ "type": "Feature", "properties": { "Name": "941.75", "P.K.": null, "Al.Dist. Izq.": 30, "Al.Dist. Der.": 65, "Ruta": 148 }, "geometry": { "type": "Point", "coordinates": [ -65.1688295, -32.1718684 ] } },
{ "type": "Feature", "properties": { "Name": "942", "P.K.": "PK942", "Al.Dist. Izq.": 30, "Al.Dist. Der.": 65, "Ruta": 148 }, "geometry": { "type": "Point", "coordinates": [ -65.1688075, -32.1696476 ] } },
{ "type": "Feature", "properties": { "Name": "942.2", "P.K.": null, "Al.Dist. Izq.": 30, "Al.Dist. Der.": 65, "Ruta": 148 }, "geometry": { "type": "Point", "coordinates": [ -65.1687671, -32.1678345 ] } },
{ "type": "Feature", "properties": { "Name": "943", "P.K.": "PK943", "Al.Dist. Izq.": 30, "Al.Dist. Der.": 65, "Ruta": 148 }, "geometry": { "type": "Point", "coordinates": [ -65.1685753, -32.1607772 ] } },
{ "type": "Feature", "properties": { "Name": "943.79", "P.K.": null, "Al.Dist. Izq.": 30, "Al.Dist. Der.": 65, "Ruta": 148 }, "geometry": { "type": "Point", "coordinates": [ -65.1684073, -32.1536702 ] } },
{ "type": "Feature", "properties": { "Name": "944", "P.K.": "PK944", "Al.Dist. Izq.": 30, "Al.Dist. Der.": 65, "Ruta": 148 }, "geometry": { "type": "Point", "coordinates": [ -65.1683969, -32.1517735 ] } },
{ "type": "Feature", "properties": { "Name": "944.37", "P.K.": null, "Al.Dist. Izq.": 30, "Al.Dist. Der.": 65, "Ruta": 148 }, "geometry": { "type": "Point", "coordinates": [ -65.1682291, -32.1470964 ] } },
{ "type": "Feature", "properties": { "Name": "944.54", "P.K.": null, "Al.Dist. Izq.": 30, "Al.Dist. Der.": 65, "Ruta": 148 }, "geometry": { "type": "Point", "coordinates": [ -65.1681549, -32.1449123 ] } },
{ "type": "Feature", "properties": { "Name": "944.89", "P.K.": null, "Al.Dist. Izq.": 30, "Al.Dist. Der.": 65, "Ruta": 148 }, "geometry": { "type": "Point", "coordinates": [ -65.1680389, -32.1404085 ] } },
{ "type": "Feature", "properties": { "Name": "945", "P.K.": "PK945", "Al.Dist. Izq.": 30, "Al.Dist. Der.": 65, "Ruta": 148 }, "geometry": { "type": "Point", "coordinates": [ -65.1679577, -32.1389654 ] } },
{ "type": "Feature", "properties": { "Name": "945.45", "P.K.": null, "Al.Dist. Izq.": 30, "Al.Dist. Der.": 65, "Ruta": 148 }, "geometry": { "type": "Point", "coordinates": [ -65.1679409, -32.1358553 ] } },
{ "type": "Feature", "properties": { "Name": "945.51", "P.K.": null, "Al.Dist. Izq.": 30, "Al.Dist. Der.": 65, "Ruta": 148 }, "geometry": { "type": "Point", "coordinates": [ -65.1678853, -32.135355 ] } },
{ "type": "Feature", "properties": { "Name": "945.58", "P.K.": null, "Al.Dist. Izq.": 30, "Al.Dist. Der.": 65, "Ruta": 148 }, "geometry": { "type": "Point", "coordinates": [ -65.1678679, -32.1349039 ] } },
{ "type": "Feature", "properties": { "Name": "945.64", "P.K.": null, "Al.Dist. Izq.": 30, "Al.Dist. Der.": 65, "Ruta": 148 }, "geometry": { "type": "Point", "coordinates": [ -65.167884, -32.1344564 ] } },
{ "type": "Feature", "properties": { "Name": "945.65", "P.K.": null, "Al.Dist. Izq.": 30, "Al.Dist. Der.": 65, "Ruta": 148 }, "geometry": { "type": "Point", "coordinates": [ -65.1678759, -32.1344025 ] } },
{ "type": "Feature", "properties": { "Name": "945.67", "P.K.": null, "Al.Dist. Izq.": 30, "Al.Dist. Der.": 65, "Ruta": 148 }, "geometry": { "type": "Point", "coordinates": [ -65.1678846, -32.1342943 ] } },
{ "type": "Feature", "properties": { "Name": "945.72", "P.K.": null, "Al.Dist. Izq.": 30, "Al.Dist. Der.": 65, "Ruta": 148 }, "geometry": { "type": "Point", "coordinates": [ -65.1679654, -32.1339275 ] } },
{ "type": "Feature", "properties": { "Name": "945.81", "P.K.": null, "Al.Dist. Izq.": 30, "Al.Dist. Der.": 65, "Ruta": 148 }, "geometry": { "type": "Point", "coordinates": [ -65.1679631, -32.1333205 ] } },
{ "type": "Feature", "properties": { "Name": "945.86", "P.K.": null, "Al.Dist. Izq.": 30, "Al.Dist. Der.": 65, "Ruta": 148 }, "geometry": { "type": "Point", "coordinates": [ -65.1679738, -32.1329608 ] } },
{ "type": "Feature", "properties": { "Name": "946", "P.K.": null, "Al.Dist. Izq.": 30, "Al.Dist. Der.": 65, "Ruta": 148 }, "geometry": { "type": "Point", "coordinates": [ -65.1678846, -32.1319216 ] } },
{ "type": "Feature", "properties": { "Name": "947", "P.K.": "PK947", "Al.Dist. Izq.": 30, "Al.Dist. Der.": 65, "Ruta": 148 }, "geometry": { "type": "Point", "coordinates": [ -65.1676077, -32.1248923 ] } },
{ "type": "Feature", "properties": { "Name": "947.05", "P.K.": null, "Al.Dist. Izq.": 30, "Al.Dist. Der.": 65, "Ruta": 148 }, "geometry": { "type": "Point", "coordinates": [ -65.1676508, -32.124455 ] } },
{ "type": "Feature", "properties": { "Name": "947.44", "P.K.": null, "Al.Dist. Izq.": 30, "Al.Dist. Der.": 65, "Ruta": 148 }, "geometry": { "type": "Point", "coordinates": [ -65.1675562, -32.1209372 ] } },
{ "type": "Feature", "properties": { "Name": "948", "P.K.": "PK948", "Al.Dist. Izq.": 30, "Al.Dist. Der.": 65, "Ruta": 148 }, "geometry": { "type": "Point", "coordinates": [ -65.1674303, -32.1157955 ] } },
{ "type": "Feature", "properties": { "Name": "948.42", "P.K.": null, "Al.Dist. Izq.": 30, "Al.Dist. Der.": 65, "Ruta": 148 }, "geometry": { "type": "Point", "coordinates": [ -65.1673184, -32.1118678 ] } },
{ "type": "Feature", "properties": { "Name": "948.87", "P.K.": null, "Al.Dist. Izq.": 30, "Al.Dist. Der.": 65, "Ruta": 148 }, "geometry": { "type": "Point", "coordinates": [ -65.1671819, -32.1075217 ] } },
{ "type": "Feature", "properties": { "Name": "949", "P.K.": "PK949", "Al.Dist. Izq.": 30, "Al.Dist. Der.": 65, "Ruta": 148 }, "geometry": { "type": "Point", "coordinates": [ -65.1672191, -32.1062167 ] } },
{ "type": "Feature", "properties": { "Name": "949.2", "P.K.": null, "Al.Dist. Izq.": 30, "Al.Dist. Der.": 65, "Ruta": 148 }, "geometry": { "type": "Point", "coordinates": [ -65.167249, -32.1045422 ] } },
{ "type": "Feature", "properties": { "Name": "949.73", "P.K.": null, "Al.Dist. Izq.": 30, "Al.Dist. Der.": 65, "Ruta": 148 }, "geometry": { "type": "Point", "coordinates": [ -65.1669009, -32.0998602 ] } },
{ "type": "Feature", "properties": { "Name": "950", "P.K.": "PK950", "Al.Dist. Izq.": 30, "Al.Dist. Der.": 65, "Ruta": 148 }, "geometry": { "type": "Point", "coordinates": [ -65.1669179, -32.0974849 ] } },
{ "type": "Feature", "properties": { "Name": "950.16", "P.K.": null, "Al.Dist. Izq.": 30, "Al.Dist. Der.": 65, "Ruta": 148 }, "geometry": { "type": "Point", "coordinates": [ -65.1668822, -32.0961319 ] } },
{ "type": "Feature", "properties": { "Name": "950.57", "P.K.": null, "Al.Dist. Izq.": 30, "Al.Dist. Der.": 65, "Ruta": 148 }, "geometry": { "type": "Point", "coordinates": [ -65.16697, -32.0927049 ] } },
{ "type": "Feature", "properties": { "Name": "950.58", "P.K.": null, "Al.Dist. Izq.": 30, "Al.Dist. Der.": 65, "Ruta": 148 }, "geometry": { "type": "Point", "coordinates": [ -65.1668429, -32.0926382 ] } },
{ "type": "Feature", "properties": { "Name": "951.33", "P.K.": null, "Al.Dist. Izq.": 30, "Al.Dist. Der.": 65, "Ruta": 148 }, "geometry": { "type": "Point", "coordinates": [ -65.166673, -32.0863936 ] } },
{ "type": "Feature", "properties": { "Name": "951.46", "P.K.": null, "Al.Dist. Izq.": 30, "Al.Dist. Der.": 65, "Ruta": 148 }, "geometry": { "type": "Point", "coordinates": [ -65.1666307, -32.085371 ] } },
{ "type": "Feature", "properties": { "Name": "951.55", "P.K.": null, "Al.Dist. Izq.": 30, "Al.Dist. Der.": 65, "Ruta": 148 }, "geometry": { "type": "Point", "coordinates": [ -65.1665991, -32.0846158 ] } },
{ "type": "Feature", "properties": { "Name": "951.62", "P.K.": null, "Al.Dist. Izq.": 30, "Al.Dist. Der.": 65, "Ruta": 148 }, "geometry": { "type": "Point", "coordinates": [ -65.1667816, -32.083973 ] } },
{ "type": "Feature", "properties": { "Name": "951.74", "P.K.": null, "Al.Dist. Izq.": 30, "Al.Dist. Der.": 65, "Ruta": 148 }, "geometry": { "type": "Point", "coordinates": [ -65.1666874, -32.0830294 ] } },
{ "type": "Feature", "properties": { "Name": "951.86", "P.K.": null, "Al.Dist. Izq.": 30, "Al.Dist. Der.": 65, "Ruta": 148 }, "geometry": { "type": "Point", "coordinates": [ -65.1668138, -32.0819828 ] } },
{ "type": "Feature", "properties": { "Name": "952", "P.K.": "PK952", "Al.Dist. Izq.": 30, "Al.Dist. Der.": 65, "Ruta": 148 }, "geometry": { "type": "Point", "coordinates": [ -65.1666287, -32.0808388 ] } },
{ "type": "Feature", "properties": { "Name": "952.53", "P.K.": null, "Al.Dist. Izq.": 30, "Al.Dist. Der.": 65, "Ruta": 148 }, "geometry": { "type": "Point", "coordinates": [ -65.1664151, -32.0760142 ] } },
{ "type": "Feature", "properties": { "Name": "952.83", "P.K.": null, "Al.Dist. Izq.": 30, "Al.Dist. Der.": 65, "Ruta": 148 }, "geometry": { "type": "Point", "coordinates": [ -65.1663514, -32.0733113 ] } },
{ "type": "Feature", "properties": { "Name": "953", "P.K.": "PK953", "Al.Dist. Izq.": 30, "Al.Dist. Der.": 65, "Ruta": 148 }, "geometry": { "type": "Point", "coordinates": [ -65.1662052, -32.0718533 ] } },
{ "type": "Feature", "properties": { "Name": "953.19", "P.K.": null, "Al.Dist. Izq.": 30, "Al.Dist. Der.": 65, "Ruta": 148 }, "geometry": { "type": "Point", "coordinates": [ -65.1662703, -32.0699332 ] } },
{ "type": "Feature", "properties": { "Name": "953.89", "P.K.": null, "Al.Dist. Izq.": 30, "Al.Dist. Der.": 65, "Ruta": 148 }, "geometry": { "type": "Point", "coordinates": [ -65.1660443, -32.063064 ] } },
{ "type": "Feature", "properties": { "Name": "953.92", "P.K.": null, "Al.Dist. Izq.": 30, "Al.Dist. Der.": 65, "Ruta": 148 }, "geometry": { "type": "Point", "coordinates": [ -65.1660473, -32.0627287 ] } },
{ "type": "Feature", "properties": { "Name": "954", "P.K.": null, "Al.Dist. Izq.": 30, "Al.Dist. Der.": 65, "Ruta": 148 }, "geometry": { "type": "Point", "coordinates": [ -65.1659909, -32.0618757 ] } },
{ "type": "Feature", "properties": { "Name": "954.08", "P.K.": null, "Al.Dist. Izq.": 30, "Al.Dist. Der.": 65, "Ruta": 148 }, "geometry": { "type": "Point", "coordinates": [ -65.165984, -32.0612042 ] } },
{ "type": "Feature", "properties": { "Name": "954.12", "P.K.": null, "Al.Dist. Izq.": 30, "Al.Dist. Der.": 65, "Ruta": 148 }, "geometry": { "type": "Point", "coordinates": [ -65.1661147, -32.0606767 ] } },
{ "type": "Feature", "properties": { "Name": "954.13", "P.K.": null, "Al.Dist. Izq.": 30, "Al.Dist. Der.": 65, "Ruta": 148 }, "geometry": { "type": "Point", "coordinates": [ -65.1659606, -32.0606274 ] } },
{ "type": "Feature", "properties": { "Name": "954.21", "P.K.": null, "Al.Dist. Izq.": 30, "Al.Dist. Der.": 65, "Ruta": 148 }, "geometry": { "type": "Point", "coordinates": [ -65.1659501, -32.0598643 ] } },
{ "type": "Feature", "properties": { "Name": "954.22", "P.K.": null, "Al.Dist. Izq.": 30, "Al.Dist. Der.": 65, "Ruta": 148 }, "geometry": { "type": "Point", "coordinates": [ -65.1659501, -32.0597032 ] } },
{ "type": "Feature", "properties": { "Name": "954.42", "P.K.": null, "Al.Dist. Izq.": 30, "Al.Dist. Der.": 65, "Ruta": 148 }, "geometry": { "type": "Point", "coordinates": [ -65.1659933, -32.0578113 ] } },
{ "type": "Feature", "properties": { "Name": "954.47", "P.K.": null, "Al.Dist. Izq.": 30, "Al.Dist. Der.": 65, "Ruta": 148 }, "geometry": { "type": "Point", "coordinates": [ -65.1658167, -32.0572765 ] } },
{ "type": "Feature", "properties": { "Name": "954.48", "P.K.": null, "Al.Dist. Izq.": 30, "Al.Dist. Der.": 65, "Ruta": 148 }, "geometry": { "type": "Point", "coordinates": [ -65.1661197, -32.0572189 ] } },
{ "type": "Feature", "properties": { "Name": "954.53", "P.K.": null, "Al.Dist. Izq.": 30, "Al.Dist. Der.": 65, "Ruta": 148 }, "geometry": { "type": "Point", "coordinates": [ -65.1659427, -32.0566352 ] } },
{ "type": "Feature", "properties": { "Name": "954.73", "P.K.": null, "Al.Dist. Izq.": 30, "Al.Dist. Der.": 65, "Ruta": 148 }, "geometry": { "type": "Point", "coordinates": [ -65.1658532, -32.0547811 ] } },
{ "type": "Feature", "properties": { "Name": "954.92", "P.K.": null, "Al.Dist. Izq.": 30, "Al.Dist. Der.": 65, "Ruta": 148 }, "geometry": { "type": "Point", "coordinates": [ -65.1657886, -32.0529235 ] } },
{ "type": "Feature", "properties": { "Name": "954.97", "P.K.": null, "Al.Dist. Izq.": 30, "Al.Dist. Der.": 65, "Ruta": 148 }, "geometry": { "type": "Point", "coordinates": [ -65.1659722, -32.0523049 ] } },
{ "type": "Feature", "properties": { "Name": "955", "P.K.": "PK955", "Al.Dist. Izq.": 30, "Al.Dist. Der.": 65, "Ruta": 148 }, "geometry": { "type": "Point", "coordinates": [ -65.165826, -32.0520315 ] } },
{ "type": "Feature", "properties": { "Name": "955.45", "P.K.": null, "Al.Dist. Izq.": 30, "Al.Dist. Der.": 65, "Ruta": 148 }, "geometry": { "type": "Point", "coordinates": [ -65.1656689, -32.0482329 ] } },
{ "type": "Feature", "properties": { "Name": "955.48", "P.K.": null, "Al.Dist. Izq.": 30, "Al.Dist. Der.": 65, "Ruta": 148 }, "geometry": { "type": "Point", "coordinates": [ -65.1656622, -32.0479622 ] } },
{ "type": "Feature", "properties": { "Name": "955.61", "P.K.": null, "Al.Dist. Izq.": 30, "Al.Dist. Der.": 65, "Ruta": 148 }, "geometry": { "type": "Point", "coordinates": [ -65.1657452, -32.0468689 ] } },
{ "type": "Feature", "properties": { "Name": "956", "P.K.": "PK956", "Al.Dist. Izq.": 30, "Al.Dist. Der.": 65, "Ruta": 148 }, "geometry": { "type": "Point", "coordinates": [ -65.1656131, -32.0435035 ] } },
{ "type": "Feature", "properties": { "Name": "956.8", "P.K.": null, "Al.Dist. Izq.": 30, "Al.Dist. Der.": 65, "Ruta": 148 }, "geometry": { "type": "Point", "coordinates": [ -65.1653655, -32.0365063 ] } },
{ "type": "Feature", "properties": { "Name": "957", "P.K.": "PK957", "Al.Dist. Izq.": 30, "Al.Dist. Der.": 65, "Ruta": 148 }, "geometry": { "type": "Point", "coordinates": [ -65.1651035, -32.034714 ] } },
{ "type": "Feature", "properties": { "Name": "957.08", "P.K.": null, "Al.Dist. Izq.": 30, "Al.Dist. Der.": 65, "Ruta": 148 }, "geometry": { "type": "Point", "coordinates": [ -65.1653637, -32.0339734 ] } },
{ "type": "Feature", "properties": { "Name": "957.37", "P.K.": null, "Al.Dist. Izq.": 30, "Al.Dist. Der.": 65, "Ruta": 148 }, "geometry": { "type": "Point", "coordinates": [ -65.1652889, -32.0313081 ] } },
{ "type": "Feature", "properties": { "Name": "957.57", "P.K.": null, "Al.Dist. Izq.": 30, "Al.Dist. Der.": 65, "Ruta": 148 }, "geometry": { "type": "Point", "coordinates": [ -65.1652531, -32.0295362 ] } },
{ "type": "Feature", "properties": { "Name": "957.81", "P.K.": null, "Al.Dist. Izq.": 30, "Al.Dist. Der.": 65, "Ruta": 148 }, "geometry": { "type": "Point", "coordinates": [ -65.1651163, -32.0273828 ] } },
{ "type": "Feature", "properties": { "Name": "958", "P.K.": "PK958", "Al.Dist. Izq.": 30, "Al.Dist. Der.": 65, "Ruta": 148 }, "geometry": { "type": "Point", "coordinates": [ -65.1651032, -32.0256946 ] } },
{ "type": "Feature", "properties": { "Name": "958.57", "P.K.": null, "Al.Dist. Izq.": 30, "Al.Dist. Der.": 65, "Ruta": 148 }, "geometry": { "type": "Point", "coordinates": [ -65.1649281, -32.0206234 ] } },
{ "type": "Feature", "properties": { "Name": "958.59", "P.K.": null, "Al.Dist. Izq.": 30, "Al.Dist. Der.": 65, "Ruta": 148 }, "geometry": { "type": "Point", "coordinates": [ -65.1649335, -32.0204339 ] } },
{ "type": "Feature", "properties": { "Name": "958.65", "P.K.": null, "Al.Dist. Izq.": 30, "Al.Dist. Der.": 65, "Ruta": 148 }, "geometry": { "type": "Point", "coordinates": [ -65.1649151, -32.0198804 ] } },
{ "type": "Feature", "properties": { "Name": "958.72", "P.K.": null, "Al.Dist. Izq.": 30, "Al.Dist. Der.": 65, "Ruta": 148 }, "geometry": { "type": "Point", "coordinates": [ -65.1648827, -32.0192291 ] } },
{ "type": "Feature", "properties": { "Name": "958.8", "P.K.": null, "Al.Dist. Izq.": 30, "Al.Dist. Der.": 65, "Ruta": 148 }, "geometry": { "type": "Point", "coordinates": [ -65.1648779, -32.018493 ] } },
{ "type": "Feature", "properties": { "Name": "958.9", "P.K.": null, "Al.Dist. Izq.": 30, "Al.Dist. Der.": 65, "Ruta": 148 }, "geometry": { "type": "Point", "coordinates": [ -65.1648675, -32.0176523 ] } },
{ "type": "Feature", "properties": { "Name": "958.92", "P.K.": null, "Al.Dist. Izq.": 30, "Al.Dist. Der.": 65, "Ruta": 148 }, "geometry": { "type": "Point", "coordinates": [ -65.1648581, -32.0174885 ] } },
{ "type": "Feature", "properties": { "Name": "958.93", "P.K.": null, "Al.Dist. Izq.": 30, "Al.Dist. Der.": 65, "Ruta": 148 }, "geometry": { "type": "Point", "coordinates": [ -65.1648718, -32.0173643 ] } },
{ "type": "Feature", "properties": { "Name": "958.97", "P.K.": null, "Al.Dist. Izq.": 30, "Al.Dist. Der.": 65, "Ruta": 148 }, "geometry": { "type": "Point", "coordinates": [ -65.1648423, -32.0169978 ] } },
{ "type": "Feature", "properties": { "Name": "959.26", "P.K.": null, "Al.Dist. Izq.": 30, "Al.Dist. Der.": 65, "Ruta": 148 }, "geometry": { "type": "Point", "coordinates": [ -65.1648487, -32.0144192 ] } },
{ "type": "Feature", "properties": { "Name": "959.34", "P.K.": null, "Al.Dist. Izq.": 30, "Al.Dist. Der.": 65, "Ruta": 148 }, "geometry": { "type": "Point", "coordinates": [ -65.1649134, -32.0136368 ] } },
{ "type": "Feature", "properties": { "Name": "959.41", "P.K.": null, "Al.Dist. Izq.": 30, "Al.Dist. Der.": 65, "Ruta": 148 }, "geometry": { "type": "Point", "coordinates": [ -65.164892, -32.0130441 ] } },
{ "type": "Feature", "properties": { "Name": "959.68", "P.K.": null, "Al.Dist. Izq.": 30, "Al.Dist. Der.": 65, "Ruta": 148 }, "geometry": { "type": "Point", "coordinates": [ -65.1646807, -32.0106702 ] } },
{ "type": "Feature", "properties": { "Name": "960.78", "P.K.": null, "Al.Dist. Izq.": 30, "Al.Dist. Der.": 65, "Ruta": 148 }, "geometry": { "type": "Point", "coordinates": [ -65.1644545, -32.0008754 ] } },
{ "type": "Feature", "properties": { "Name": "961.62", "P.K.": null, "Al.Dist. Izq.": 30, "Al.Dist. Der.": 65, "Ruta": 148 }, "geometry": { "type": "Point", "coordinates": [ -65.1642248, -31.993375 ] } },
{ "type": "Feature", "properties": { "Name": "961.79", "P.K.": null, "Al.Dist. Izq.": 30, "Al.Dist. Der.": 65, "Ruta": 148 }, "geometry": { "type": "Point", "coordinates": [ -65.1642009, -31.9918686 ] } },
{ "type": "Feature", "properties": { "Name": "961.89", "P.K.": null, "Al.Dist. Izq.": 30, "Al.Dist. Der.": 65, "Ruta": 148 }, "geometry": { "type": "Point", "coordinates": [ -65.1640729, -31.9909361 ] } },
{ "type": "Feature", "properties": { "Name": "961.9", "P.K.": null, "Al.Dist. Izq.": 30, "Al.Dist. Der.": 65, "Ruta": 148 }, "geometry": { "type": "Point", "coordinates": [ -65.1640095, -31.9908372 ] } },
{ "type": "Feature", "properties": { "Name": "961.9", "P.K.": null, "Al.Dist. Izq.": 30, "Al.Dist. Der.": 65, "Ruta": 148 }, "geometry": { "type": "Point", "coordinates": [ -65.1643833, -31.9908506 ] } },
{ "type": "Feature", "properties": { "Name": "961.92", "P.K.": null, "Al.Dist. Izq.": 30, "Al.Dist. Der.": 65, "Ruta": 148 }, "geometry": { "type": "Point", "coordinates": [ -65.1643636, -31.9906828 ] } },
{ "type": "Feature", "properties": { "Name": "961.92", "P.K.": null, "Al.Dist. Izq.": 30, "Al.Dist. Der.": 65, "Ruta": 148 }, "geometry": { "type": "Point", "coordinates": [ -65.1643636, -31.9906828 ] } },
{ "type": "Feature", "properties": { "Name": "961.93", "P.K.": null, "Al.Dist. Izq.": 30, "Al.Dist. Der.": 65, "Ruta": 148 }, "geometry": { "type": "Point", "coordinates": [ -65.1640229, -31.9905506 ] } },
{ "type": "Feature", "properties": { "Name": "962", "P.K.": "PK962", "Al.Dist. Izq.": 30, "Al.Dist. Der.": 65, "Ruta": 148 }, "geometry": { "type": "Point", "coordinates": [ -65.1641879, -31.9899443 ] } },
{ "type": "Feature", "properties": { "Name": "962.03", "P.K.": null, "Al.Dist. Izq.": 30, "Al.Dist. Der.": 65, "Ruta": 148 }, "geometry": { "type": "Point", "coordinates": [ -65.1642982, -31.9897 ] } },
{ "type": "Feature", "properties": { "Name": "962.12", "P.K.": null, "Al.Dist. Izq.": 30, "Al.Dist. Der.": 65, "Ruta": 148 }, "geometry": { "type": "Point", "coordinates": [ -65.164153, -31.9890406 ] } },
{ "type": "Feature", "properties": { "Name": "962.13", "P.K.": null, "Al.Dist. Izq.": 30, "Al.Dist. Der.": 65, "Ruta": 148 }, "geometry": { "type": "Point", "coordinates": [ -65.1639817, -31.9887941 ] } },
{ "type": "Feature", "properties": { "Name": "962.18", "P.K.": null, "Al.Dist. Izq.": 30, "Al.Dist. Der.": 65, "Ruta": 148 }, "geometry": { "type": "Point", "coordinates": [ -65.1640809, -31.9884488 ] } },
{ "type": "Feature", "properties": { "Name": "962.19", "P.K.": null, "Al.Dist. Izq.": 30, "Al.Dist. Der.": 65, "Ruta": 148 }, "geometry": { "type": "Point", "coordinates": [ -65.1640749, -31.9883587 ] } },
{ "type": "Feature", "properties": { "Name": "962.22", "P.K.": null, "Al.Dist. Izq.": 30, "Al.Dist. Der.": 65, "Ruta": 148 }, "geometry": { "type": "Point", "coordinates": [ -65.1642073, -31.9880692 ] } },
{ "type": "Feature", "properties": { "Name": "962.23", "P.K.": null, "Al.Dist. Izq.": 30, "Al.Dist. Der.": 65, "Ruta": 148 }, "geometry": { "type": "Point", "coordinates": [ -65.1641195, -31.987989 ] } },
{ "type": "Feature", "properties": { "Name": "962.24", "P.K.": null, "Al.Dist. Izq.": 30, "Al.Dist. Der.": 65, "Ruta": 148 }, "geometry": { "type": "Point", "coordinates": [ -65.1642036, -31.9878775 ] } },
{ "type": "Feature", "properties": { "Name": "962.32", "P.K.": null, "Al.Dist. Izq.": 30, "Al.Dist. Der.": 65, "Ruta": 148 }, "geometry": { "type": "Point", "coordinates": [ -65.1639324, -31.987079 ] } },
{ "type": "Feature", "properties": { "Name": "962.38", "P.K.": null, "Al.Dist. Izq.": 30, "Al.Dist. Der.": 65, "Ruta": 148 }, "geometry": { "type": "Point", "coordinates": [ -65.1641765, -31.9865348 ] } },
{ "type": "Feature", "properties": { "Name": "963", "P.K.": "PK963", "Al.Dist. Izq.": 30, "Al.Dist. Der.": 65, "Ruta": 148 }, "geometry": { "type": "Point", "coordinates": [ -65.1640179, -31.9806842 ] } },
{ "type": "Feature", "properties": { "Name": "963.35", "P.K.": null, "Al.Dist. Izq.": 30, "Al.Dist. Der.": 65, "Ruta": 148 }, "geometry": { "type": "Point", "coordinates": [ -65.1638633, -31.9776778 ] } },
{ "type": "Feature", "properties": { "Name": "963.8", "P.K.": null, "Al.Dist. Izq.": 30, "Al.Dist. Der.": 65, "Ruta": 148 }, "geometry": { "type": "Point", "coordinates": [ -65.1637652, -31.9739439 ] } },
{ "type": "Feature", "properties": { "Name": "964", "P.K.": "PK964", "Al.Dist. Izq.": 30, "Al.Dist. Der.": 65, "Ruta": 148 }, "geometry": { "type": "Point", "coordinates": [ -65.1638945, -31.9722329 ] } },
{ "type": "Feature", "properties": { "Name": "964.13", "P.K.": null, "Al.Dist. Izq.": 30, "Al.Dist. Der.": 65, "Ruta": 148 }, "geometry": { "type": "Point", "coordinates": [ -65.1636762, -31.97106 ] } },
{ "type": "Feature", "properties": { "Name": "964.14", "P.K.": null, "Al.Dist. Izq.": 30, "Al.Dist. Der.": 65, "Ruta": 148 }, "geometry": { "type": "Point", "coordinates": [ -65.1636738, -31.9709698 ] } },
{ "type": "Feature", "properties": { "Name": "964.2", "P.K.": null, "Al.Dist. Izq.": 30, "Al.Dist. Der.": 65, "Ruta": 148 }, "geometry": { "type": "Point", "coordinates": [ -65.1638405, -31.9704635 ] } },
{ "type": "Feature", "properties": { "Name": "964.38", "P.K.": null, "Al.Dist. Izq.": 30, "Al.Dist. Der.": 65, "Ruta": 148 }, "geometry": { "type": "Point", "coordinates": [ -65.1636917, -31.9688101 ] } },
{ "type": "Feature", "properties": { "Name": "964.57", "P.K.": null, "Al.Dist. Izq.": 30, "Al.Dist. Der.": 65, "Ruta": 148 }, "geometry": { "type": "Point", "coordinates": [ -65.1636001, -31.9671701 ] } },
{ "type": "Feature", "properties": { "Name": "964.71", "P.K.": null, "Al.Dist. Izq.": 30, "Al.Dist. Der.": 65, "Ruta": 148 }, "geometry": { "type": "Point", "coordinates": [ -65.1634704, -31.9658486 ] } },
{ "type": "Feature", "properties": { "Name": "964.88", "P.K.": null, "Al.Dist. Izq.": 30, "Al.Dist. Der.": 65, "Ruta": 148 }, "geometry": { "type": "Point", "coordinates": [ -65.1635391, -31.9643297 ] } },
{ "type": "Feature", "properties": { "Name": "964.92", "P.K.": null, "Al.Dist. Izq.": 30, "Al.Dist. Der.": 65, "Ruta": 148 }, "geometry": { "type": "Point", "coordinates": [ -65.1635388, -31.963952 ] } },
{ "type": "Feature", "properties": { "Name": "965.07", "P.K.": null, "Al.Dist. Izq.": 30, "Al.Dist. Der.": 65, "Ruta": 148 }, "geometry": { "type": "Point", "coordinates": [ -65.1634617, -31.9626825 ] } },
{ "type": "Feature", "properties": { "Name": "965.11", "P.K.": null, "Al.Dist. Izq.": 30, "Al.Dist. Der.": 65, "Ruta": 148 }, "geometry": { "type": "Point", "coordinates": [ -65.1634004, -31.9623128 ] } },
{ "type": "Feature", "properties": { "Name": "965.24", "P.K.": null, "Al.Dist. Izq.": 30, "Al.Dist. Der.": 65, "Ruta": 148 }, "geometry": { "type": "Point", "coordinates": [ -65.1633259, -31.9611792 ] } },
{ "type": "Feature", "properties": { "Name": "965.5", "P.K.": null, "Al.Dist. Izq.": 30, "Al.Dist. Der.": 65, "Ruta": 148 }, "geometry": { "type": "Point", "coordinates": [ -65.1631998, -31.9588754 ] } },
{ "type": "Feature", "properties": { "Name": "965.62", "P.K.": null, "Al.Dist. Izq.": 30, "Al.Dist. Der.": 65, "Ruta": 148 }, "geometry": { "type": "Point", "coordinates": [ -65.163108, -31.9577865 ] } },
{ "type": "Feature", "properties": { "Name": "965.73", "P.K.": null, "Al.Dist. Izq.": 30, "Al.Dist. Der.": 65, "Ruta": 148 }, "geometry": { "type": "Point", "coordinates": [ -65.1629464, -31.9567621 ] } },
{ "type": "Feature", "properties": { "Name": "965.79", "P.K.": null, "Al.Dist. Izq.": 30, "Al.Dist. Der.": 65, "Ruta": 148 }, "geometry": { "type": "Point", "coordinates": [ -65.162748, -31.9562459 ] } },
{ "type": "Feature", "properties": { "Name": "965.8", "P.K.": null, "Al.Dist. Izq.": 30, "Al.Dist. Der.": 65, "Ruta": 148 }, "geometry": { "type": "Point", "coordinates": [ -65.1628599, -31.9561659 ] } },
{ "type": "Feature", "properties": { "Name": "965.81", "P.K.": null, "Al.Dist. Izq.": 30, "Al.Dist. Der.": 65, "Ruta": 148 }, "geometry": { "type": "Point", "coordinates": [ -65.1631056, -31.9560094 ] } },
{ "type": "Feature", "properties": { "Name": "965.81", "P.K.": null, "Al.Dist. Izq.": 30, "Al.Dist. Der.": 65, "Ruta": 148 }, "geometry": { "type": "Point", "coordinates": [ -65.1631056, -31.9560094 ] } },
{ "type": "Feature", "properties": { "Name": "965.83", "P.K.": null, "Al.Dist. Izq.": 30, "Al.Dist. Der.": 65, "Ruta": 148 }, "geometry": { "type": "Point", "coordinates": [ -65.1627941, -31.9558499 ] } },
{ "type": "Feature", "properties": { "Name": "965.84", "P.K.": null, "Al.Dist. Izq.": 30, "Al.Dist. Der.": 65, "Ruta": 148 }, "geometry": { "type": "Point", "coordinates": [ -65.1629189, -31.9557603 ] } },
{ "type": "Feature", "properties": { "Name": "965.9", "P.K.": null, "Al.Dist. Izq.": 30, "Al.Dist. Der.": 65, "Ruta": 148 }, "geometry": { "type": "Point", "coordinates": [ -65.1627133, -31.9552451 ] } },
{ "type": "Feature", "properties": { "Name": "965.91", "P.K.": null, "Al.Dist. Izq.": 30, "Al.Dist. Der.": 65, "Ruta": 148 }, "geometry": { "type": "Point", "coordinates": [ -65.1625809, -31.9552172 ] } },
{ "type": "Feature", "properties": { "Name": "965.91", "P.K.": null, "Al.Dist. Izq.": 30, "Al.Dist. Der.": 65, "Ruta": 148 }, "geometry": { "type": "Point", "coordinates": [ -65.1626909, -31.9551626 ] } },
{ "type": "Feature", "properties": { "Name": "965.95", "P.K.": null, "Al.Dist. Izq.": 30, "Al.Dist. Der.": 65, "Ruta": 148 }, "geometry": { "type": "Point", "coordinates": [ -65.1624689, -31.9548198 ] } },
{ "type": "Feature", "properties": { "Name": "966", "P.K.": "PK966", "Al.Dist. Izq.": 30, "Al.Dist. Der.": 65, "Ruta": 148 }, "geometry": { "type": "Point", "coordinates": [ -65.1624619, -31.9543701 ] } },
{ "type": "Feature", "properties": { "Name": "966.01", "P.K.": null, "Al.Dist. Izq.": 30, "Al.Dist. Der.": 65, "Ruta": 148 }, "geometry": { "type": "Point", "coordinates": [ -65.16231, -31.9543427 ] } },
{ "type": "Feature", "properties": { "Name": "966.02", "P.K.": null, "Al.Dist. Izq.": 30, "Al.Dist. Der.": 65, "Ruta": 148 }, "geometry": { "type": "Point", "coordinates": [ -65.1626738, -31.953967 ] } },
{ "type": "Feature", "properties": { "Name": "966.08", "P.K.": null, "Al.Dist. Izq.": 30, "Al.Dist. Der.": 65, "Ruta": 148 }, "geometry": { "type": "Point", "coordinates": [ -65.162302, -31.9536856 ] } },
{ "type": "Feature", "properties": { "Name": "966.09", "P.K.": null, "Al.Dist. Izq.": 30, "Al.Dist. Der.": 65, "Ruta": 148 }, "geometry": { "type": "Point", "coordinates": [ -65.1623683, -31.9536262 ] } },
{ "type": "Feature", "properties": { "Name": "966.09", "P.K.": null, "Al.Dist. Izq.": 30, "Al.Dist. Der.": 65, "Ruta": 148 }, "geometry": { "type": "Point", "coordinates": [ -65.1623683, -31.9536262 ] } },
{ "type": "Feature", "properties": { "Name": "966.12", "P.K.": null, "Al.Dist. Izq.": 30, "Al.Dist. Der.": 65, "Ruta": 148 }, "geometry": { "type": "Point", "coordinates": [ -65.1626805, -31.9531792 ] } },
{ "type": "Feature", "properties": { "Name": "966.2", "P.K.": null, "Al.Dist. Izq.": 30, "Al.Dist. Der.": 65, "Ruta": 148 }, "geometry": { "type": "Point", "coordinates": [ -65.1624119, -31.9523881 ] } },
{ "type": "Feature", "properties": { "Name": "966.22", "P.K.": null, "Al.Dist. Izq.": 30, "Al.Dist. Der.": 65, "Ruta": 148 }, "geometry": { "type": "Point", "coordinates": [ -65.1624512, -31.9521144 ] } },
{ "type": "Feature", "properties": { "Name": "966.28", "P.K.": null, "Al.Dist. Izq.": 30, "Al.Dist. Der.": 65, "Ruta": 148 }, "geometry": { "type": "Point", "coordinates": [ -65.1620297, -31.9514692 ] } },
{ "type": "Feature", "properties": { "Name": "966.31", "P.K.": null, "Al.Dist. Izq.": 30, "Al.Dist. Der.": 65, "Ruta": 148 }, "geometry": { "type": "Point", "coordinates": [ -65.1620716, -31.9511555 ] } },
{ "type": "Feature", "properties": { "Name": "966.34", "P.K.": null, "Al.Dist. Izq.": 30, "Al.Dist. Der.": 65, "Ruta": 148 }, "geometry": { "type": "Point", "coordinates": [ -65.1621206, -31.9508519 ] } },
{ "type": "Feature", "properties": { "Name": "966.36", "P.K.": null, "Al.Dist. Izq.": 30, "Al.Dist. Der.": 65, "Ruta": 148 }, "geometry": { "type": "Point", "coordinates": [ -65.1619962, -31.9506041 ] } },
{ "type": "Feature", "properties": { "Name": "966.38", "P.K.": null, "Al.Dist. Izq.": 30, "Al.Dist. Der.": 65, "Ruta": 148 }, "geometry": { "type": "Point", "coordinates": [ -65.1619616, -31.9503157 ] } },
{ "type": "Feature", "properties": { "Name": "966.39", "P.K.": null, "Al.Dist. Izq.": 30, "Al.Dist. Der.": 65, "Ruta": 148 }, "geometry": { "type": "Point", "coordinates": [ -65.1616787, -31.9505094 ] } },
{ "type": "Feature", "properties": { "Name": "966.42", "P.K.": null, "Al.Dist. Izq.": 30, "Al.Dist. Der.": 65, "Ruta": 148 }, "geometry": { "type": "Point", "coordinates": [ -65.1615814, -31.9500771 ] } }
]
}
