{
"type": "FeatureCollection",
"name": "MOJONES RN 019",
"xy_coordinate_resolution": 1e-14,
"features": [
{ "type": "Feature", "properties": { "Name": "130.08", "P.K.": null, "Al.Dist. Izq.": null, "Al.Dist. Der.": null, "Ruta": 19 }, "geometry": { "type": "Point", "coordinates": [ -62.07852, -31.46881 ] } },
{ "type": "Feature", "properties": { "Name": "130.1", "P.K.": null, "Al.Dist. Izq.": null, "Al.Dist. Der.": null, "Ruta": 19 }, "geometry": { "type": "Point", "coordinates": [ -62.0789, -31.46935 ] } },
{ "type": "Feature", "properties": { "Name": "130.22", "P.K.": null, "Al.Dist. Izq.": null, "Al.Dist. Der.": null, "Ruta": 19 }, "geometry": { "type": "Point", "coordinates": [ -62.08008, -31.46872 ] } },
{ "type": "Feature", "properties": { "Name": "130.22", "P.K.": null, "Al.Dist. Izq.": null, "Al.Dist. Der.": null, "Ruta": 19 }, "geometry": { "type": "Point", "coordinates": [ -62.08008, -31.46872 ] } },
{ "type": "Feature", "properties": { "Name": "130.32", "P.K.": null, "Al.Dist. Izq.": null, "Al.Dist. Der.": null, "Ruta": 19 }, "geometry": { "type": "Point", "coordinates": [ -62.081069, -31.468667 ] } },
{ "type": "Feature", "properties": { "Name": "130.73", "P.K.": null, "Al.Dist. Izq.": null, "Al.Dist. Der.": null, "Ruta": 19 }, "geometry": { "type": "Point", "coordinates": [ -62.085398, -31.468478 ] } },
{ "type": "Feature", "properties": { "Name": "130.89", "P.K.": null, "Al.Dist. Izq.": null, "Al.Dist. Der.": null, "Ruta": 19 }, "geometry": { "type": "Point", "coordinates": [ -62.087074, -31.468414 ] } },
{ "type": "Feature", "properties": { "Name": "131.18", "P.K.": null, "Al.Dist. Izq.": null, "Al.Dist. Der.": null, "Ruta": 19 }, "geometry": { "type": "Point", "coordinates": [ -62.09009, -31.46842 ] } },
{ "type": "Feature", "properties": { "Name": "131.23", "P.K.": null, "Al.Dist. Izq.": null, "Al.Dist. Der.": null, "Ruta": 19 }, "geometry": { "type": "Point", "coordinates": [ -62.090669, -31.468049 ] } },
{ "type": "Feature", "properties": { "Name": "131.38", "P.K.": null, "Al.Dist. Izq.": null, "Al.Dist. Der.": null, "Ruta": 19 }, "geometry": { "type": "Point", "coordinates": [ -62.09212, -31.46786 ] } },
{ "type": "Feature", "properties": { "Name": "131.59", "P.K.": null, "Al.Dist. Izq.": null, "Al.Dist. Der.": null, "Ruta": 19 }, "geometry": { "type": "Point", "coordinates": [ -62.09419, -31.46745 ] } },
{ "type": "Feature", "properties": { "Name": "132.67", "P.K.": null, "Al.Dist. Izq.": null, "Al.Dist. Der.": null, "Ruta": 19 }, "geometry": { "type": "Point", "coordinates": [ -62.10535, -31.46569 ] } },
{ "type": "Feature", "properties": { "Name": "132.67", "P.K.": null, "Al.Dist. Izq.": null, "Al.Dist. Der.": null, "Ruta": 19 }, "geometry": { "type": "Point", "coordinates": [ -62.10534, -31.46568 ] } },
{ "type": "Feature", "properties": { "Name": "132.77", "P.K.": null, "Al.Dist. Izq.": null, "Al.Dist. Der.": null, "Ruta": 19 }, "geometry": { "type": "Point", "coordinates": [ -62.10647, -31.46553 ] } },
{ "type": "Feature", "properties": { "Name": "132.77", "P.K.": null, "Al.Dist. Izq.": null, "Al.Dist. Der.": null, "Ruta": 19 }, "geometry": { "type": "Point", "coordinates": [ -62.10647, -31.46553 ] } },
{ "type": "Feature", "properties": { "Name": "133", "P.K.": "PK133", "Al.Dist. Izq.": null, "Al.Dist. Der.": null, "Ruta": 19 }, "geometry": { "type": "Point", "coordinates": [ -62.1087, -31.46508 ] } },
{ "type": "Feature", "properties": { "Name": "133.61", "P.K.": null, "Al.Dist. Izq.": null, "Al.Dist. Der.": null, "Ruta": 19 }, "geometry": { "type": "Point", "coordinates": [ -62.11498, -31.46441 ] } },
{ "type": "Feature", "properties": { "Name": "133.9", "P.K.": null, "Al.Dist. Izq.": null, "Al.Dist. Der.": null, "Ruta": 19 }, "geometry": { "type": "Point", "coordinates": [ -62.11808, -31.46361 ] } },
{ "type": "Feature", "properties": { "Name": "133.97", "P.K.": null, "Al.Dist. Izq.": null, "Al.Dist. Der.": null, "Ruta": 19 }, "geometry": { "type": "Point", "coordinates": [ -62.11874, -31.4635 ] } },
{ "type": "Feature", "properties": { "Name": "133.98", "P.K.": null, "Al.Dist. Izq.": null, "Al.Dist. Der.": null, "Ruta": 19 }, "geometry": { "type": "Point", "coordinates": [ -62.11881, -31.46346 ] } },
{ "type": "Feature", "properties": { "Name": "134", "P.K.": "PK134", "Al.Dist. Izq.": null, "Al.Dist. Der.": null, "Ruta": 19 }, "geometry": { "type": "Point", "coordinates": [ -62.11915, -31.46373 ] } },
{ "type": "Feature", "properties": { "Name": "134.5", "P.K.": null, "Al.Dist. Izq.": null, "Al.Dist. Der.": null, "Ruta": 19 }, "geometry": { "type": "Point", "coordinates": [ -62.12435, -31.462627 ] } },
{ "type": "Feature", "properties": { "Name": "134.5", "P.K.": null, "Al.Dist. Izq.": null, "Al.Dist. Der.": null, "Ruta": 19 }, "geometry": { "type": "Point", "coordinates": [ -62.12435, -31.462627 ] } },
{ "type": "Feature", "properties": { "Name": "134.57", "P.K.": null, "Al.Dist. Izq.": null, "Al.Dist. Der.": null, "Ruta": 19 }, "geometry": { "type": "Point", "coordinates": [ -62.12511, -31.46241 ] } },
{ "type": "Feature", "properties": { "Name": "134.65", "P.K.": null, "Al.Dist. Izq.": null, "Al.Dist. Der.": null, "Ruta": 19 }, "geometry": { "type": "Point", "coordinates": [ -62.12605, -31.4623 ] } },
{ "type": "Feature", "properties": { "Name": "135.22", "P.K.": null, "Al.Dist. Izq.": null, "Al.Dist. Der.": null, "Ruta": 19 }, "geometry": { "type": "Point", "coordinates": [ -62.132124, -31.461284 ] } },
{ "type": "Feature", "properties": { "Name": "135.55", "P.K.": null, "Al.Dist. Izq.": null, "Al.Dist. Der.": null, "Ruta": 19 }, "geometry": { "type": "Point", "coordinates": [ -62.13567, -31.4607 ] } },
{ "type": "Feature", "properties": { "Name": "135.86", "P.K.": null, "Al.Dist. Izq.": null, "Al.Dist. Der.": null, "Ruta": 19 }, "geometry": { "type": "Point", "coordinates": [ -62.138978, -31.460158 ] } },
{ "type": "Feature", "properties": { "Name": "136.02", "P.K.": null, "Al.Dist. Izq.": null, "Al.Dist. Der.": null, "Ruta": 19 }, "geometry": { "type": "Point", "coordinates": [ -62.14075, -31.45983 ] } },
{ "type": "Feature", "properties": { "Name": "136.18", "P.K.": null, "Al.Dist. Izq.": null, "Al.Dist. Der.": null, "Ruta": 19 }, "geometry": { "type": "Point", "coordinates": [ -62.142305, -31.459382 ] } },
{ "type": "Feature", "properties": { "Name": "136.42", "P.K.": null, "Al.Dist. Izq.": null, "Al.Dist. Der.": null, "Ruta": 19 }, "geometry": { "type": "Point", "coordinates": [ -62.14473, -31.45862 ] } },
{ "type": "Feature", "properties": { "Name": "136.42", "P.K.": null, "Al.Dist. Izq.": null, "Al.Dist. Der.": null, "Ruta": 19 }, "geometry": { "type": "Point", "coordinates": [ -62.14473, -31.45862 ] } },
{ "type": "Feature", "properties": { "Name": "160.99", "P.K.": null, "Al.Dist. Izq.": null, "Al.Dist. Der.": null, "Ruta": 19 }, "geometry": { "type": "Point", "coordinates": [ -62.403231, -31.406189 ] } },
{ "type": "Feature", "properties": { "Name": "160.99", "P.K.": null, "Al.Dist. Izq.": null, "Al.Dist. Der.": null, "Ruta": 19 }, "geometry": { "type": "Point", "coordinates": [ -62.403231, -31.406189 ] } },
{ "type": "Feature", "properties": { "Name": "161", "P.K.": "PK161", "Al.Dist. Izq.": null, "Al.Dist. Der.": null, "Ruta": 19 }, "geometry": { "type": "Point", "coordinates": [ -62.40332624, -31.40614985 ] } },
{ "type": "Feature", "properties": { "Name": "161.12", "P.K.": null, "Al.Dist. Izq.": null, "Al.Dist. Der.": null, "Ruta": 19 }, "geometry": { "type": "Point", "coordinates": [ -62.40458517, -31.4061357 ] } },
{ "type": "Feature", "properties": { "Name": "161.21", "P.K.": null, "Al.Dist. Izq.": null, "Al.Dist. Der.": null, "Ruta": 19 }, "geometry": { "type": "Point", "coordinates": [ -62.40542446, -31.40612627 ] } },
{ "type": "Feature", "properties": { "Name": "161.32", "P.K.": null, "Al.Dist. Izq.": null, "Al.Dist. Der.": null, "Ruta": 19 }, "geometry": { "type": "Point", "coordinates": [ -62.4066, -31.4061 ] } },
{ "type": "Feature", "properties": { "Name": "161.32", "P.K.": null, "Al.Dist. Izq.": 40, "Al.Dist. Der.": 60, "Ruta": 19 }, "geometry": { "type": "Point", "coordinates": [ -62.4066, -31.4061 ] } },
{ "type": "Feature", "properties": { "Name": "161.39", "P.K.": null, "Al.Dist. Izq.": 40, "Al.Dist. Der.": 60, "Ruta": 19 }, "geometry": { "type": "Point", "coordinates": [ -62.40731285, -31.40611152 ] } },
{ "type": "Feature", "properties": { "Name": "161.45", "P.K.": null, "Al.Dist. Izq.": 40, "Al.Dist. Der.": 60, "Ruta": 19 }, "geometry": { "type": "Point", "coordinates": [ -62.4079423, -31.40611979 ] } },
{ "type": "Feature", "properties": { "Name": "162", "P.K.": "PK162", "Al.Dist. Izq.": 40, "Al.Dist. Der.": 60, "Ruta": 19 }, "geometry": { "type": "Point", "coordinates": [ -62.41381718, -31.40619702 ] } },
{ "type": "Feature", "properties": { "Name": "162.41", "P.K.": null, "Al.Dist. Izq.": 40, "Al.Dist. Der.": 60, "Ruta": 19 }, "geometry": { "type": "Point", "coordinates": [ -62.41811844, -31.40625132 ] } },
{ "type": "Feature", "properties": { "Name": "162.74", "P.K.": null, "Al.Dist. Izq.": 40, "Al.Dist. Der.": 60, "Ruta": 19 }, "geometry": { "type": "Point", "coordinates": [ -62.42158069, -31.406238 ] } },
{ "type": "Feature", "properties": { "Name": "162.98", "P.K.": null, "Al.Dist. Izq.": 40, "Al.Dist. Der.": 60, "Ruta": 19 }, "geometry": { "type": "Point", "coordinates": [ -62.42413561, -31.40622111 ] } },
{ "type": "Feature", "properties": { "Name": "163", "P.K.": "PK163", "Al.Dist. Izq.": 40, "Al.Dist. Der.": 60, "Ruta": 19 }, "geometry": { "type": "Point", "coordinates": [ -62.42434852, -31.40621971 ] } },
{ "type": "Feature", "properties": { "Name": "163.28", "P.K.": null, "Al.Dist. Izq.": 40, "Al.Dist. Der.": 60, "Ruta": 19 }, "geometry": { "type": "Point", "coordinates": [ -62.42732924, -31.40619872 ] } },
{ "type": "Feature", "properties": { "Name": "163.8", "P.K.": null, "Al.Dist. Izq.": 40, "Al.Dist. Der.": 60, "Ruta": 19 }, "geometry": { "type": "Point", "coordinates": [ -62.43280442, -31.40615097 ] } },
{ "type": "Feature", "properties": { "Name": "164", "P.K.": "PK164", "Al.Dist. Izq.": 40, "Al.Dist. Der.": 60, "Ruta": 19 }, "geometry": { "type": "Point", "coordinates": [ -62.43491029, -31.40613571 ] } },
{ "type": "Feature", "properties": { "Name": "165", "P.K.": "PK165", "Al.Dist. Izq.": 40, "Al.Dist. Der.": 60, "Ruta": 19 }, "geometry": { "type": "Point", "coordinates": [ -62.4454397, -31.4060751 ] } },
{ "type": "Feature", "properties": { "Name": "166", "P.K.": "PK166", "Al.Dist. Izq.": 40, "Al.Dist. Der.": 60, "Ruta": 19 }, "geometry": { "type": "Point", "coordinates": [ -62.455969, -31.40599849 ] } },
{ "type": "Feature", "properties": { "Name": "166.08", "P.K.": null, "Al.Dist. Izq.": 40, "Al.Dist. Der.": 60, "Ruta": 19 }, "geometry": { "type": "Point", "coordinates": [ -62.45681134, -31.4059915 ] } },
{ "type": "Feature", "properties": { "Name": "166.91", "P.K.": null, "Al.Dist. Izq.": 40, "Al.Dist. Der.": 60, "Ruta": 19 }, "geometry": { "type": "Point", "coordinates": [ -62.46547783, -31.40592994 ] } },
{ "type": "Feature", "properties": { "Name": "166.91", "P.K.": null, "Al.Dist. Izq.": 35, "Al.Dist. Der.": 70, "Ruta": 19 }, "geometry": { "type": "Point", "coordinates": [ -62.46547783, -31.40592994 ] } },
{ "type": "Feature", "properties": { "Name": "166.95", "P.K.": null, "Al.Dist. Izq.": 35, "Al.Dist. Der.": 70, "Ruta": 19 }, "geometry": { "type": "Point", "coordinates": [ -62.46589549, -31.40592697 ] } },
{ "type": "Feature", "properties": { "Name": "167", "P.K.": "PK167", "Al.Dist. Izq.": 35, "Al.Dist. Der.": 70, "Ruta": 19 }, "geometry": { "type": "Point", "coordinates": [ -62.46641757, -31.40592326 ] } },
{ "type": "Feature", "properties": { "Name": "167.23", "P.K.": null, "Al.Dist. Izq.": 35, "Al.Dist. Der.": 70, "Ruta": 19 }, "geometry": { "type": "Point", "coordinates": [ -62.46881912, -31.40590553 ] } },
{ "type": "Feature", "properties": { "Name": "167.33", "P.K.": null, "Al.Dist. Izq.": 35, "Al.Dist. Der.": 70, "Ruta": 19 }, "geometry": { "type": "Point", "coordinates": [ -62.46986316, -31.40588846 ] } },
{ "type": "Feature", "properties": { "Name": "167.46", "P.K.": null, "Al.Dist. Izq.": 35, "Al.Dist. Der.": 70, "Ruta": 19 }, "geometry": { "type": "Point", "coordinates": [ -62.4712204, -31.40586526 ] } },
{ "type": "Feature", "properties": { "Name": "167.52", "P.K.": null, "Al.Dist. Izq.": 35, "Al.Dist. Der.": 70, "Ruta": 19 }, "geometry": { "type": "Point", "coordinates": [ -62.47184676, -31.40585177 ] } },
{ "type": "Feature", "properties": { "Name": "168", "P.K.": "PK168", "Al.Dist. Izq.": 35, "Al.Dist. Der.": 70, "Ruta": 19 }, "geometry": { "type": "Point", "coordinates": [ -62.47685757, -31.40573905 ] } },
{ "type": "Feature", "properties": { "Name": "168.07", "P.K.": null, "Al.Dist. Izq.": 35, "Al.Dist. Der.": 70, "Ruta": 19 }, "geometry": { "type": "Point", "coordinates": [ -62.47758829, -31.40572171 ] } },
{ "type": "Feature", "properties": { "Name": "168.35", "P.K.": null, "Al.Dist. Izq.": 35, "Al.Dist. Der.": 70, "Ruta": 19 }, "geometry": { "type": "Point", "coordinates": [ -62.48051119, -31.40565297 ] } },
{ "type": "Feature", "properties": { "Name": "168.9", "P.K.": null, "Al.Dist. Izq.": 35, "Al.Dist. Der.": 70, "Ruta": 19 }, "geometry": { "type": "Point", "coordinates": [ -62.48632073, -31.40551767 ] } },
{ "type": "Feature", "properties": { "Name": "169", "P.K.": "PK169", "Al.Dist. Izq.": 35, "Al.Dist. Der.": 70, "Ruta": 19 }, "geometry": { "type": "Point", "coordinates": [ -62.48747116, -31.40549128 ] } },
{ "type": "Feature", "properties": { "Name": "169", "P.K.": null, "Al.Dist. Izq.": 80, "Al.Dist. Der.": 40, "Ruta": 19 }, "geometry": { "type": "Point", "coordinates": [ -62.48747116, -31.40549128 ] } },
{ "type": "Feature", "properties": { "Name": "170.54", "P.K.": null, "Al.Dist. Izq.": 80, "Al.Dist. Der.": 40, "Ruta": 19 }, "geometry": { "type": "Point", "coordinates": [ -62.50058, -31.41131 ] } },
{ "type": "Feature", "properties": { "Name": "170.84", "P.K.": null, "Al.Dist. Izq.": 80, "Al.Dist. Der.": 40, "Ruta": 19 }, "geometry": { "type": "Point", "coordinates": [ -62.50247, -31.41367 ] } },
{ "type": "Feature", "properties": { "Name": "170.84", "P.K.": null, "Al.Dist. Izq.": 80, "Al.Dist. Der.": 40, "Ruta": 19 }, "geometry": { "type": "Point", "coordinates": [ -62.502164, -31.41383 ] } },
{ "type": "Feature", "properties": { "Name": "171.38", "P.K.": null, "Al.Dist. Izq.": 80, "Al.Dist. Der.": 40, "Ruta": 19 }, "geometry": { "type": "Point", "coordinates": [ -62.50559, -31.41742 ] } },
{ "type": "Feature", "properties": { "Name": "171.82", "P.K.": null, "Al.Dist. Izq.": 80, "Al.Dist. Der.": 40, "Ruta": 19 }, "geometry": { "type": "Point", "coordinates": [ -62.5083, -31.42051 ] } },
{ "type": "Feature", "properties": { "Name": "172", "P.K.": "PK172", "Al.Dist. Izq.": 80, "Al.Dist. Der.": 40, "Ruta": 19 }, "geometry": { "type": "Point", "coordinates": [ -62.50956, -31.42198 ] } },
{ "type": "Feature", "properties": { "Name": "173.98", "P.K.": null, "Al.Dist. Izq.": 80, "Al.Dist. Der.": 40, "Ruta": 19 }, "geometry": { "type": "Point", "coordinates": [ -62.522741, -31.435555 ] } },
{ "type": "Feature", "properties": { "Name": "173.98", "P.K.": null, "Al.Dist. Izq.": 80, "Al.Dist. Der.": 40, "Ruta": 19 }, "geometry": { "type": "Point", "coordinates": [ -62.522741, -31.435555 ] } },
{ "type": "Feature", "properties": { "Name": "175.1", "P.K.": null, "Al.Dist. Izq.": 80, "Al.Dist. Der.": 40, "Ruta": 19 }, "geometry": { "type": "Point", "coordinates": [ -62.53073, -31.44287 ] } },
{ "type": "Feature", "properties": { "Name": "181.17", "P.K.": null, "Al.Dist. Izq.": 80, "Al.Dist. Der.": 40, "Ruta": 19 }, "geometry": { "type": "Point", "coordinates": [ -62.58908, -31.45838 ] } },
{ "type": "Feature", "properties": { "Name": "181.85", "P.K.": null, "Al.Dist. Izq.": 80, "Al.Dist. Der.": 40, "Ruta": 19 }, "geometry": { "type": "Point", "coordinates": [ -62.59637, -31.4575 ] } },
{ "type": "Feature", "properties": { "Name": "181.85", "P.K.": null, "Al.Dist. Izq.": 80, "Al.Dist. Der.": 40, "Ruta": 19 }, "geometry": { "type": "Point", "coordinates": [ -62.59637, -31.4575 ] } },
{ "type": "Feature", "properties": { "Name": "184", "P.K.": "PK184", "Al.Dist. Izq.": 80, "Al.Dist. Der.": 40, "Ruta": 19 }, "geometry": { "type": "Point", "coordinates": [ -62.61847, -31.45339 ] } },
{ "type": "Feature", "properties": { "Name": "185.37", "P.K.": null, "Al.Dist. Izq.": 80, "Al.Dist. Der.": 40, "Ruta": 19 }, "geometry": { "type": "Point", "coordinates": [ -62.632654, -31.451313 ] } },
{ "type": "Feature", "properties": { "Name": "185.37", "P.K.": null, "Al.Dist. Izq.": 80, "Al.Dist. Der.": 40, "Ruta": 19 }, "geometry": { "type": "Point", "coordinates": [ -62.632654, -31.451313 ] } },
{ "type": "Feature", "properties": { "Name": "186", "P.K.": "PK186", "Al.Dist. Izq.": 80, "Al.Dist. Der.": 40, "Ruta": 19 }, "geometry": { "type": "Point", "coordinates": [ -62.6391, -31.44987 ] } },
{ "type": "Feature", "properties": { "Name": "190.27", "P.K.": null, "Al.Dist. Izq.": 80, "Al.Dist. Der.": 40, "Ruta": 19 }, "geometry": { "type": "Point", "coordinates": [ -62.683741, -31.442667 ] } },
{ "type": "Feature", "properties": { "Name": "190.27", "P.K.": null, "Al.Dist. Izq.": 80, "Al.Dist. Der.": 40, "Ruta": 19 }, "geometry": { "type": "Point", "coordinates": [ -62.683741, -31.442667 ] } },
{ "type": "Feature", "properties": { "Name": "190.27", "P.K.": null, "Al.Dist. Izq.": 80, "Al.Dist. Der.": 40, "Ruta": 19 }, "geometry": { "type": "Point", "coordinates": [ -62.683741, -31.442667 ] } },
{ "type": "Feature", "properties": { "Name": "192.84", "P.K.": null, "Al.Dist. Izq.": 80, "Al.Dist. Der.": 40, "Ruta": 19 }, "geometry": { "type": "Point", "coordinates": [ -62.70959, -31.43791 ] } },
{ "type": "Feature", "properties": { "Name": "193.94", "P.K.": null, "Al.Dist. Izq.": 80, "Al.Dist. Der.": 40, "Ruta": 19 }, "geometry": { "type": "Point", "coordinates": [ -62.72112, -31.43783 ] } },
{ "type": "Feature", "properties": { "Name": "196", "P.K.": "PK196", "Al.Dist. Izq.": 80, "Al.Dist. Der.": 40, "Ruta": 19 }, "geometry": { "type": "Point", "coordinates": [ -62.74248, -31.44139 ] } },
{ "type": "Feature", "properties": { "Name": "196.51", "P.K.": null, "Al.Dist. Izq.": 80, "Al.Dist. Der.": 40, "Ruta": 19 }, "geometry": { "type": "Point", "coordinates": [ -62.747749, -31.442681 ] } },
{ "type": "Feature", "properties": { "Name": "196.51", "P.K.": null, "Al.Dist. Izq.": 80, "Al.Dist. Der.": 40, "Ruta": 19 }, "geometry": { "type": "Point", "coordinates": [ -62.747749, -31.442681 ] } },
{ "type": "Feature", "properties": { "Name": "196.73", "P.K.": null, "Al.Dist. Izq.": 80, "Al.Dist. Der.": 40, "Ruta": 19 }, "geometry": { "type": "Point", "coordinates": [ -62.74985, -31.44267 ] } },
{ "type": "Feature", "properties": { "Name": "197.39", "P.K.": null, "Al.Dist. Izq.": 80, "Al.Dist. Der.": 40, "Ruta": 19 }, "geometry": { "type": "Point", "coordinates": [ -62.75673, -31.4432 ] } },
{ "type": "Feature", "properties": { "Name": "199.41", "P.K.": null, "Al.Dist. Izq.": 80, "Al.Dist. Der.": 40, "Ruta": 19 }, "geometry": { "type": "Point", "coordinates": [ -62.7782, -31.44335 ] } },
{ "type": "Feature", "properties": { "Name": "199.41", "P.K.": null, "Al.Dist. Izq.": 80, "Al.Dist. Der.": 40, "Ruta": 19 }, "geometry": { "type": "Point", "coordinates": [ -62.77827, -31.443652 ] } },
{ "type": "Feature", "properties": { "Name": "199.83", "P.K.": null, "Al.Dist. Izq.": 80, "Al.Dist. Der.": 40, "Ruta": 19 }, "geometry": { "type": "Point", "coordinates": [ -62.78248, -31.44333 ] } },
{ "type": "Feature", "properties": { "Name": "201.79", "P.K.": null, "Al.Dist. Izq.": 80, "Al.Dist. Der.": 40, "Ruta": 19 }, "geometry": { "type": "Point", "coordinates": [ -62.80255, -31.44646 ] } },
{ "type": "Feature", "properties": { "Name": "204", "P.K.": "PK204", "Al.Dist. Izq.": 80, "Al.Dist. Der.": 40, "Ruta": 19 }, "geometry": { "type": "Point", "coordinates": [ -62.82502, -31.4522 ] } },
{ "type": "Feature", "properties": { "Name": "204.19", "P.K.": null, "Al.Dist. Izq.": 80, "Al.Dist. Der.": 40, "Ruta": 19 }, "geometry": { "type": "Point", "coordinates": [ -62.82685, -31.45272 ] } },
{ "type": "Feature", "properties": { "Name": "204.19", "P.K.": null, "Al.Dist. Izq.": 80, "Al.Dist. Der.": 40, "Ruta": 19 }, "geometry": { "type": "Point", "coordinates": [ -62.826795, -31.452983 ] } },
{ "type": "Feature", "properties": { "Name": "205.68", "P.K.": null, "Al.Dist. Izq.": 80, "Al.Dist. Der.": 40, "Ruta": 19 }, "geometry": { "type": "Point", "coordinates": [ -62.84181, -31.45646 ] } },
{ "type": "Feature", "properties": { "Name": "206.63", "P.K.": null, "Al.Dist. Izq.": 80, "Al.Dist. Der.": 40, "Ruta": 19 }, "geometry": { "type": "Point", "coordinates": [ -62.85102, -31.45965 ] } },
{ "type": "Feature", "properties": { "Name": "206.8", "P.K.": null, "Al.Dist. Izq.": 80, "Al.Dist. Der.": 40, "Ruta": 19 }, "geometry": { "type": "Point", "coordinates": [ -62.85274, -31.46051 ] } },
{ "type": "Feature", "properties": { "Name": "206.8", "P.K.": null, "Al.Dist. Izq.": 80, "Al.Dist. Der.": 40, "Ruta": 19 }, "geometry": { "type": "Point", "coordinates": [ -62.852702, -31.46078 ] } },
{ "type": "Feature", "properties": { "Name": "206.99", "P.K.": null, "Al.Dist. Izq.": 80, "Al.Dist. Der.": 40, "Ruta": 19 }, "geometry": { "type": "Point", "coordinates": [ -62.85439, -31.46116 ] } },
{ "type": "Feature", "properties": { "Name": "207.75", "P.K.": null, "Al.Dist. Izq.": 80, "Al.Dist. Der.": 40, "Ruta": 19 }, "geometry": { "type": "Point", "coordinates": [ -62.86234, -31.46209 ] } },
{ "type": "Feature", "properties": { "Name": "210.09", "P.K.": null, "Al.Dist. Izq.": 80, "Al.Dist. Der.": 40, "Ruta": 19 }, "geometry": { "type": "Point", "coordinates": [ -62.88653, -31.45846 ] } },
{ "type": "Feature", "properties": { "Name": "210.95", "P.K.": null, "Al.Dist. Izq.": 80, "Al.Dist. Der.": 40, "Ruta": 19 }, "geometry": { "type": "Point", "coordinates": [ -62.8955, -31.45794 ] } },
{ "type": "Feature", "properties": { "Name": "212.98", "P.K.": null, "Al.Dist. Izq.": 80, "Al.Dist. Der.": 40, "Ruta": 19 }, "geometry": { "type": "Point", "coordinates": [ -62.916956, -31.459868 ] } },
{ "type": "Feature", "properties": { "Name": "212.98", "P.K.": null, "Al.Dist. Izq.": 80, "Al.Dist. Der.": 40, "Ruta": 19 }, "geometry": { "type": "Point", "coordinates": [ -62.916956, -31.459868 ] } },
{ "type": "Feature", "properties": { "Name": "214.87", "P.K.": null, "Al.Dist. Izq.": 80, "Al.Dist. Der.": 40, "Ruta": 19 }, "geometry": { "type": "Point", "coordinates": [ -62.93667, -31.46106 ] } },
{ "type": "Feature", "properties": { "Name": "215.34", "P.K.": null, "Al.Dist. Izq.": 80, "Al.Dist. Der.": 40, "Ruta": 19 }, "geometry": { "type": "Point", "coordinates": [ -62.9415, -31.46189 ] } },
{ "type": "Feature", "properties": { "Name": "217.72", "P.K.": null, "Al.Dist. Izq.": 80, "Al.Dist. Der.": 40, "Ruta": 19 }, "geometry": { "type": "Point", "coordinates": [ -62.96553, -31.46789 ] } },
{ "type": "Feature", "properties": { "Name": "218", "P.K.": "PK218", "Al.Dist. Izq.": 80, "Al.Dist. Der.": 40, "Ruta": 19 }, "geometry": { "type": "Point", "coordinates": [ -62.96864, -31.46848 ] } },
{ "type": "Feature", "properties": { "Name": "218.17", "P.K.": null, "Al.Dist. Izq.": 80, "Al.Dist. Der.": 40, "Ruta": 19 }, "geometry": { "type": "Point", "coordinates": [ -62.97013, -31.4688 ] } },
{ "type": "Feature", "properties": { "Name": "218.22", "P.K.": null, "Al.Dist. Izq.": 80, "Al.Dist. Der.": 40, "Ruta": 19 }, "geometry": { "type": "Point", "coordinates": [ -62.970893, -31.469198 ] } },
{ "type": "Feature", "properties": { "Name": "218.22", "P.K.": null, "Al.Dist. Izq.": 80, "Al.Dist. Der.": 40, "Ruta": 19 }, "geometry": { "type": "Point", "coordinates": [ -62.970893, -31.469198 ] } },
{ "type": "Feature", "properties": { "Name": "219.03", "P.K.": null, "Al.Dist. Izq.": 80, "Al.Dist. Der.": 40, "Ruta": 19 }, "geometry": { "type": "Point", "coordinates": [ -62.9791, -31.46964 ] } },
{ "type": "Feature", "properties": { "Name": "219.74", "P.K.": null, "Al.Dist. Izq.": 80, "Al.Dist. Der.": 40, "Ruta": 19 }, "geometry": { "type": "Point", "coordinates": [ -62.98658, -31.46904 ] } },
{ "type": "Feature", "properties": { "Name": "220.94", "P.K.": null, "Al.Dist. Izq.": 80, "Al.Dist. Der.": 40, "Ruta": 19 }, "geometry": { "type": "Point", "coordinates": [ -62.99845, -31.46548 ] } },
{ "type": "Feature", "properties": { "Name": "221.35", "P.K.": null, "Al.Dist. Izq.": 80, "Al.Dist. Der.": 40, "Ruta": 19 }, "geometry": { "type": "Point", "coordinates": [ -63.00261, -31.46442 ] } },
{ "type": "Feature", "properties": { "Name": "223.79", "P.K.": null, "Al.Dist. Izq.": 80, "Al.Dist. Der.": 40, "Ruta": 19 }, "geometry": { "type": "Point", "coordinates": [ -63.02772, -31.46 ] } },
{ "type": "Feature", "properties": { "Name": "224", "P.K.": "PK224", "Al.Dist. Izq.": 80, "Al.Dist. Der.": 40, "Ruta": 19 }, "geometry": { "type": "Point", "coordinates": [ -63.03011, -31.45965 ] } },
{ "type": "Feature", "properties": { "Name": "224.3", "P.K.": null, "Al.Dist. Izq.": 80, "Al.Dist. Der.": 40, "Ruta": 19 }, "geometry": { "type": "Point", "coordinates": [ -63.03334, -31.45947 ] } },
{ "type": "Feature", "properties": { "Name": "226.02", "P.K.": null, "Al.Dist. Izq.": 80, "Al.Dist. Der.": 40, "Ruta": 19 }, "geometry": { "type": "Point", "coordinates": [ -63.052568, -31.458766 ] } },
{ "type": "Feature", "properties": { "Name": "226.02", "P.K.": null, "Al.Dist. Izq.": 80, "Al.Dist. Der.": 40, "Ruta": 19 }, "geometry": { "type": "Point", "coordinates": [ -63.052568, -31.458766 ] } },
{ "type": "Feature", "properties": { "Name": "226.58", "P.K.": null, "Al.Dist. Izq.": 80, "Al.Dist. Der.": 40, "Ruta": 19 }, "geometry": { "type": "Point", "coordinates": [ -63.058902, -31.458089 ] } },
{ "type": "Feature", "properties": { "Name": "226.58", "P.K.": null, "Al.Dist. Izq.": null, "Al.Dist. Der.": null, "Ruta": 19 }, "geometry": { "type": "Point", "coordinates": [ -63.058902, -31.458089 ] } },
{ "type": "Feature", "properties": { "Name": "254.08", "P.K.": null, "Al.Dist. Izq.": null, "Al.Dist. Der.": null, "Ruta": 19 }, "geometry": { "type": "Point", "coordinates": [ -63.363588, -31.432116 ] } },
{ "type": "Feature", "properties": { "Name": "254.08", "P.K.": null, "Al.Dist. Izq.": 80, "Al.Dist. Der.": 40, "Ruta": 19 }, "geometry": { "type": "Point", "coordinates": [ -63.363588, -31.432116 ] } },
{ "type": "Feature", "properties": { "Name": "255.94", "P.K.": null, "Al.Dist. Izq.": 80, "Al.Dist. Der.": 40, "Ruta": 19 }, "geometry": { "type": "Point", "coordinates": [ -63.38436, -31.42977 ] } },
{ "type": "Feature", "properties": { "Name": "256.38", "P.K.": null, "Al.Dist. Izq.": 80, "Al.Dist. Der.": 40, "Ruta": 19 }, "geometry": { "type": "Point", "coordinates": [ -63.38907, -31.42873 ] } },
{ "type": "Feature", "properties": { "Name": "260.33", "P.K.": null, "Al.Dist. Izq.": 80, "Al.Dist. Der.": 40, "Ruta": 19 }, "geometry": { "type": "Point", "coordinates": [ -63.43005, -31.41378 ] } },
{ "type": "Feature", "properties": { "Name": "260.33", "P.K.": null, "Al.Dist. Izq.": 80, "Al.Dist. Der.": 40, "Ruta": 19 }, "geometry": { "type": "Point", "coordinates": [ -63.43005, -31.41414 ] } },
{ "type": "Feature", "properties": { "Name": "260.51", "P.K.": null, "Al.Dist. Izq.": 80, "Al.Dist. Der.": 40, "Ruta": 19 }, "geometry": { "type": "Point", "coordinates": [ -63.43187, -31.41311 ] } },
{ "type": "Feature", "properties": { "Name": "260.84", "P.K.": null, "Al.Dist. Izq.": 80, "Al.Dist. Der.": 40, "Ruta": 19 }, "geometry": { "type": "Point", "coordinates": [ -63.43549, -31.41193 ] } },
{ "type": "Feature", "properties": { "Name": "263.56", "P.K.": null, "Al.Dist. Izq.": 80, "Al.Dist. Der.": 40, "Ruta": 19 }, "geometry": { "type": "Point", "coordinates": [ -63.46446, -31.40357 ] } },
{ "type": "Feature", "properties": { "Name": "263.68", "P.K.": null, "Al.Dist. Izq.": 80, "Al.Dist. Der.": 40, "Ruta": 19 }, "geometry": { "type": "Point", "coordinates": [ -63.46578, -31.40322 ] } },
{ "type": "Feature", "properties": { "Name": "263.68", "P.K.": null, "Al.Dist. Izq.": 80, "Al.Dist. Der.": 40, "Ruta": 19 }, "geometry": { "type": "Point", "coordinates": [ -63.46577, -31.40357 ] } },
{ "type": "Feature", "properties": { "Name": "263.83", "P.K.": null, "Al.Dist. Izq.": 80, "Al.Dist. Der.": 40, "Ruta": 19 }, "geometry": { "type": "Point", "coordinates": [ -63.46735, -31.40286 ] } },
{ "type": "Feature", "properties": { "Name": "267.2", "P.K.": null, "Al.Dist. Izq.": 80, "Al.Dist. Der.": 40, "Ruta": 19 }, "geometry": { "type": "Point", "coordinates": [ -63.50394, -31.3945 ] } },
{ "type": "Feature", "properties": { "Name": "267.24", "P.K.": null, "Al.Dist. Izq.": 80, "Al.Dist. Der.": 40, "Ruta": 19 }, "geometry": { "type": "Point", "coordinates": [ -63.50476, -31.39467 ] } },
{ "type": "Feature", "properties": { "Name": "267.39", "P.K.": null, "Al.Dist. Izq.": 80, "Al.Dist. Der.": 40, "Ruta": 19 }, "geometry": { "type": "Point", "coordinates": [ -63.50609, -31.39405 ] } },
{ "type": "Feature", "properties": { "Name": "267.69", "P.K.": null, "Al.Dist. Izq.": 80, "Al.Dist. Der.": 40, "Ruta": 19 }, "geometry": { "type": "Point", "coordinates": [ -63.5094, -31.39352 ] } },
{ "type": "Feature", "properties": { "Name": "268.97", "P.K.": null, "Al.Dist. Izq.": 80, "Al.Dist. Der.": 40, "Ruta": 19 }, "geometry": { "type": "Point", "coordinates": [ -63.52372, -31.39253 ] } },
{ "type": "Feature", "properties": { "Name": "268.97", "P.K.": null, "Al.Dist. Izq.": 80, "Al.Dist. Der.": 40, "Ruta": 19 }, "geometry": { "type": "Point", "coordinates": [ -63.523782, -31.392832 ] } },
{ "type": "Feature", "properties": { "Name": "269.54", "P.K.": null, "Al.Dist. Izq.": 80, "Al.Dist. Der.": 40, "Ruta": 19 }, "geometry": { "type": "Point", "coordinates": [ -63.53014, -31.39197 ] } },
{ "type": "Feature", "properties": { "Name": "269.54", "P.K.": null, "Al.Dist. Izq.": 80, "Al.Dist. Der.": 40, "Ruta": 19 }, "geometry": { "type": "Point", "coordinates": [ -63.53015, -31.39232 ] } },
{ "type": "Feature", "properties": { "Name": "269.76", "P.K.": null, "Al.Dist. Izq.": 80, "Al.Dist. Der.": 40, "Ruta": 19 }, "geometry": { "type": "Point", "coordinates": [ -63.53267, -31.39181 ] } },
{ "type": "Feature", "properties": { "Name": "270.26", "P.K.": null, "Al.Dist. Izq.": 80, "Al.Dist. Der.": 40, "Ruta": 19 }, "geometry": { "type": "Point", "coordinates": [ -63.53808, -31.39061 ] } },
{ "type": "Feature", "properties": { "Name": "272.87", "P.K.": null, "Al.Dist. Izq.": 80, "Al.Dist. Der.": 40, "Ruta": 19 }, "geometry": { "type": "Point", "coordinates": [ -63.56411, -31.37919 ] } },
{ "type": "Feature", "properties": { "Name": "273.02", "P.K.": null, "Al.Dist. Izq.": 80, "Al.Dist. Der.": 40, "Ruta": 19 }, "geometry": { "type": "Point", "coordinates": [ -63.56581, -31.37855 ] } },
{ "type": "Feature", "properties": { "Name": "273.16", "P.K.": null, "Al.Dist. Izq.": 80, "Al.Dist. Der.": 40, "Ruta": 19 }, "geometry": { "type": "Point", "coordinates": [ -63.56709, -31.3781 ] } },
{ "type": "Feature", "properties": { "Name": "273.16", "P.K.": null, "Al.Dist. Izq.": 80, "Al.Dist. Der.": 40, "Ruta": 19 }, "geometry": { "type": "Point", "coordinates": [ -63.56754, -31.3783 ] } },
{ "type": "Feature", "properties": { "Name": "273.5", "P.K.": null, "Al.Dist. Izq.": 80, "Al.Dist. Der.": 40, "Ruta": 19 }, "geometry": { "type": "Point", "coordinates": [ -63.57076, -31.37684 ] } },
{ "type": "Feature", "properties": { "Name": "273.5", "P.K.": null, "Al.Dist. Izq.": 80, "Al.Dist. Der.": 40, "Ruta": 19 }, "geometry": { "type": "Point", "coordinates": [ -63.57078, -31.3772 ] } },
{ "type": "Feature", "properties": { "Name": "274.75", "P.K.": null, "Al.Dist. Izq.": 80, "Al.Dist. Der.": 40, "Ruta": 19 }, "geometry": { "type": "Point", "coordinates": [ -63.58383, -31.37237 ] } },
{ "type": "Feature", "properties": { "Name": "274.75", "P.K.": null, "Al.Dist. Izq.": 80, "Al.Dist. Der.": 40, "Ruta": 19 }, "geometry": { "type": "Point", "coordinates": [ -63.58384, -31.37272 ] } },
{ "type": "Feature", "properties": { "Name": "275.57", "P.K.": null, "Al.Dist. Izq.": 80, "Al.Dist. Der.": 40, "Ruta": 19 }, "geometry": { "type": "Point", "coordinates": [ -63.59238, -31.369462 ] } },
{ "type": "Feature", "properties": { "Name": "275.57", "P.K.": null, "Al.Dist. Izq.": null, "Al.Dist. Der.": null, "Ruta": 19 }, "geometry": { "type": "Point", "coordinates": [ -63.59238, -31.369462 ] } },
{ "type": "Feature", "properties": { "Name": "276.24", "P.K.": null, "Al.Dist. Izq.": null, "Al.Dist. Der.": null, "Ruta": 19 }, "geometry": { "type": "Point", "coordinates": [ -63.59912, -31.36667 ] } },
{ "type": "Feature", "properties": { "Name": "276.24", "P.K.": null, "Al.Dist. Izq.": null, "Al.Dist. Der.": null, "Ruta": 19 }, "geometry": { "type": "Point", "coordinates": [ -63.599144, -31.367027 ] } },
{ "type": "Feature", "properties": { "Name": "276.92", "P.K.": null, "Al.Dist. Izq.": null, "Al.Dist. Der.": null, "Ruta": 19 }, "geometry": { "type": "Point", "coordinates": [ -63.605847, -31.363414 ] } },
{ "type": "Feature", "properties": { "Name": "276.92", "P.K.": null, "Al.Dist. Izq.": 80, "Al.Dist. Der.": 40, "Ruta": 19 }, "geometry": { "type": "Point", "coordinates": [ -63.605847, -31.363414 ] } },
{ "type": "Feature", "properties": { "Name": "277.32", "P.K.": null, "Al.Dist. Izq.": 80, "Al.Dist. Der.": 40, "Ruta": 19 }, "geometry": { "type": "Point", "coordinates": [ -63.60983, -31.36151 ] } },
{ "type": "Feature", "properties": { "Name": "277.65", "P.K.": null, "Al.Dist. Izq.": 80, "Al.Dist. Der.": 40, "Ruta": 19 }, "geometry": { "type": "Point", "coordinates": [ -63.61319, -31.36022 ] } },
{ "type": "Feature", "properties": { "Name": "278.13", "P.K.": null, "Al.Dist. Izq.": 80, "Al.Dist. Der.": 40, "Ruta": 19 }, "geometry": { "type": "Point", "coordinates": [ -63.654075, -31.339247 ] } },
{ "type": "Feature", "properties": { "Name": "278.13", "P.K.": null, "Al.Dist. Izq.": 80, "Al.Dist. Der.": 40, "Ruta": 19 }, "geometry": { "type": "Point", "coordinates": [ -63.654075, -31.339247 ] } },
{ "type": "Feature", "properties": { "Name": "278.58", "P.K.": null, "Al.Dist. Izq.": 80, "Al.Dist. Der.": 40, "Ruta": 19 }, "geometry": { "type": "Point", "coordinates": [ -63.62295, -31.35735 ] } },
{ "type": "Feature", "properties": { "Name": "278.58", "P.K.": null, "Al.Dist. Izq.": 80, "Al.Dist. Der.": 40, "Ruta": 19 }, "geometry": { "type": "Point", "coordinates": [ -63.622939, -31.35768 ] } },
{ "type": "Feature", "properties": { "Name": "279.5", "P.K.": null, "Al.Dist. Izq.": 80, "Al.Dist. Der.": 40, "Ruta": 19 }, "geometry": { "type": "Point", "coordinates": [ -63.63284, -31.35435 ] } },
{ "type": "Feature", "properties": { "Name": "279.5", "P.K.": null, "Al.Dist. Izq.": 80, "Al.Dist. Der.": 40, "Ruta": 19 }, "geometry": { "type": "Point", "coordinates": [ -63.63299, -31.35468 ] } },
{ "type": "Feature", "properties": { "Name": "280.03", "P.K.": null, "Al.Dist. Izq.": 80, "Al.Dist. Der.": 40, "Ruta": 19 }, "geometry": { "type": "Point", "coordinates": [ -63.63847, -31.35269 ] } },
{ "type": "Feature", "properties": { "Name": "280.38", "P.K.": null, "Al.Dist. Izq.": 80, "Al.Dist. Der.": 40, "Ruta": 19 }, "geometry": { "type": "Point", "coordinates": [ -63.64219, -31.35161 ] } },
{ "type": "Feature", "properties": { "Name": "280.65", "P.K.": null, "Al.Dist. Izq.": 80, "Al.Dist. Der.": 40, "Ruta": 19 }, "geometry": { "type": "Point", "coordinates": [ -63.6444, -31.34972 ] } },
{ "type": "Feature", "properties": { "Name": "280.65", "P.K.": null, "Al.Dist. Izq.": 80, "Al.Dist. Der.": 40, "Ruta": 19 }, "geometry": { "type": "Point", "coordinates": [ -63.64468, -31.34997 ] } },
{ "type": "Feature", "properties": { "Name": "280.68", "P.K.": null, "Al.Dist. Izq.": 80, "Al.Dist. Der.": 40, "Ruta": 19 }, "geometry": { "type": "Point", "coordinates": [ -63.64471, -31.34946 ] } },
{ "type": "Feature", "properties": { "Name": "280.82", "P.K.": null, "Al.Dist. Izq.": 80, "Al.Dist. Der.": 40, "Ruta": 19 }, "geometry": { "type": "Point", "coordinates": [ -63.64575, -31.34854 ] } },
{ "type": "Feature", "properties": { "Name": "280.82", "P.K.": null, "Al.Dist. Izq.": 80, "Al.Dist. Der.": 40, "Ruta": 19 }, "geometry": { "type": "Point", "coordinates": [ -63.646158, -31.348664 ] } },
{ "type": "Feature", "properties": { "Name": "281.01", "P.K.": null, "Al.Dist. Izq.": null, "Al.Dist. Der.": null, "Ruta": 19 }, "geometry": { "type": "Point", "coordinates": [ -63.647256, -31.347186 ] } },
{ "type": "Feature", "properties": { "Name": "281.01", "P.K.": null, "Al.Dist. Izq.": null, "Al.Dist. Der.": null, "Ruta": 19 }, "geometry": { "type": "Point", "coordinates": [ -63.647256, -31.347186 ] } },
{ "type": "Feature", "properties": { "Name": "281.31", "P.K.": null, "Al.Dist. Izq.": null, "Al.Dist. Der.": null, "Ruta": 19 }, "geometry": { "type": "Point", "coordinates": [ -63.64961, -31.34505 ] } },
{ "type": "Feature", "properties": { "Name": "282.95", "P.K.": null, "Al.Dist. Izq.": null, "Al.Dist. Der.": null, "Ruta": 19 }, "geometry": { "type": "Point", "coordinates": [ -63.65577, -31.33056 ] } },
{ "type": "Feature", "properties": { "Name": "283.77", "P.K.": null, "Al.Dist. Izq.": null, "Al.Dist. Der.": null, "Ruta": 19 }, "geometry": { "type": "Point", "coordinates": [ -63.65547, -31.32271 ] } },
{ "type": "Feature", "properties": { "Name": "283.98", "P.K.": null, "Al.Dist. Izq.": null, "Al.Dist. Der.": null, "Ruta": 19 }, "geometry": { "type": "Point", "coordinates": [ -63.65538, -31.32063 ] } },
{ "type": "Feature", "properties": { "Name": "284.46", "P.K.": null, "Al.Dist. Izq.": null, "Al.Dist. Der.": null, "Ruta": 19 }, "geometry": { "type": "Point", "coordinates": [ -63.65606, -31.31609 ] } },
{ "type": "Feature", "properties": { "Name": "284.46", "P.K.": null, "Al.Dist. Izq.": null, "Al.Dist. Der.": null, "Ruta": 19 }, "geometry": { "type": "Point", "coordinates": [ -63.65606, -31.31609 ] } },
{ "type": "Feature", "properties": { "Name": "284.47", "P.K.": null, "Al.Dist. Izq.": null, "Al.Dist. Der.": null, "Ruta": 19 }, "geometry": { "type": "Point", "coordinates": [ -63.65641, -31.31592 ] } },
{ "type": "Feature", "properties": { "Name": "285.39", "P.K.": null, "Al.Dist. Izq.": null, "Al.Dist. Der.": null, "Ruta": 19 }, "geometry": { "type": "Point", "coordinates": [ -63.66372, -31.31039 ] } },
{ "type": "Feature", "properties": { "Name": "285.59", "P.K.": null, "Al.Dist. Izq.": null, "Al.Dist. Der.": null, "Ruta": 19 }, "geometry": { "type": "Point", "coordinates": [ -63.6661203, -31.31053837 ] } },
{ "type": "Feature", "properties": { "Name": "285.7", "P.K.": null, "Al.Dist. Izq.": null, "Al.Dist. Der.": null, "Ruta": 19 }, "geometry": { "type": "Point", "coordinates": [ -63.66702, -31.30949 ] } },
{ "type": "Feature", "properties": { "Name": "285.75", "P.K.": null, "Al.Dist. Izq.": null, "Al.Dist. Der.": null, "Ruta": 19 }, "geometry": { "type": "Point", "coordinates": [ -63.667664, -31.309667 ] } },
{ "type": "Feature", "properties": { "Name": "285.75", "P.K.": null, "Al.Dist. Izq.": null, "Al.Dist. Der.": null, "Ruta": 19 }, "geometry": { "type": "Point", "coordinates": [ -63.667664, -31.309667 ] } },
{ "type": "Feature", "properties": { "Name": "285.98", "P.K.": null, "Al.Dist. Izq.": null, "Al.Dist. Der.": null, "Ruta": 19 }, "geometry": { "type": "Point", "coordinates": [ -63.66991, -31.30842 ] } },
{ "type": "Feature", "properties": { "Name": "286", "P.K.": "PK286", "Al.Dist. Izq.": null, "Al.Dist. Der.": null, "Ruta": 19 }, "geometry": { "type": "Point", "coordinates": [ -63.67001788, -31.30860261 ] } },
{ "type": "Feature", "properties": { "Name": "287", "P.K.": "PK287", "Al.Dist. Izq.": null, "Al.Dist. Der.": null, "Ruta": 19 }, "geometry": { "type": "Point", "coordinates": [ -63.67930943, -31.30401713 ] } },
{ "type": "Feature", "properties": { "Name": "287.23", "P.K.": null, "Al.Dist. Izq.": null, "Al.Dist. Der.": null, "Ruta": 19 }, "geometry": { "type": "Point", "coordinates": [ -63.681114, -31.30289 ] } },
{ "type": "Feature", "properties": { "Name": "287.23", "P.K.": null, "Al.Dist. Izq.": null, "Al.Dist. Der.": null, "Ruta": 19 }, "geometry": { "type": "Point", "coordinates": [ -63.68126122, -31.3030553 ] } },
{ "type": "Feature", "properties": { "Name": "287.58", "P.K.": null, "Al.Dist. Izq.": null, "Al.Dist. Der.": null, "Ruta": 19 }, "geometry": { "type": "Point", "coordinates": [ -63.68423374, -31.30158636 ] } },
{ "type": "Feature", "properties": { "Name": "287.79", "P.K.": null, "Al.Dist. Izq.": null, "Al.Dist. Der.": null, "Ruta": 19 }, "geometry": { "type": "Point", "coordinates": [ -63.685988, -31.30047 ] } },
{ "type": "Feature", "properties": { "Name": "287.79", "P.K.": null, "Al.Dist. Izq.": null, "Al.Dist. Der.": null, "Ruta": 19 }, "geometry": { "type": "Point", "coordinates": [ -63.686113, -31.300693 ] } },
{ "type": "Feature", "properties": { "Name": "288", "P.K.": "PK288", "Al.Dist. Izq.": null, "Al.Dist. Der.": null, "Ruta": 19 }, "geometry": { "type": "Point", "coordinates": [ -63.6884404, -31.29950581 ] } },
{ "type": "Feature", "properties": { "Name": "288.65", "P.K.": null, "Al.Dist. Izq.": null, "Al.Dist. Der.": null, "Ruta": 19 }, "geometry": { "type": "Point", "coordinates": [ -63.693956, -31.296525 ] } },
{ "type": "Feature", "properties": { "Name": "288.65", "P.K.": null, "Al.Dist. Izq.": null, "Al.Dist. Der.": null, "Ruta": 19 }, "geometry": { "type": "Point", "coordinates": [ -63.694095, -31.296749 ] } },
{ "type": "Feature", "properties": { "Name": "289", "P.K.": "PK289", "Al.Dist. Izq.": null, "Al.Dist. Der.": null, "Ruta": 19 }, "geometry": { "type": "Point", "coordinates": [ -63.69731178, -31.29512244 ] } },
{ "type": "Feature", "properties": { "Name": "289.55", "P.K.": null, "Al.Dist. Izq.": null, "Al.Dist. Der.": null, "Ruta": 19 }, "geometry": { "type": "Point", "coordinates": [ -63.70236595, -31.29261923 ] } },
{ "type": "Feature", "properties": { "Name": "289.77", "P.K.": null, "Al.Dist. Izq.": null, "Al.Dist. Der.": null, "Ruta": 19 }, "geometry": { "type": "Point", "coordinates": [ -63.70429, -31.29143 ] } },
{ "type": "Feature", "properties": { "Name": "289.92", "P.K.": null, "Al.Dist. Izq.": null, "Al.Dist. Der.": null, "Ruta": 19 }, "geometry": { "type": "Point", "coordinates": [ -63.7057, -31.29073 ] } },
{ "type": "Feature", "properties": { "Name": "290", "P.K.": "PK290", "Al.Dist. Izq.": null, "Al.Dist. Der.": null, "Ruta": 19 }, "geometry": { "type": "Point", "coordinates": [ -63.70669516, -31.29053716 ] } },
{ "type": "Feature", "properties": { "Name": "290.36", "P.K.": null, "Al.Dist. Izq.": null, "Al.Dist. Der.": null, "Ruta": 19 }, "geometry": { "type": "Point", "coordinates": [ -63.710223, -31.289706 ] } },
{ "type": "Feature", "properties": { "Name": "290.36", "P.K.": null, "Al.Dist. Izq.": null, "Al.Dist. Der.": null, "Ruta": 19 }, "geometry": { "type": "Point", "coordinates": [ -63.710223, -31.289706 ] } },
{ "type": "Feature", "properties": { "Name": "290.7", "P.K.": null, "Al.Dist. Izq.": null, "Al.Dist. Der.": null, "Ruta": 19 }, "geometry": { "type": "Point", "coordinates": [ -63.71411, -31.28942 ] } },
{ "type": "Feature", "properties": { "Name": "290.86", "P.K.": null, "Al.Dist. Izq.": null, "Al.Dist. Der.": null, "Ruta": 19 }, "geometry": { "type": "Point", "coordinates": [ -63.71551, -31.28971 ] } },
{ "type": "Feature", "properties": { "Name": "291", "P.K.": "PK291", "Al.Dist. Izq.": null, "Al.Dist. Der.": null, "Ruta": 19 }, "geometry": { "type": "Point", "coordinates": [ -63.71702, -31.29032 ] } },
{ "type": "Feature", "properties": { "Name": "291.28", "P.K.": null, "Al.Dist. Izq.": null, "Al.Dist. Der.": null, "Ruta": 19 }, "geometry": { "type": "Point", "coordinates": [ -63.719838, -31.29084 ] } },
{ "type": "Feature", "properties": { "Name": "291.28", "P.K.": null, "Al.Dist. Izq.": null, "Al.Dist. Der.": null, "Ruta": 19 }, "geometry": { "type": "Point", "coordinates": [ -63.719838, -31.29084 ] } },
{ "type": "Feature", "properties": { "Name": "291.46", "P.K.": null, "Al.Dist. Izq.": null, "Al.Dist. Der.": null, "Ruta": 19 }, "geometry": { "type": "Point", "coordinates": [ -63.72178, -31.29154 ] } },
{ "type": "Feature", "properties": { "Name": "291.75", "P.K.": null, "Al.Dist. Izq.": null, "Al.Dist. Der.": null, "Ruta": 19 }, "geometry": { "type": "Point", "coordinates": [ -63.72472, -31.29191 ] } },
{ "type": "Feature", "properties": { "Name": "291.75", "P.K.": null, "Al.Dist. Izq.": null, "Al.Dist. Der.": null, "Ruta": 19 }, "geometry": { "type": "Point", "coordinates": [ -63.72464, -31.29217 ] } },
{ "type": "Feature", "properties": { "Name": "291.87", "P.K.": null, "Al.Dist. Izq.": null, "Al.Dist. Der.": null, "Ruta": 19 }, "geometry": { "type": "Point", "coordinates": [ -63.72588, -31.29248 ] } },
{ "type": "Feature", "properties": { "Name": "292", "P.K.": "PK292", "Al.Dist. Izq.": null, "Al.Dist. Der.": null, "Ruta": 19 }, "geometry": { "type": "Point", "coordinates": [ -63.72721, -31.2928 ] } },
{ "type": "Feature", "properties": { "Name": "292.38", "P.K.": null, "Al.Dist. Izq.": null, "Al.Dist. Der.": null, "Ruta": 19 }, "geometry": { "type": "Point", "coordinates": [ -63.73095, -31.29368 ] } },
{ "type": "Feature", "properties": { "Name": "292.89", "P.K.": null, "Al.Dist. Izq.": null, "Al.Dist. Der.": null, "Ruta": 19 }, "geometry": { "type": "Point", "coordinates": [ -63.73623, -31.29492 ] } },
{ "type": "Feature", "properties": { "Name": "293", "P.K.": "PK293", "Al.Dist. Izq.": null, "Al.Dist. Der.": null, "Ruta": 19 }, "geometry": { "type": "Point", "coordinates": [ -63.73735, -31.29513 ] } },
{ "type": "Feature", "properties": { "Name": "293.06", "P.K.": null, "Al.Dist. Izq.": null, "Al.Dist. Der.": null, "Ruta": 19 }, "geometry": { "type": "Point", "coordinates": [ -63.73807, -31.29515 ] } },
{ "type": "Feature", "properties": { "Name": "293.72", "P.K.": null, "Al.Dist. Izq.": null, "Al.Dist. Der.": null, "Ruta": 19 }, "geometry": { "type": "Point", "coordinates": [ -63.74529, -31.29548 ] } },
{ "type": "Feature", "properties": { "Name": "293.82", "P.K.": null, "Al.Dist. Izq.": null, "Al.Dist. Der.": null, "Ruta": 19 }, "geometry": { "type": "Point", "coordinates": [ -63.74628, -31.29526 ] } },
{ "type": "Feature", "properties": { "Name": "294.18", "P.K.": null, "Al.Dist. Izq.": null, "Al.Dist. Der.": null, "Ruta": 19 }, "geometry": { "type": "Point", "coordinates": [ -63.75018, -31.29448 ] } },
{ "type": "Feature", "properties": { "Name": "294.91", "P.K.": null, "Al.Dist. Izq.": null, "Al.Dist. Der.": null, "Ruta": 19 }, "geometry": { "type": "Point", "coordinates": [ -63.75825, -31.29473 ] } },
{ "type": "Feature", "properties": { "Name": "295.13", "P.K.": null, "Al.Dist. Izq.": null, "Al.Dist. Der.": null, "Ruta": 19 }, "geometry": { "type": "Point", "coordinates": [ -63.76059, -31.29529 ] } },
{ "type": "Feature", "properties": { "Name": "296.05", "P.K.": null, "Al.Dist. Izq.": null, "Al.Dist. Der.": null, "Ruta": 19 }, "geometry": { "type": "Point", "coordinates": [ -63.76887, -31.30007 ] } },
{ "type": "Feature", "properties": { "Name": "296.15", "P.K.": null, "Al.Dist. Izq.": null, "Al.Dist. Der.": null, "Ruta": 19 }, "geometry": { "type": "Point", "coordinates": [ -63.76953, -31.30079 ] } },
{ "type": "Feature", "properties": { "Name": "296.53", "P.K.": null, "Al.Dist. Izq.": null, "Al.Dist. Der.": null, "Ruta": 19 }, "geometry": { "type": "Point", "coordinates": [ -63.7764, -31.30426 ] } },
{ "type": "Feature", "properties": { "Name": "296.88", "P.K.": null, "Al.Dist. Izq.": null, "Al.Dist. Der.": null, "Ruta": 19 }, "geometry": { "type": "Point", "coordinates": [ -63.77263, -31.30321 ] } },
{ "type": "Feature", "properties": { "Name": "297", "P.K.": "PK297", "Al.Dist. Izq.": null, "Al.Dist. Der.": null, "Ruta": 19 }, "geometry": { "type": "Point", "coordinates": [ -63.77786, -31.30473 ] } },
{ "type": "Feature", "properties": { "Name": "297.41", "P.K.": null, "Al.Dist. Izq.": null, "Al.Dist. Der.": null, "Ruta": 19 }, "geometry": { "type": "Point", "coordinates": [ -63.78178, -31.30549 ] } },
{ "type": "Feature", "properties": { "Name": "297.41", "P.K.": null, "Al.Dist. Izq.": null, "Al.Dist. Der.": null, "Ruta": 19 }, "geometry": { "type": "Point", "coordinates": [ -63.78172, -31.30571 ] } },
{ "type": "Feature", "properties": { "Name": "297.75", "P.K.": null, "Al.Dist. Izq.": null, "Al.Dist. Der.": null, "Ruta": 19 }, "geometry": { "type": "Point", "coordinates": [ -63.78547, -31.30654 ] } },
{ "type": "Feature", "properties": { "Name": "298", "P.K.": "PK298", "Al.Dist. Izq.": null, "Al.Dist. Der.": null, "Ruta": 19 }, "geometry": { "type": "Point", "coordinates": [ -63.78797, -31.30721 ] } },
{ "type": "Feature", "properties": { "Name": "299", "P.K.": "PK299", "Al.Dist. Izq.": null, "Al.Dist. Der.": null, "Ruta": 19 }, "geometry": { "type": "Point", "coordinates": [ -63.79812, -31.30961 ] } },
{ "type": "Feature", "properties": { "Name": "299.74", "P.K.": null, "Al.Dist. Izq.": null, "Al.Dist. Der.": null, "Ruta": 19 }, "geometry": { "type": "Point", "coordinates": [ -63.80563, -31.31138 ] } },
{ "type": "Feature", "properties": { "Name": "300", "P.K.": "PK300", "Al.Dist. Izq.": null, "Al.Dist. Der.": null, "Ruta": 19 }, "geometry": { "type": "Point", "coordinates": [ -63.80827, -31.31202 ] } },
{ "type": "Feature", "properties": { "Name": "301", "P.K.": "PK301", "Al.Dist. Izq.": null, "Al.Dist. Der.": null, "Ruta": 19 }, "geometry": { "type": "Point", "coordinates": [ -63.81844, -31.31434 ] } },
{ "type": "Feature", "properties": { "Name": "301.15", "P.K.": null, "Al.Dist. Izq.": null, "Al.Dist. Der.": null, "Ruta": 19 }, "geometry": { "type": "Point", "coordinates": [ -63.81991, -31.31452 ] } },
{ "type": "Feature", "properties": { "Name": "301.67", "P.K.": null, "Al.Dist. Izq.": null, "Al.Dist. Der.": null, "Ruta": 19 }, "geometry": { "type": "Point", "coordinates": [ -63.82543, -31.31484 ] } },
{ "type": "Feature", "properties": { "Name": "301.81", "P.K.": null, "Al.Dist. Izq.": null, "Al.Dist. Der.": null, "Ruta": 19 }, "geometry": { "type": "Point", "coordinates": [ -63.82695, -31.31473 ] } },
{ "type": "Feature", "properties": { "Name": "302.01", "P.K.": null, "Al.Dist. Izq.": null, "Al.Dist. Der.": null, "Ruta": 19 }, "geometry": { "type": "Point", "coordinates": [ -63.82904, -31.31458 ] } },
{ "type": "Feature", "properties": { "Name": "302.5", "P.K.": null, "Al.Dist. Izq.": null, "Al.Dist. Der.": null, "Ruta": 19 }, "geometry": { "type": "Point", "coordinates": [ -63.83425, -31.31531 ] } },
{ "type": "Feature", "properties": { "Name": "302.99", "P.K.": null, "Al.Dist. Izq.": null, "Al.Dist. Der.": null, "Ruta": 19 }, "geometry": { "type": "Point", "coordinates": [ -63.83931, -31.31653 ] } },
{ "type": "Feature", "properties": { "Name": "303.97", "P.K.": null, "Al.Dist. Izq.": null, "Al.Dist. Der.": null, "Ruta": 19 }, "geometry": { "type": "Point", "coordinates": [ -63.84936, -31.31914 ] } },
{ "type": "Feature", "properties": { "Name": "304.63", "P.K.": null, "Al.Dist. Izq.": null, "Al.Dist. Der.": null, "Ruta": 19 }, "geometry": { "type": "Point", "coordinates": [ -63.85624, -31.32053 ] } },
{ "type": "Feature", "properties": { "Name": "304.95", "P.K.": null, "Al.Dist. Izq.": null, "Al.Dist. Der.": null, "Ruta": 19 }, "geometry": { "type": "Point", "coordinates": [ -63.85934, -31.32179 ] } },
{ "type": "Feature", "properties": { "Name": "305.18", "P.K.": null, "Al.Dist. Izq.": null, "Al.Dist. Der.": null, "Ruta": 19 }, "geometry": { "type": "Point", "coordinates": [ -63.86146, -31.3227 ] } },
{ "type": "Feature", "properties": { "Name": "305.4", "P.K.": null, "Al.Dist. Izq.": null, "Al.Dist. Der.": null, "Ruta": 19 }, "geometry": { "type": "Point", "coordinates": [ -63.86337, -31.32391 ] } },
{ "type": "Feature", "properties": { "Name": "305.89", "P.K.": null, "Al.Dist. Izq.": null, "Al.Dist. Der.": null, "Ruta": 19 }, "geometry": { "type": "Point", "coordinates": [ -63.8681, -31.3259 ] } },
{ "type": "Feature", "properties": { "Name": "306", "P.K.": "PK306", "Al.Dist. Izq.": null, "Al.Dist. Der.": null, "Ruta": 19 }, "geometry": { "type": "Point", "coordinates": [ -63.86909334, -31.32669275 ] } },
{ "type": "Feature", "properties": { "Name": "306.39", "P.K.": null, "Al.Dist. Izq.": null, "Al.Dist. Der.": null, "Ruta": 19 }, "geometry": { "type": "Point", "coordinates": [ -63.87308763, -31.32742242 ] } },
{ "type": "Feature", "properties": { "Name": "306.57", "P.K.": null, "Al.Dist. Izq.": null, "Al.Dist. Der.": null, "Ruta": 19 }, "geometry": { "type": "Point", "coordinates": [ -63.87493374, -31.32773676 ] } },
{ "type": "Feature", "properties": { "Name": "306.57", "P.K.": null, "Al.Dist. Izq.": null, "Al.Dist. Der.": null, "Ruta": 19 }, "geometry": { "type": "Point", "coordinates": [ -63.87493374, -31.32773676 ] } },
{ "type": "Feature", "properties": { "Name": "306.77", "P.K.": null, "Al.Dist. Izq.": null, "Al.Dist. Der.": null, "Ruta": 19 }, "geometry": { "type": "Point", "coordinates": [ -63.87691406, -31.32837485 ] } },
{ "type": "Feature", "properties": { "Name": "306.82", "P.K.": null, "Al.Dist. Izq.": null, "Al.Dist. Der.": null, "Ruta": 19 }, "geometry": { "type": "Point", "coordinates": [ -63.877393, -31.328483 ] } },
{ "type": "Feature", "properties": { "Name": "306.82", "P.K.": null, "Al.Dist. Izq.": null, "Al.Dist. Der.": null, "Ruta": 19 }, "geometry": { "type": "Point", "coordinates": [ -63.877393, -31.328483 ] } },
{ "type": "Feature", "properties": { "Name": "306.88", "P.K.": null, "Al.Dist. Izq.": null, "Al.Dist. Der.": null, "Ruta": 19 }, "geometry": { "type": "Point", "coordinates": [ -63.878043, -31.328506 ] } },
{ "type": "Feature", "properties": { "Name": "307", "P.K.": "PK307", "Al.Dist. Izq.": null, "Al.Dist. Der.": null, "Ruta": 19 }, "geometry": { "type": "Point", "coordinates": [ -63.87920244, -31.32907475 ] } },
{ "type": "Feature", "properties": { "Name": "308", "P.K.": "PK308", "Al.Dist. Izq.": null, "Al.Dist. Der.": null, "Ruta": 19 }, "geometry": { "type": "Point", "coordinates": [ -63.88935695, -31.33145997 ] } },
{ "type": "Feature", "properties": { "Name": "308.41", "P.K.": null, "Al.Dist. Izq.": null, "Al.Dist. Der.": null, "Ruta": 19 }, "geometry": { "type": "Point", "coordinates": [ -63.89364, -31.33217 ] } },
{ "type": "Feature", "properties": { "Name": "308.62", "P.K.": null, "Al.Dist. Izq.": null, "Al.Dist. Der.": null, "Ruta": 19 }, "geometry": { "type": "Point", "coordinates": [ -63.89589, -31.33261 ] } },
{ "type": "Feature", "properties": { "Name": "308.72", "P.K.": null, "Al.Dist. Izq.": null, "Al.Dist. Der.": null, "Ruta": 19 }, "geometry": { "type": "Point", "coordinates": [ -63.89697, -31.33265 ] } },
{ "type": "Feature", "properties": { "Name": "309", "P.K.": "PK309", "Al.Dist. Izq.": null, "Al.Dist. Der.": null, "Ruta": 19 }, "geometry": { "type": "Point", "coordinates": [ -63.8996032, -31.33309998 ] } },
{ "type": "Feature", "properties": { "Name": "309.29", "P.K.": null, "Al.Dist. Izq.": null, "Al.Dist. Der.": null, "Ruta": 19 }, "geometry": { "type": "Point", "coordinates": [ -63.90239662, -31.33465282 ] } },
{ "type": "Feature", "properties": { "Name": "309.31", "P.K.": null, "Al.Dist. Izq.": null, "Al.Dist. Der.": null, "Ruta": 19 }, "geometry": { "type": "Point", "coordinates": [ -63.90254637, -31.33479806 ] } },
{ "type": "Feature", "properties": { "Name": "309.31", "P.K.": null, "Al.Dist. Izq.": 75, "Al.Dist. Der.": 45, "Ruta": 19 }, "geometry": { "type": "Point", "coordinates": [ -63.90254637, -31.33479806 ] } },
{ "type": "Feature", "properties": { "Name": "309.35", "P.K.": null, "Al.Dist. Izq.": 75, "Al.Dist. Der.": 45, "Ruta": 19 }, "geometry": { "type": "Point", "coordinates": [ -63.903338, -31.334977 ] } },
{ "type": "Feature", "properties": { "Name": "309.4", "P.K.": null, "Al.Dist. Izq.": 75, "Al.Dist. Der.": 45, "Ruta": 19 }, "geometry": { "type": "Point", "coordinates": [ -63.90342, -31.33499 ] } },
{ "type": "Feature", "properties": { "Name": "309.48", "P.K.": null, "Al.Dist. Izq.": 75, "Al.Dist. Der.": 45, "Ruta": 19 }, "geometry": { "type": "Point", "coordinates": [ -63.90377, -31.336012 ] } },
{ "type": "Feature", "properties": { "Name": "309.48", "P.K.": null, "Al.Dist. Izq.": 75, "Al.Dist. Der.": 45, "Ruta": 19 }, "geometry": { "type": "Point", "coordinates": [ -63.90377, -31.336012 ] } },
{ "type": "Feature", "properties": { "Name": "309.82", "P.K.": null, "Al.Dist. Izq.": 75, "Al.Dist. Der.": 45, "Ruta": 19 }, "geometry": { "type": "Point", "coordinates": [ -63.90664, -31.33816 ] } },
{ "type": "Feature", "properties": { "Name": "310.24", "P.K.": null, "Al.Dist. Izq.": 75, "Al.Dist. Der.": 45, "Ruta": 19 }, "geometry": { "type": "Point", "coordinates": [ -63.909364, -31.341458 ] } },
{ "type": "Feature", "properties": { "Name": "310.44", "P.K.": null, "Al.Dist. Izq.": 75, "Al.Dist. Der.": 45, "Ruta": 19 }, "geometry": { "type": "Point", "coordinates": [ -63.910358, -31.343142 ] } },
{ "type": "Feature", "properties": { "Name": "311.01", "P.K.": null, "Al.Dist. Izq.": 75, "Al.Dist. Der.": 45, "Ruta": 19 }, "geometry": { "type": "Point", "coordinates": [ -63.913463, -31.347948 ] } },
{ "type": "Feature", "properties": { "Name": "311.7", "P.K.": null, "Al.Dist. Izq.": 75, "Al.Dist. Der.": 45, "Ruta": 19 }, "geometry": { "type": "Point", "coordinates": [ -63.918506, -31.352756 ] } },
{ "type": "Feature", "properties": { "Name": "311.72", "P.K.": null, "Al.Dist. Izq.": 75, "Al.Dist. Der.": 45, "Ruta": 19 }, "geometry": { "type": "Point", "coordinates": [ -63.918869, -31.352662 ] } },
{ "type": "Feature", "properties": { "Name": "312.8", "P.K.": null, "Al.Dist. Izq.": 75, "Al.Dist. Der.": 45, "Ruta": 19 }, "geometry": { "type": "Point", "coordinates": [ -63.929248, -31.357625 ] } },
{ "type": "Feature", "properties": { "Name": "312.8", "P.K.": null, "Al.Dist. Izq.": 75, "Al.Dist. Der.": 45, "Ruta": 19 }, "geometry": { "type": "Point", "coordinates": [ -63.929178, -31.357885 ] } },
{ "type": "Feature", "properties": { "Name": "313.79", "P.K.": null, "Al.Dist. Izq.": 75, "Al.Dist. Der.": 45, "Ruta": 19 }, "geometry": { "type": "Point", "coordinates": [ -63.93999, -31.359 ] } },
{ "type": "Feature", "properties": { "Name": "313.79", "P.K.": null, "Al.Dist. Izq.": 75, "Al.Dist. Der.": 45, "Ruta": 19 }, "geometry": { "type": "Point", "coordinates": [ -63.93999, -31.359 ] } },
{ "type": "Feature", "properties": { "Name": "313.79", "P.K.": null, "Al.Dist. Izq.": 75, "Al.Dist. Der.": 45, "Ruta": 19 }, "geometry": { "type": "Point", "coordinates": [ -63.93999, -31.359 ] } },
{ "type": "Feature", "properties": { "Name": "314.05", "P.K.": null, "Al.Dist. Izq.": 75, "Al.Dist. Der.": 45, "Ruta": 19 }, "geometry": { "type": "Point", "coordinates": [ -63.94291, -31.35899 ] } },
{ "type": "Feature", "properties": { "Name": "314.26", "P.K.": null, "Al.Dist. Izq.": 75, "Al.Dist. Der.": 45, "Ruta": 19 }, "geometry": { "type": "Point", "coordinates": [ -63.94519, -31.35903 ] } },
{ "type": "Feature", "properties": { "Name": "314.98", "P.K.": null, "Al.Dist. Izq.": 75, "Al.Dist. Der.": 45, "Ruta": 19 }, "geometry": { "type": "Point", "coordinates": [ -63.95318, -31.35865 ] } },
{ "type": "Feature", "properties": { "Name": "314.98", "P.K.": null, "Al.Dist. Izq.": 75, "Al.Dist. Der.": 45, "Ruta": 19 }, "geometry": { "type": "Point", "coordinates": [ -63.95318, -31.35839 ] } },
{ "type": "Feature", "properties": { "Name": "315.7", "P.K.": null, "Al.Dist. Izq.": 75, "Al.Dist. Der.": 45, "Ruta": 19 }, "geometry": { "type": "Point", "coordinates": [ -63.96657573, -31.35760942 ] } },
{ "type": "Feature", "properties": { "Name": "315.78", "P.K.": null, "Al.Dist. Izq.": 75, "Al.Dist. Der.": 45, "Ruta": 19 }, "geometry": { "type": "Point", "coordinates": [ -63.967382, -31.357849 ] } },
{ "type": "Feature", "properties": { "Name": "315.78", "P.K.": null, "Al.Dist. Izq.": 75, "Al.Dist. Der.": 45, "Ruta": 19 }, "geometry": { "type": "Point", "coordinates": [ -63.967382, -31.357849 ] } },
{ "type": "Feature", "properties": { "Name": "315.95", "P.K.": null, "Al.Dist. Izq.": null, "Al.Dist. Der.": null, "Ruta": 19 }, "geometry": { "type": "Point", "coordinates": [ -63.963894, -31.357614 ] } },
{ "type": "Feature", "properties": { "Name": "315.99", "P.K.": null, "Al.Dist. Izq.": null, "Al.Dist. Der.": null, "Ruta": 19 }, "geometry": { "type": "Point", "coordinates": [ -63.96432, -31.35773 ] } },
{ "type": "Feature", "properties": { "Name": "317.59", "P.K.": null, "Al.Dist. Izq.": null, "Al.Dist. Der.": null, "Ruta": 19 }, "geometry": { "type": "Point", "coordinates": [ -63.98158319, -31.36184643 ] } },
{ "type": "Feature", "properties": { "Name": "317.68", "P.K.": null, "Al.Dist. Izq.": null, "Al.Dist. Der.": null, "Ruta": 19 }, "geometry": { "type": "Point", "coordinates": [ -63.98248424, -31.36209853 ] } },
{ "type": "Feature", "properties": { "Name": "317.98", "P.K.": null, "Al.Dist. Izq.": null, "Al.Dist. Der.": null, "Ruta": 19 }, "geometry": { "type": "Point", "coordinates": [ -63.98568815, -31.36299419 ] } },
{ "type": "Feature", "properties": { "Name": "318", "P.K.": "PK318", "Al.Dist. Izq.": null, "Al.Dist. Der.": null, "Ruta": 19 }, "geometry": { "type": "Point", "coordinates": [ -63.98588836, -31.3630503 ] } },
{ "type": "Feature", "properties": { "Name": "318.03", "P.K.": null, "Al.Dist. Izq.": null, "Al.Dist. Der.": null, "Ruta": 19 }, "geometry": { "type": "Point", "coordinates": [ -63.98618846, -31.3631352 ] } },
{ "type": "Feature", "properties": { "Name": "318.21", "P.K.": null, "Al.Dist. Izq.": null, "Al.Dist. Der.": null, "Ruta": 19 }, "geometry": { "type": "Point", "coordinates": [ -63.9879891, -31.36364455 ] } },
{ "type": "Feature", "properties": { "Name": "318.77", "P.K.": null, "Al.Dist. Izq.": null, "Al.Dist. Der.": null, "Ruta": 19 }, "geometry": { "type": "Point", "coordinates": [ -63.99359109, -31.36522921 ] } },
{ "type": "Feature", "properties": { "Name": "319", "P.K.": "PK319", "Al.Dist. Izq.": null, "Al.Dist. Der.": null, "Ruta": 19 }, "geometry": { "type": "Point", "coordinates": [ -63.99589298, -31.36587624 ] } },
{ "type": "Feature", "properties": { "Name": "319.13", "P.K.": null, "Al.Dist. Izq.": null, "Al.Dist. Der.": null, "Ruta": 19 }, "geometry": { "type": "Point", "coordinates": [ -63.99719459, -31.36624001 ] } },
{ "type": "Feature", "properties": { "Name": "319.21", "P.K.": null, "Al.Dist. Izq.": null, "Al.Dist. Der.": null, "Ruta": 19 }, "geometry": { "type": "Point", "coordinates": [ -63.99799442, -31.3664679 ] } },
{ "type": "Feature", "properties": { "Name": "319.56", "P.K.": null, "Al.Dist. Izq.": null, "Al.Dist. Der.": null, "Ruta": 19 }, "geometry": { "type": "Point", "coordinates": [ -64.00152586, -31.36733289 ] } },
{ "type": "Feature", "properties": { "Name": "319.59", "P.K.": null, "Al.Dist. Izq.": null, "Al.Dist. Der.": null, "Ruta": 19 }, "geometry": { "type": "Point", "coordinates": [ -64.00182687, -31.3674145 ] } },
{ "type": "Feature", "properties": { "Name": "319.61", "P.K.": null, "Al.Dist. Izq.": null, "Al.Dist. Der.": null, "Ruta": 19 }, "geometry": { "type": "Point", "coordinates": [ -64.00202755, -31.36746891 ] } },
{ "type": "Feature", "properties": { "Name": "319.63", "P.K.": null, "Al.Dist. Izq.": null, "Al.Dist. Der.": null, "Ruta": 19 }, "geometry": { "type": "Point", "coordinates": [ -64.00222823, -31.36752332 ] } },
{ "type": "Feature", "properties": { "Name": "319.65", "P.K.": null, "Al.Dist. Izq.": null, "Al.Dist. Der.": null, "Ruta": 19 }, "geometry": { "type": "Point", "coordinates": [ -64.00242891, -31.36757772 ] } },
{ "type": "Feature", "properties": { "Name": "320", "P.K.": "PK320", "Al.Dist. Izq.": null, "Al.Dist. Der.": null, "Ruta": 19 }, "geometry": { "type": "Point", "coordinates": [ -64.00588581, -31.36870427 ] } },
{ "type": "Feature", "properties": { "Name": "320.01", "P.K.": null, "Al.Dist. Izq.": null, "Al.Dist. Der.": null, "Ruta": 19 }, "geometry": { "type": "Point", "coordinates": [ -64.00598592, -31.36873228 ] } },
{ "type": "Feature", "properties": { "Name": "320.02", "P.K.": null, "Al.Dist. Izq.": null, "Al.Dist. Der.": null, "Ruta": 19 }, "geometry": { "type": "Point", "coordinates": [ -64.00608604, -31.36876029 ] } },
{ "type": "Feature", "properties": { "Name": "320.2", "P.K.": null, "Al.Dist. Izq.": null, "Al.Dist. Der.": null, "Ruta": 19 }, "geometry": { "type": "Point", "coordinates": [ -64.00788775, -31.36926585 ] } },
{ "type": "Feature", "properties": { "Name": "320.34", "P.K.": null, "Al.Dist. Izq.": null, "Al.Dist. Der.": null, "Ruta": 19 }, "geometry": { "type": "Point", "coordinates": [ -64.0092887, -31.36966041 ] } },
{ "type": "Feature", "properties": { "Name": "320.72", "P.K.": null, "Al.Dist. Izq.": null, "Al.Dist. Der.": null, "Ruta": 19 }, "geometry": { "type": "Point", "coordinates": [ -64.0130913, -31.37073127 ] } },
{ "type": "Feature", "properties": { "Name": "321", "P.K.": "PK321", "Al.Dist. Izq.": null, "Al.Dist. Der.": null, "Ruta": 19 }, "geometry": { "type": "Point", "coordinates": [ -64.01589323, -31.37152031 ] } },
{ "type": "Feature", "properties": { "Name": "321.34", "P.K.": null, "Al.Dist. Izq.": null, "Al.Dist. Der.": null, "Ruta": 19 }, "geometry": { "type": "Point", "coordinates": [ -64.01929556, -31.37247843 ] } },
{ "type": "Feature", "properties": { "Name": "321.59", "P.K.": null, "Al.Dist. Izq.": null, "Al.Dist. Der.": null, "Ruta": 19 }, "geometry": { "type": "Point", "coordinates": [ -64.02179671, -31.37318494 ] } },
{ "type": "Feature", "properties": { "Name": "321.61", "P.K.": null, "Al.Dist. Izq.": null, "Al.Dist. Der.": null, "Ruta": 19 }, "geometry": { "type": "Point", "coordinates": [ -64.0219968, -31.37324147 ] } },
{ "type": "Feature", "properties": { "Name": "321.82", "P.K.": null, "Al.Dist. Izq.": null, "Al.Dist. Der.": null, "Ruta": 19 }, "geometry": { "type": "Point", "coordinates": [ -64.02409773, -31.37383506 ] } },
{ "type": "Feature", "properties": { "Name": "321.89", "P.K.": null, "Al.Dist. Izq.": null, "Al.Dist. Der.": null, "Ruta": 19 }, "geometry": { "type": "Point", "coordinates": [ -64.02479804, -31.37403292 ] } },
{ "type": "Feature", "properties": { "Name": "321.9", "P.K.": null, "Al.Dist. Izq.": null, "Al.Dist. Der.": null, "Ruta": 19 }, "geometry": { "type": "Point", "coordinates": [ -64.02489809, -31.37406119 ] } },
{ "type": "Feature", "properties": { "Name": "322", "P.K.": "PK322", "Al.Dist. Izq.": null, "Al.Dist. Der.": null, "Ruta": 19 }, "geometry": { "type": "Point", "coordinates": [ -64.02589853, -31.37434385 ] } },
{ "type": "Feature", "properties": { "Name": "322.35", "P.K.": null, "Al.Dist. Izq.": null, "Al.Dist. Der.": null, "Ruta": 19 }, "geometry": { "type": "Point", "coordinates": [ -64.0294, -31.3753 ] } },
{ "type": "Feature", "properties": { "Name": "322.71", "P.K.": null, "Al.Dist. Izq.": null, "Al.Dist. Der.": null, "Ruta": 19 }, "geometry": { "type": "Point", "coordinates": [ -64.03300168, -31.37635074 ] } },
{ "type": "Feature", "properties": { "Name": "322.73", "P.K.": null, "Al.Dist. Izq.": null, "Al.Dist. Der.": null, "Ruta": 19 }, "geometry": { "type": "Point", "coordinates": [ -64.03320178, -31.37640723 ] } },
{ "type": "Feature", "properties": { "Name": "322.8", "P.K.": null, "Al.Dist. Izq.": null, "Al.Dist. Der.": null, "Ruta": 19 }, "geometry": { "type": "Point", "coordinates": [ -64.03390293, -31.37660209 ] } },
{ "type": "Feature", "properties": { "Name": "323", "P.K.": "PK323", "Al.Dist. Izq.": null, "Al.Dist. Der.": null, "Ruta": 19 }, "geometry": { "type": "Point", "coordinates": [ -64.03594009, -31.37701277 ] } },
{ "type": "Feature", "properties": { "Name": "323.38", "P.K.": null, "Al.Dist. Izq.": null, "Al.Dist. Der.": null, "Ruta": 19 }, "geometry": { "type": "Point", "coordinates": [ -64.03975136, -31.37804946 ] } },
{ "type": "Feature", "properties": { "Name": "323.42", "P.K.": null, "Al.Dist. Izq.": null, "Al.Dist. Der.": null, "Ruta": 19 }, "geometry": { "type": "Point", "coordinates": [ -64.04015154, -31.37816253 ] } },
{ "type": "Feature", "properties": { "Name": "323.45", "P.K.": null, "Al.Dist. Izq.": null, "Al.Dist. Der.": null, "Ruta": 19 }, "geometry": { "type": "Point", "coordinates": [ -64.04045167, -31.37824733 ] } },
{ "type": "Feature", "properties": { "Name": "323.5", "P.K.": null, "Al.Dist. Izq.": null, "Al.Dist. Der.": null, "Ruta": 19 }, "geometry": { "type": "Point", "coordinates": [ -64.04095189, -31.37838866 ] } },
{ "type": "Feature", "properties": { "Name": "323.55", "P.K.": null, "Al.Dist. Izq.": null, "Al.Dist. Der.": null, "Ruta": 19 }, "geometry": { "type": "Point", "coordinates": [ -64.04145166, -31.37853161 ] } },
{ "type": "Feature", "properties": { "Name": "323.59", "P.K.": null, "Al.Dist. Izq.": null, "Al.Dist. Der.": null, "Ruta": 19 }, "geometry": { "type": "Point", "coordinates": [ -64.04184647, -31.37866155 ] } },
{ "type": "Feature", "properties": { "Name": "323.85", "P.K.": null, "Al.Dist. Izq.": null, "Al.Dist. Der.": null, "Ruta": 19 }, "geometry": { "type": "Point", "coordinates": [ -64.04439611, -31.37955429 ] } },
{ "type": "Feature", "properties": { "Name": "324", "P.K.": "PK324", "Al.Dist. Izq.": null, "Al.Dist. Der.": null, "Ruta": 19 }, "geometry": { "type": "Point", "coordinates": [ -64.04589699, -31.37997753 ] } },
{ "type": "Feature", "properties": { "Name": "324.15", "P.K.": null, "Al.Dist. Izq.": null, "Al.Dist. Der.": null, "Ruta": 19 }, "geometry": { "type": "Point", "coordinates": [ -64.04739787, -31.38040077 ] } },
{ "type": "Feature", "properties": { "Name": "324.42", "P.K.": null, "Al.Dist. Izq.": null, "Al.Dist. Der.": null, "Ruta": 19 }, "geometry": { "type": "Point", "coordinates": [ -64.05009945, -31.38116261 ] } },
{ "type": "Feature", "properties": { "Name": "324.49", "P.K.": null, "Al.Dist. Izq.": null, "Al.Dist. Der.": null, "Ruta": 19 }, "geometry": { "type": "Point", "coordinates": [ -64.05080206, -31.38135202 ] } },
{ "type": "Feature", "properties": { "Name": "324.51", "P.K.": null, "Al.Dist. Izq.": null, "Al.Dist. Der.": null, "Ruta": 19 }, "geometry": { "type": "Point", "coordinates": [ -64.05100317, -31.38140481 ] } },
{ "type": "Feature", "properties": { "Name": "324.69", "P.K.": null, "Al.Dist. Izq.": null, "Al.Dist. Der.": null, "Ruta": 19 }, "geometry": { "type": "Point", "coordinates": [ -64.05283804, -31.38177026 ] } },
{ "type": "Feature", "properties": { "Name": "324.84", "P.K.": null, "Al.Dist. Izq.": null, "Al.Dist. Der.": null, "Ruta": 19 }, "geometry": { "type": "Point", "coordinates": [ -64.05435475, -31.38212794 ] } },
{ "type": "Feature", "properties": { "Name": "324.98", "P.K.": null, "Al.Dist. Izq.": null, "Al.Dist. Der.": null, "Ruta": 19 }, "geometry": { "type": "Point", "coordinates": [ -64.05575278, -31.38253247 ] } },
{ "type": "Feature", "properties": { "Name": "325", "P.K.": "PK325", "Al.Dist. Izq.": null, "Al.Dist. Der.": null, "Ruta": 19 }, "geometry": { "type": "Point", "coordinates": [ -64.05595339, -31.38258714 ] } },
{ "type": "Feature", "properties": { "Name": "325.01", "P.K.": null, "Al.Dist. Izq.": null, "Al.Dist. Der.": null, "Ruta": 19 }, "geometry": { "type": "Point", "coordinates": [ -64.05605369, -31.38261448 ] } },
{ "type": "Feature", "properties": { "Name": "325.03", "P.K.": null, "Al.Dist. Izq.": null, "Al.Dist. Der.": null, "Ruta": 19 }, "geometry": { "type": "Point", "coordinates": [ -64.0562543, -31.38266914 ] } },
{ "type": "Feature", "properties": { "Name": "325.05", "P.K.": null, "Al.Dist. Izq.": null, "Al.Dist. Der.": null, "Ruta": 19 }, "geometry": { "type": "Point", "coordinates": [ -64.0565, -31.3827 ] } },
{ "type": "Feature", "properties": { "Name": "325.05", "P.K.": null, "Al.Dist. Izq.": null, "Al.Dist. Der.": null, "Ruta": 19 }, "geometry": { "type": "Point", "coordinates": [ -64.0565, -31.3827 ] } },
{ "type": "Feature", "properties": { "Name": "325.11", "P.K.": null, "Al.Dist. Izq.": null, "Al.Dist. Der.": null, "Ruta": 19 }, "geometry": { "type": "Point", "coordinates": [ -64.05705558, -31.38289185 ] } },
{ "type": "Feature", "properties": { "Name": "325.12", "P.K.": null, "Al.Dist. Izq.": null, "Al.Dist. Der.": null, "Ruta": 19 }, "geometry": { "type": "Point", "coordinates": [ -64.05715542, -31.38292085 ] } },
{ "type": "Feature", "properties": { "Name": "325.24", "P.K.": null, "Al.Dist. Izq.": null, "Al.Dist. Der.": null, "Ruta": 19 }, "geometry": { "type": "Point", "coordinates": [ -64.05833378, -31.38332781 ] } },
{ "type": "Feature", "properties": { "Name": "325.28", "P.K.": null, "Al.Dist. Izq.": null, "Al.Dist. Der.": null, "Ruta": 19 }, "geometry": { "type": "Point", "coordinates": [ -64.05871935, -31.38348356 ] } },
{ "type": "Feature", "properties": { "Name": "325.38", "P.K.": null, "Al.Dist. Izq.": null, "Al.Dist. Der.": null, "Ruta": 19 }, "geometry": { "type": "Point", "coordinates": [ -64.0597, -31.3838 ] } },
{ "type": "Feature", "properties": { "Name": "325.4", "P.K.": null, "Al.Dist. Izq.": null, "Al.Dist. Der.": null, "Ruta": 19 }, "geometry": { "type": "Point", "coordinates": [ -64.05989308, -31.38390548 ] } },
{ "type": "Feature", "properties": { "Name": "325.52", "P.K.": null, "Al.Dist. Izq.": null, "Al.Dist. Der.": null, "Ruta": 19 }, "geometry": { "type": "Point", "coordinates": [ -64.06108529, -31.38427133 ] } },
{ "type": "Feature", "properties": { "Name": "325.53", "P.K.": null, "Al.Dist. Izq.": null, "Al.Dist. Der.": null, "Ruta": 19 }, "geometry": { "type": "Point", "coordinates": [ -64.06118533, -31.3842996 ] } },
{ "type": "Feature", "properties": { "Name": "325.59", "P.K.": null, "Al.Dist. Izq.": null, "Al.Dist. Der.": null, "Ruta": 19 }, "geometry": { "type": "Point", "coordinates": [ -64.0617856, -31.38446919 ] } },
{ "type": "Feature", "properties": { "Name": "325.66", "P.K.": null, "Al.Dist. Izq.": null, "Al.Dist. Der.": null, "Ruta": 19 }, "geometry": { "type": "Point", "coordinates": [ -64.06248591, -31.38466706 ] } },
{ "type": "Feature", "properties": { "Name": "325.73", "P.K.": null, "Al.Dist. Izq.": null, "Al.Dist. Der.": null, "Ruta": 19 }, "geometry": { "type": "Point", "coordinates": [ -64.06318622, -31.38486492 ] } },
{ "type": "Feature", "properties": { "Name": "325.8", "P.K.": null, "Al.Dist. Izq.": null, "Al.Dist. Der.": null, "Ruta": 19 }, "geometry": { "type": "Point", "coordinates": [ -64.06388653, -31.38506278 ] } },
{ "type": "Feature", "properties": { "Name": "326", "P.K.": "PK326", "Al.Dist. Izq.": null, "Al.Dist. Der.": null, "Ruta": 19 }, "geometry": { "type": "Point", "coordinates": [ -64.06588742, -31.3856281 ] } },
{ "type": "Feature", "properties": { "Name": "326.77", "P.K.": null, "Al.Dist. Izq.": null, "Al.Dist. Der.": null, "Ruta": 19 }, "geometry": { "type": "Point", "coordinates": [ -64.07359248, -31.38779879 ] } },
{ "type": "Feature", "properties": { "Name": "326.83", "P.K.": null, "Al.Dist. Izq.": null, "Al.Dist. Der.": null, "Ruta": 19 }, "geometry": { "type": "Point", "coordinates": [ -64.07419287, -31.38796794 ] } },
{ "type": "Feature", "properties": { "Name": "327", "P.K.": "PK327", "Al.Dist. Izq.": null, "Al.Dist. Der.": null, "Ruta": 19 }, "geometry": { "type": "Point", "coordinates": [ -64.07589437, -31.3884458 ] } },
{ "type": "Feature", "properties": { "Name": "327.23", "P.K.": null, "Al.Dist. Izq.": null, "Al.Dist. Der.": null, "Ruta": 19 }, "geometry": { "type": "Point", "coordinates": [ -64.07819666, -31.38909144 ] } },
{ "type": "Feature", "properties": { "Name": "327.3", "P.K.": null, "Al.Dist. Izq.": null, "Al.Dist. Der.": null, "Ruta": 19 }, "geometry": { "type": "Point", "coordinates": [ -64.07890038, -31.38927634 ] } },
{ "type": "Feature", "properties": { "Name": "327.32", "P.K.": null, "Al.Dist. Izq.": null, "Al.Dist. Der.": null, "Ruta": 19 }, "geometry": { "type": "Point", "coordinates": [ -64.07910247, -31.38932521 ] } },
{ "type": "Feature", "properties": { "Name": "327.33", "P.K.": null, "Al.Dist. Izq.": null, "Al.Dist. Der.": null, "Ruta": 19 }, "geometry": { "type": "Point", "coordinates": [ -64.07920352, -31.38934965 ] } },
{ "type": "Feature", "properties": { "Name": "327.5", "P.K.": null, "Al.Dist. Izq.": null, "Al.Dist. Der.": null, "Ruta": 19 }, "geometry": { "type": "Point", "coordinates": [ -64.08092306, -31.38975649 ] } },
{ "type": "Feature", "properties": { "Name": "327.58", "P.K.": null, "Al.Dist. Izq.": null, "Al.Dist. Der.": null, "Ruta": 19 }, "geometry": { "type": "Point", "coordinates": [ -64.08172471, -31.38997788 ] } },
{ "type": "Feature", "properties": { "Name": "327.59", "P.K.": null, "Al.Dist. Izq.": null, "Al.Dist. Der.": null, "Ruta": 19 }, "geometry": { "type": "Point", "coordinates": [ -64.08182465, -31.39000651 ] } },
{ "type": "Feature", "properties": { "Name": "327.65", "P.K.": null, "Al.Dist. Izq.": null, "Al.Dist. Der.": null, "Ruta": 19 }, "geometry": { "type": "Point", "coordinates": [ -64.08242432, -31.39017819 ] } },
{ "type": "Feature", "properties": { "Name": "327.7", "P.K.": null, "Al.Dist. Izq.": null, "Al.Dist. Der.": null, "Ruta": 19 }, "geometry": { "type": "Point", "coordinates": [ -64.08293431, -31.39031634 ] } },
{ "type": "Feature", "properties": { "Name": "327.87", "P.K.": null, "Al.Dist. Izq.": null, "Al.Dist. Der.": null, "Ruta": 19 }, "geometry": { "type": "Point", "coordinates": [ -64.08466583, -31.39079494 ] } },
{ "type": "Feature", "properties": { "Name": "328", "P.K.": "PK328", "Al.Dist. Izq.": null, "Al.Dist. Der.": null, "Ruta": 19 }, "geometry": { "type": "Point", "coordinates": [ -64.08598633, -31.39117374 ] } },
{ "type": "Feature", "properties": { "Name": "328.23", "P.K.": null, "Al.Dist. Izq.": null, "Al.Dist. Der.": null, "Ruta": 19 }, "geometry": { "type": "Point", "coordinates": [ -64.08812453, -31.39176764 ] } },
{ "type": "Feature", "properties": { "Name": "328.48", "P.K.": null, "Al.Dist. Izq.": null, "Al.Dist. Der.": null, "Ruta": 19 }, "geometry": { "type": "Point", "coordinates": [ -64.09032791, -31.39250765 ] } },
{ "type": "Feature", "properties": { "Name": "328.6", "P.K.": null, "Al.Dist. Izq.": null, "Al.Dist. Der.": null, "Ruta": 19 }, "geometry": { "type": "Point", "coordinates": [ -64.09144574, -31.39282651 ] } },
{ "type": "Feature", "properties": { "Name": "328.74", "P.K.": null, "Al.Dist. Izq.": null, "Al.Dist. Der.": null, "Ruta": 19 }, "geometry": { "type": "Point", "coordinates": [ -64.09276681, -31.39320336 ] } },
{ "type": "Feature", "properties": { "Name": "329", "P.K.": "PK329", "Al.Dist. Izq.": null, "Al.Dist. Der.": null, "Ruta": 19 }, "geometry": { "type": "Point", "coordinates": [ -64.09601496, -31.3941182 ] } },
{ "type": "Feature", "properties": { "Name": "329.03", "P.K.": null, "Al.Dist. Izq.": null, "Al.Dist. Der.": null, "Ruta": 19 }, "geometry": { "type": "Point", "coordinates": [ -64.09631053, -31.39420035 ] } },
{ "type": "Feature", "properties": { "Name": "329.07", "P.K.": null, "Al.Dist. Izq.": null, "Al.Dist. Der.": null, "Ruta": 19 }, "geometry": { "type": "Point", "coordinates": [ -64.09670462, -31.3943099 ] } },
{ "type": "Feature", "properties": { "Name": "329.36", "P.K.": null, "Al.Dist. Izq.": null, "Al.Dist. Der.": null, "Ruta": 19 }, "geometry": { "type": "Point", "coordinates": [ -64.09955415, -31.39513078 ] } },
{ "type": "Feature", "properties": { "Name": "329.38", "P.K.": null, "Al.Dist. Izq.": null, "Al.Dist. Der.": null, "Ruta": 19 }, "geometry": { "type": "Point", "coordinates": [ -64.09975102, -31.39518617 ] } },
{ "type": "Feature", "properties": { "Name": "329.51", "P.K.": null, "Al.Dist. Izq.": null, "Al.Dist. Der.": null, "Ruta": 19 }, "geometry": { "type": "Point", "coordinates": [ -64.10103178, -31.39554237 ] } },
{ "type": "Feature", "properties": { "Name": "329.64", "P.K.": null, "Al.Dist. Izq.": null, "Al.Dist. Der.": null, "Ruta": 19 }, "geometry": { "type": "Point", "coordinates": [ -64.10231504, -31.39588932 ] } },
{ "type": "Feature", "properties": { "Name": "329.7", "P.K.": null, "Al.Dist. Izq.": null, "Al.Dist. Der.": null, "Ruta": 19 }, "geometry": { "type": "Point", "coordinates": [ -64.10291341, -31.39602369 ] } },
{ "type": "Feature", "properties": { "Name": "329.8", "P.K.": null, "Al.Dist. Izq.": null, "Al.Dist. Der.": null, "Ruta": 19 }, "geometry": { "type": "Point", "coordinates": [ -64.103475, -31.396204 ] } },
{ "type": "Feature", "properties": { "Name": "329.8", "P.K.": null, "Al.Dist. Izq.": null, "Al.Dist. Der.": null, "Ruta": 19 }, "geometry": { "type": "Point", "coordinates": [ -64.103475, -31.396204 ] } },
{ "type": "Feature", "properties": { "Name": "329.85", "P.K.": null, "Al.Dist. Izq.": null, "Al.Dist. Der.": null, "Ruta": 19 }, "geometry": { "type": "Point", "coordinates": [ -64.10442506, -31.3962817 ] } },
{ "type": "Feature", "properties": { "Name": "329.95", "P.K.": null, "Al.Dist. Izq.": null, "Al.Dist. Der.": null, "Ruta": 19 }, "geometry": { "type": "Point", "coordinates": [ -64.10544265, -31.39637948 ] } },
{ "type": "Feature", "properties": { "Name": "330", "P.K.": "PK330", "Al.Dist. Izq.": null, "Al.Dist. Der.": null, "Ruta": 19 }, "geometry": { "type": "Point", "coordinates": [ -64.10595232, -31.39642027 ] } },
{ "type": "Feature", "properties": { "Name": "330.35", "P.K.": null, "Al.Dist. Izq.": null, "Al.Dist. Der.": null, "Ruta": 19 }, "geometry": { "type": "Point", "coordinates": [ -64.10931881, -31.39664532 ] } },
{ "type": "Feature", "properties": { "Name": "330.53", "P.K.": null, "Al.Dist. Izq.": null, "Al.Dist. Der.": null, "Ruta": 19 }, "geometry": { "type": "Point", "coordinates": [ -64.11105712, -31.39666239 ] } },
{ "type": "Feature", "properties": { "Name": "330.53", "P.K.": null, "Al.Dist. Izq.": null, "Al.Dist. Der.": null, "Ruta": 19 }, "geometry": { "type": "Point", "coordinates": [ -64.11105712, -31.39666239 ] } },
{ "type": "Feature", "properties": { "Name": "330.55", "P.K.": null, "Al.Dist. Izq.": null, "Al.Dist. Der.": null, "Ruta": 19 }, "geometry": { "type": "Point", "coordinates": [ -64.11126163, -31.39666472 ] } },
{ "type": "Feature", "properties": { "Name": "330.6", "P.K.": null, "Al.Dist. Izq.": null, "Al.Dist. Der.": null, "Ruta": 19 }, "geometry": { "type": "Point", "coordinates": [ -64.11177289, -31.39667053 ] } },
{ "type": "Feature", "properties": { "Name": "330.69", "P.K.": null, "Al.Dist. Izq.": null, "Al.Dist. Der.": null, "Ruta": 19 }, "geometry": { "type": "Point", "coordinates": [ -64.1127, -31.3967 ] } },
{ "type": "Feature", "properties": { "Name": "330.69", "P.K.": null, "Al.Dist. Izq.": null, "Al.Dist. Der.": null, "Ruta": 19 }, "geometry": { "type": "Point", "coordinates": [ -64.11269271, -31.39669804 ] } },
{ "type": "Feature", "properties": { "Name": "330.72", "P.K.": null, "Al.Dist. Izq.": null, "Al.Dist. Der.": null, "Ruta": 19 }, "geometry": { "type": "Point", "coordinates": [ -64.11289877, -31.39671909 ] } },
{ "type": "Feature", "properties": { "Name": "330.77", "P.K.": null, "Al.Dist. Izq.": null, "Al.Dist. Der.": null, "Ruta": 19 }, "geometry": { "type": "Point", "coordinates": [ -64.11341202, -31.39678655 ] } },
{ "type": "Feature", "properties": { "Name": "330.85", "P.K.": null, "Al.Dist. Izq.": null, "Al.Dist. Der.": null, "Ruta": 19 }, "geometry": { "type": "Point", "coordinates": [ -64.11422853, -31.39692685 ] } },
{ "type": "Feature", "properties": { "Name": "330.85", "P.K.": null, "Al.Dist. Izq.": null, "Al.Dist. Der.": null, "Ruta": 19 }, "geometry": { "type": "Point", "coordinates": [ -64.11422853, -31.39692685 ] } },
{ "type": "Feature", "properties": { "Name": "331", "P.K.": "PK331", "Al.Dist. Izq.": null, "Al.Dist. Der.": null, "Ruta": 19 }, "geometry": { "type": "Point", "coordinates": [ -64.11617188, -31.39723533 ] } },
{ "type": "Feature", "properties": { "Name": "331.23", "P.K.": null, "Al.Dist. Izq.": null, "Al.Dist. Der.": null, "Ruta": 19 }, "geometry": { "type": "Point", "coordinates": [ -64.11854089, -31.39747582 ] } },
{ "type": "Feature", "properties": { "Name": "331.36", "P.K.": null, "Al.Dist. Izq.": null, "Al.Dist. Der.": null, "Ruta": 19 }, "geometry": { "type": "Point", "coordinates": [ -64.11988281, -31.39758533 ] } },
{ "type": "Feature", "properties": { "Name": "331.36", "P.K.": null, "Al.Dist. Izq.": null, "Al.Dist. Der.": null, "Ruta": 19 }, "geometry": { "type": "Point", "coordinates": [ -64.11988281, -31.39758533 ] } },
{ "type": "Feature", "properties": { "Name": "331.39", "P.K.": null, "Al.Dist. Izq.": null, "Al.Dist. Der.": null, "Ruta": 19 }, "geometry": { "type": "Point", "coordinates": [ -64.12019242, -31.39761143 ] } },
{ "type": "Feature", "properties": { "Name": "331.56", "P.K.": null, "Al.Dist. Izq.": null, "Al.Dist. Der.": null, "Ruta": 19 }, "geometry": { "type": "Point", "coordinates": [ -64.12194862, -31.39772669 ] } },
{ "type": "Feature", "properties": { "Name": "331.56", "P.K.": null, "Al.Dist. Izq.": null, "Al.Dist. Der.": null, "Ruta": 19 }, "geometry": { "type": "Point", "coordinates": [ -64.12194862, -31.39772669 ] } },
{ "type": "Feature", "properties": { "Name": "331.65", "P.K.": null, "Al.Dist. Izq.": null, "Al.Dist. Der.": null, "Ruta": 19 }, "geometry": { "type": "Point", "coordinates": [ -64.12287052, -31.39760693 ] } },
{ "type": "Feature", "properties": { "Name": "331.7", "P.K.": null, "Al.Dist. Izq.": null, "Al.Dist. Der.": null, "Ruta": 19 }, "geometry": { "type": "Point", "coordinates": [ -64.1234, -31.3977 ] } },
{ "type": "Feature", "properties": { "Name": "331.79", "P.K.": null, "Al.Dist. Izq.": null, "Al.Dist. Der.": null, "Ruta": 19 }, "geometry": { "type": "Point", "coordinates": [ -64.12429203, -31.39784042 ] } },
{ "type": "Feature", "properties": { "Name": "331.83", "P.K.": null, "Al.Dist. Izq.": null, "Al.Dist. Der.": null, "Ruta": 19 }, "geometry": { "type": "Point", "coordinates": [ -64.12470577, -31.39782106 ] } },
{ "type": "Feature", "properties": { "Name": "332.1", "P.K.": null, "Al.Dist. Izq.": null, "Al.Dist. Der.": null, "Ruta": 19 }, "geometry": { "type": "Point", "coordinates": [ -64.12749714, -31.39765435 ] } },
{ "type": "Feature", "properties": { "Name": "332.11", "P.K.": null, "Al.Dist. Izq.": null, "Al.Dist. Der.": null, "Ruta": 19 }, "geometry": { "type": "Point", "coordinates": [ -64.1276, -31.3976 ] } },
{ "type": "Feature", "properties": { "Name": "332.11", "P.K.": null, "Al.Dist. Izq.": null, "Al.Dist. Der.": null, "Ruta": 19 }, "geometry": { "type": "Point", "coordinates": [ -64.1276, -31.3976 ] } },
{ "type": "Feature", "properties": { "Name": "332.11", "P.K.": null, "Al.Dist. Izq.": null, "Al.Dist. Der.": null, "Ruta": 19 }, "geometry": { "type": "Point", "coordinates": [ -64.1276, -31.3976 ] } },
{ "type": "Feature", "properties": { "Name": "332.16", "P.K.": null, "Al.Dist. Izq.": null, "Al.Dist. Der.": null, "Ruta": 19 }, "geometry": { "type": "Point", "coordinates": [ -64.12810845, -31.39762054 ] } },
{ "type": "Feature", "properties": { "Name": "332.39", "P.K.": null, "Al.Dist. Izq.": null, "Al.Dist. Der.": null, "Ruta": 19 }, "geometry": { "type": "Point", "coordinates": [ -64.13044307, -31.39768558 ] } },
{ "type": "Feature", "properties": { "Name": "332.51", "P.K.": null, "Al.Dist. Izq.": null, "Al.Dist. Der.": null, "Ruta": 19 }, "geometry": { "type": "Point", "coordinates": [ -64.13165666, -31.39781821 ] } },
{ "type": "Feature", "properties": { "Name": "332.74", "P.K.": null, "Al.Dist. Izq.": null, "Al.Dist. Der.": null, "Ruta": 19 }, "geometry": { "type": "Point", "coordinates": [ -64.13398248, -31.39807448 ] } },
{ "type": "Feature", "properties": { "Name": "332.74", "P.K.": null, "Al.Dist. Izq.": null, "Al.Dist. Der.": null, "Ruta": 19 }, "geometry": { "type": "Point", "coordinates": [ -64.13398248, -31.39807448 ] } },
{ "type": "Feature", "properties": { "Name": "332.9", "P.K.": null, "Al.Dist. Izq.": null, "Al.Dist. Der.": null, "Ruta": 19 }, "geometry": { "type": "Point", "coordinates": [ -64.13560044, -31.39825281 ] } },
{ "type": "Feature", "properties": { "Name": "332.93", "P.K.": null, "Al.Dist. Izq.": null, "Al.Dist. Der.": null, "Ruta": 19 }, "geometry": { "type": "Point", "coordinates": [ -64.13590384, -31.39828597 ] } },
{ "type": "Feature", "properties": { "Name": "333.32", "P.K.": null, "Al.Dist. Izq.": null, "Al.Dist. Der.": null, "Ruta": 19 }, "geometry": { "type": "Point", "coordinates": [ -64.13984843, -31.39871316 ] } },
{ "type": "Feature", "properties": { "Name": "333.51", "P.K.": null, "Al.Dist. Izq.": null, "Al.Dist. Der.": null, "Ruta": 19 }, "geometry": { "type": "Point", "coordinates": [ -64.14176952, -31.39892694 ] } },
{ "type": "Feature", "properties": { "Name": "333.81", "P.K.": null, "Al.Dist. Izq.": null, "Al.Dist. Der.": null, "Ruta": 19 }, "geometry": { "type": "Point", "coordinates": [ -64.14473596, -31.39960992 ] } },
{ "type": "Feature", "properties": { "Name": "333.92", "P.K.": null, "Al.Dist. Izq.": null, "Al.Dist. Der.": null, "Ruta": 19 }, "geometry": { "type": "Point", "coordinates": [ -64.1457845, -31.40000095 ] } },
{ "type": "Feature", "properties": { "Name": "334.06", "P.K.": null, "Al.Dist. Izq.": null, "Al.Dist. Der.": null, "Ruta": 19 }, "geometry": { "type": "Point", "coordinates": [ -64.14712078, -31.40049386 ] } },
{ "type": "Feature", "properties": { "Name": "334.46", "P.K.": null, "Al.Dist. Izq.": null, "Al.Dist. Der.": null, "Ruta": 19 }, "geometry": { "type": "Point", "coordinates": [ -64.15093945, -31.40190016 ] } },
{ "type": "Feature", "properties": { "Name": "334.62", "P.K.": null, "Al.Dist. Izq.": null, "Al.Dist. Der.": null, "Ruta": 19 }, "geometry": { "type": "Point", "coordinates": [ -64.15247909, -31.40242493 ] } },
{ "type": "Feature", "properties": { "Name": "334.62", "P.K.": null, "Al.Dist. Izq.": null, "Al.Dist. Der.": null, "Ruta": 19 }, "geometry": { "type": "Point", "coordinates": [ -64.15247909, -31.40242493 ] } },
{ "type": "Feature", "properties": { "Name": "334.86", "P.K.": null, "Al.Dist. Izq.": null, "Al.Dist. Der.": null, "Ruta": 19 }, "geometry": { "type": "Point", "coordinates": [ -64.1549, -31.4027 ] } },
{ "type": "Feature", "properties": { "Name": "335.33", "P.K.": null, "Al.Dist. Izq.": null, "Al.Dist. Der.": null, "Ruta": 19 }, "geometry": { "type": "Point", "coordinates": [ -64.1595, -31.404 ] } },
{ "type": "Feature", "properties": { "Name": "335.8", "P.K.": null, "Al.Dist. Izq.": null, "Al.Dist. Der.": null, "Ruta": 19 }, "geometry": { "type": "Point", "coordinates": [ -64.1584, -31.4083 ] } },
{ "type": "Feature", "properties": { "Name": "337.17", "P.K.": null, "Al.Dist. Izq.": null, "Al.Dist. Der.": null, "Ruta": 19 }, "geometry": { "type": "Point", "coordinates": [ -64.1719, -31.4119 ] } }
]
}
