{
"type": "FeatureCollection",
"name": "MOJONES RN 020",
"features": [
{ "type": "Feature", "properties": { "Name": "0", "P.K.": null, "Al.Dist. Izq.": null, "Al.Dist. Der.": null, "Ruta": 20 }, "geometry": { "type": "Point", "coordinates": [ -64.182, -31.4219 ] } },
{ "type": "Feature", "properties": { "Name": "0.81", "P.K.": null, "Al.Dist. Izq.": null, "Al.Dist. Der.": null, "Ruta": 20 }, "geometry": { "type": "Point", "coordinates": [ -64.1888, -31.4201 ] } },
{ "type": "Feature", "properties": { "Name": "0.97", "P.K.": null, "Al.Dist. Izq.": null, "Al.Dist. Der.": null, "Ruta": 20 }, "geometry": { "type": "Point", "coordinates": [ -64.1900876, -31.4197479 ] } },
{ "type": "Feature", "properties": { "Name": "2.11", "P.K.": null, "Al.Dist. Izq.": null, "Al.Dist. Der.": null, "Ruta": 20 }, "geometry": { "type": "Point", "coordinates": [ -64.1945263, -31.4269197 ] } },
{ "type": "Feature", "properties": { "Name": "2.96", "P.K.": null, "Al.Dist. Izq.": null, "Al.Dist. Der.": null, "Ruta": 20 }, "geometry": { "type": "Point", "coordinates": [ -64.2016, -31.4288 ] } },
{ "type": "Feature", "properties": { "Name": "3.63", "P.K.": null, "Al.Dist. Izq.": null, "Al.Dist. Der.": null, "Ruta": 20 }, "geometry": { "type": "Point", "coordinates": [ -64.207261, -31.4277956 ] } },
{ "type": "Feature", "properties": { "Name": "3.8", "P.K.": null, "Al.Dist. Izq.": null, "Al.Dist. Der.": null, "Ruta": 20 }, "geometry": { "type": "Point", "coordinates": [ -64.2086804, -31.428028 ] } },
{ "type": "Feature", "properties": { "Name": "4.13", "P.K.": null, "Al.Dist. Izq.": null, "Al.Dist. Der.": null, "Ruta": 20 }, "geometry": { "type": "Point", "coordinates": [ -64.211, -31.429 ] } },
{ "type": "Feature", "properties": { "Name": "4.36", "P.K.": null, "Al.Dist. Izq.": null, "Al.Dist. Der.": null, "Ruta": 20 }, "geometry": { "type": "Point", "coordinates": [ -64.21271, -31.42987 ] } },
{ "type": "Feature", "properties": { "Name": "4.37", "P.K.": null, "Al.Dist. Izq.": null, "Al.Dist. Der.": null, "Ruta": 20 }, "geometry": { "type": "Point", "coordinates": [ -64.21279, -31.42994 ] } },
{ "type": "Feature", "properties": { "Name": "4.49", "P.K.": null, "Al.Dist. Izq.": null, "Al.Dist. Der.": null, "Ruta": 20 }, "geometry": { "type": "Point", "coordinates": [ -64.21366, -31.43039 ] } },
{ "type": "Feature", "properties": { "Name": "4.52", "P.K.": null, "Al.Dist. Izq.": null, "Al.Dist. Der.": null, "Ruta": 20 }, "geometry": { "type": "Point", "coordinates": [ -64.214, -31.4304 ] } },
{ "type": "Feature", "properties": { "Name": "4.8", "P.K.": null, "Al.Dist. Izq.": null, "Al.Dist. Der.": null, "Ruta": 20 }, "geometry": { "type": "Point", "coordinates": [ -64.2164, -31.4306 ] } },
{ "type": "Feature", "properties": { "Name": "5.16", "P.K.": null, "Al.Dist. Izq.": null, "Al.Dist. Der.": null, "Ruta": 20 }, "geometry": { "type": "Point", "coordinates": [ -64.2195, -31.4308 ] } },
{ "type": "Feature", "properties": { "Name": "5.79", "P.K.": null, "Al.Dist. Izq.": null, "Al.Dist. Der.": null, "Ruta": 20 }, "geometry": { "type": "Point", "coordinates": [ -64.225, -31.4312 ] } },
{ "type": "Feature", "properties": { "Name": "6.43", "P.K.": null, "Al.Dist. Izq.": null, "Al.Dist. Der.": null, "Ruta": 20 }, "geometry": { "type": "Point", "coordinates": [ -64.2305, -31.4316 ] } },
{ "type": "Feature", "properties": { "Name": "6.56", "P.K.": null, "Al.Dist. Izq.": null, "Al.Dist. Der.": null, "Ruta": 20 }, "geometry": { "type": "Point", "coordinates": [ -64.231735, -31.431656 ] } },
{ "type": "Feature", "properties": { "Name": "7.71", "P.K.": null, "Al.Dist. Izq.": null, "Al.Dist. Der.": null, "Ruta": 20 }, "geometry": { "type": "Point", "coordinates": [ -64.2418, -31.4323 ] } },
{ "type": "Feature", "properties": { "Name": "7.81", "P.K.": null, "Al.Dist. Izq.": null, "Al.Dist. Der.": null, "Ruta": 20 }, "geometry": { "type": "Point", "coordinates": [ -64.2426, -31.4323 ] } },
{ "type": "Feature", "properties": { "Name": "8.05", "P.K.": null, "Al.Dist. Izq.": null, "Al.Dist. Der.": null, "Ruta": 20 }, "geometry": { "type": "Point", "coordinates": [ -64.2447115, -31.4323934 ] } },
{ "type": "Feature", "properties": { "Name": "8.41", "P.K.": null, "Al.Dist. Izq.": null, "Al.Dist. Der.": null, "Ruta": 20 }, "geometry": { "type": "Point", "coordinates": [ -64.2478987, -31.4326343 ] } },
{ "type": "Feature", "properties": { "Name": "8.43", "P.K.": null, "Al.Dist. Izq.": null, "Al.Dist. Der.": null, "Ruta": 20 }, "geometry": { "type": "Point", "coordinates": [ -64.2481, -31.4327 ] } },
{ "type": "Feature", "properties": { "Name": "8.75", "P.K.": null, "Al.Dist. Izq.": null, "Al.Dist. Der.": null, "Ruta": 20 }, "geometry": { "type": "Point", "coordinates": [ -64.250732, -31.432946 ] } },
{ "type": "Feature", "properties": { "Name": "8.75", "P.K.": null, "Al.Dist. Izq.": null, "Al.Dist. Der.": null, "Ruta": 20 }, "geometry": { "type": "Point", "coordinates": [ -64.250777, -31.432839 ] } },
{ "type": "Feature", "properties": { "Name": "8.86", "P.K.": null, "Al.Dist. Izq.": null, "Al.Dist. Der.": null, "Ruta": 20 }, "geometry": { "type": "Point", "coordinates": [ -64.2517494, -31.4332934 ] } },
{ "type": "Feature", "properties": { "Name": "8.99", "P.K.": null, "Al.Dist. Izq.": null, "Al.Dist. Der.": null, "Ruta": 20 }, "geometry": { "type": "Point", "coordinates": [ -64.2529, -31.4331 ] } },
{ "type": "Feature", "properties": { "Name": "9", "P.K.": "PK9", "Al.Dist. Izq.": null, "Al.Dist. Der.": null, "Ruta": 20 }, "geometry": { "type": "Point", "coordinates": [ -64.2529956, -31.4331283 ] } },
{ "type": "Feature", "properties": { "Name": "9.03", "P.K.": null, "Al.Dist. Izq.": null, "Al.Dist. Der.": null, "Ruta": 20 }, "geometry": { "type": "Point", "coordinates": [ -64.2533387, -31.4332233 ] } },
{ "type": "Feature", "properties": { "Name": "9.05", "P.K.": null, "Al.Dist. Izq.": null, "Al.Dist. Der.": null, "Ruta": 20 }, "geometry": { "type": "Point", "coordinates": [ -64.2535268, -31.4329372 ] } },
{ "type": "Feature", "properties": { "Name": "9.09", "P.K.": null, "Al.Dist. Izq.": null, "Al.Dist. Der.": null, "Ruta": 20 }, "geometry": { "type": "Point", "coordinates": [ -64.253937, -31.4329412 ] } },
{ "type": "Feature", "properties": { "Name": "9.11", "P.K.": null, "Al.Dist. Izq.": null, "Al.Dist. Der.": null, "Ruta": 20 }, "geometry": { "type": "Point", "coordinates": [ -64.2541942, -31.4329911 ] } },
{ "type": "Feature", "properties": { "Name": "9.13", "P.K.": null, "Al.Dist. Izq.": null, "Al.Dist. Der.": null, "Ruta": 20 }, "geometry": { "type": "Point", "coordinates": [ -64.2543425, -31.4330565 ] } },
{ "type": "Feature", "properties": { "Name": "9.13", "P.K.": null, "Al.Dist. Izq.": null, "Al.Dist. Der.": null, "Ruta": 20 }, "geometry": { "type": "Point", "coordinates": [ -64.2543253, -31.4329678 ] } },
{ "type": "Feature", "properties": { "Name": "9.32", "P.K.": null, "Al.Dist. Izq.": null, "Al.Dist. Der.": null, "Ruta": 20 }, "geometry": { "type": "Point", "coordinates": [ -64.2563014, -31.4330753 ] } },
{ "type": "Feature", "properties": { "Name": "9.38", "P.K.": null, "Al.Dist. Izq.": null, "Al.Dist. Der.": null, "Ruta": 20 }, "geometry": { "type": "Point", "coordinates": [ -64.2569782, -31.4331585 ] } },
{ "type": "Feature", "properties": { "Name": "9.38", "P.K.": null, "Al.Dist. Izq.": null, "Al.Dist. Der.": null, "Ruta": 20 }, "geometry": { "type": "Point", "coordinates": [ -64.2569292, -31.4331576 ] } },
{ "type": "Feature", "properties": { "Name": "9.47", "P.K.": null, "Al.Dist. Izq.": null, "Al.Dist. Der.": null, "Ruta": 20 }, "geometry": { "type": "Point", "coordinates": [ -64.2579542, -31.4332102 ] } },
{ "type": "Feature", "properties": { "Name": "9.48", "P.K.": null, "Al.Dist. Izq.": null, "Al.Dist. Der.": null, "Ruta": 20 }, "geometry": { "type": "Point", "coordinates": [ -64.2579833, -31.4331666 ] } },
{ "type": "Feature", "properties": { "Name": "9.5", "P.K.": null, "Al.Dist. Izq.": null, "Al.Dist. Der.": null, "Ruta": 20 }, "geometry": { "type": "Point", "coordinates": [ -64.258225, -31.4333559 ] } },
{ "type": "Feature", "properties": { "Name": "9.59", "P.K.": null, "Al.Dist. Izq.": null, "Al.Dist. Der.": null, "Ruta": 20 }, "geometry": { "type": "Point", "coordinates": [ -64.2591922, -31.4332617 ] } },
{ "type": "Feature", "properties": { "Name": "9.62", "P.K.": null, "Al.Dist. Izq.": null, "Al.Dist. Der.": null, "Ruta": 20 }, "geometry": { "type": "Point", "coordinates": [ -64.2595326, -31.4333369 ] } },
{ "type": "Feature", "properties": { "Name": "9.71", "P.K.": null, "Al.Dist. Izq.": null, "Al.Dist. Der.": null, "Ruta": 20 }, "geometry": { "type": "Point", "coordinates": [ -64.2604069, -31.4333732 ] } },
{ "type": "Feature", "properties": { "Name": "9.74", "P.K.": null, "Al.Dist. Izq.": null, "Al.Dist. Der.": null, "Ruta": 20 }, "geometry": { "type": "Point", "coordinates": [ -64.260733, -31.43336 ] } },
{ "type": "Feature", "properties": { "Name": "9.81", "P.K.": null, "Al.Dist. Izq.": null, "Al.Dist. Der.": null, "Ruta": 20 }, "geometry": { "type": "Point", "coordinates": [ -64.26145, -31.433674 ] } },
{ "type": "Feature", "properties": { "Name": "9.84", "P.K.": null, "Al.Dist. Izq.": null, "Al.Dist. Der.": null, "Ruta": 20 }, "geometry": { "type": "Point", "coordinates": [ -64.2618259, -31.4334613 ] } },
{ "type": "Feature", "properties": { "Name": "9.87", "P.K.": null, "Al.Dist. Izq.": null, "Al.Dist. Der.": null, "Ruta": 20 }, "geometry": { "type": "Point", "coordinates": [ -64.262057, -31.4336763 ] } },
{ "type": "Feature", "properties": { "Name": "9.97", "P.K.": null, "Al.Dist. Izq.": null, "Al.Dist. Der.": null, "Ruta": 20 }, "geometry": { "type": "Point", "coordinates": [ -64.2631172, -31.4337897 ] } },
{ "type": "Feature", "properties": { "Name": "9.98", "P.K.": null, "Al.Dist. Izq.": null, "Al.Dist. Der.": null, "Ruta": 20 }, "geometry": { "type": "Point", "coordinates": [ -64.263308, -31.4335389 ] } },
{ "type": "Feature", "properties": { "Name": "10.04", "P.K.": null, "Al.Dist. Izq.": null, "Al.Dist. Der.": null, "Ruta": 20 }, "geometry": { "type": "Point", "coordinates": [ -64.2638714, -31.433869 ] } },
{ "type": "Feature", "properties": { "Name": "10.39", "P.K.": null, "Al.Dist. Izq.": null, "Al.Dist. Der.": null, "Ruta": 20 }, "geometry": { "type": "Point", "coordinates": [ -64.2675294, -31.4339538 ] } },
{ "type": "Feature", "properties": { "Name": "10.4", "P.K.": null, "Al.Dist. Izq.": null, "Al.Dist. Der.": null, "Ruta": 20 }, "geometry": { "type": "Point", "coordinates": [ -64.2676478, -31.4339571 ] } },
{ "type": "Feature", "properties": { "Name": "10.53", "P.K.": null, "Al.Dist. Izq.": null, "Al.Dist. Der.": null, "Ruta": 20 }, "geometry": { "type": "Point", "coordinates": [ -64.2690742, -31.4339592 ] } },
{ "type": "Feature", "properties": { "Name": "10.83", "P.K.": null, "Al.Dist. Izq.": null, "Al.Dist. Der.": null, "Ruta": 20 }, "geometry": { "type": "Point", "coordinates": [ -64.2721776, -31.4341348 ] } },
{ "type": "Feature", "properties": { "Name": "11", "P.K.": "PK11", "Al.Dist. Izq.": null, "Al.Dist. Der.": null, "Ruta": 20 }, "geometry": { "type": "Point", "coordinates": [ -64.2739798, -31.4342008 ] } },
{ "type": "Feature", "properties": { "Name": "11.02", "P.K.": null, "Al.Dist. Izq.": null, "Al.Dist. Der.": null, "Ruta": 20 }, "geometry": { "type": "Point", "coordinates": [ -64.2742104, -31.4344689 ] } },
{ "type": "Feature", "properties": { "Name": "11.05", "P.K.": null, "Al.Dist. Izq.": null, "Al.Dist. Der.": null, "Ruta": 20 }, "geometry": { "type": "Point", "coordinates": [ -64.2746, -31.4343 ] } },
{ "type": "Feature", "properties": { "Name": "11.08", "P.K.": null, "Al.Dist. Izq.": null, "Al.Dist. Der.": null, "Ruta": 20 }, "geometry": { "type": "Point", "coordinates": [ -64.2749322, -31.434526 ] } },
{ "type": "Feature", "properties": { "Name": "11.1", "P.K.": null, "Al.Dist. Izq.": null, "Al.Dist. Der.": null, "Ruta": 20 }, "geometry": { "type": "Point", "coordinates": [ -64.2752333, -31.4343991 ] } },
{ "type": "Feature", "properties": { "Name": "11.1", "P.K.": null, "Al.Dist. Izq.": null, "Al.Dist. Der.": null, "Ruta": 20 }, "geometry": { "type": "Point", "coordinates": [ -64.275252, -31.4342793 ] } },
{ "type": "Feature", "properties": { "Name": "11.15", "P.K.": null, "Al.Dist. Izq.": null, "Al.Dist. Der.": null, "Ruta": 20 }, "geometry": { "type": "Point", "coordinates": [ -64.2757872, -31.4345633 ] } },
{ "type": "Feature", "properties": { "Name": "11.16", "P.K.": null, "Al.Dist. Izq.": null, "Al.Dist. Der.": null, "Ruta": 20 }, "geometry": { "type": "Point", "coordinates": [ -64.2759094, -31.4344349 ] } },
{ "type": "Feature", "properties": { "Name": "11.17", "P.K.": null, "Al.Dist. Izq.": null, "Al.Dist. Der.": null, "Ruta": 20 }, "geometry": { "type": "Point", "coordinates": [ -64.2760291, -31.4344907 ] } },
{ "type": "Feature", "properties": { "Name": "11.23", "P.K.": null, "Al.Dist. Izq.": null, "Al.Dist. Der.": null, "Ruta": 20 }, "geometry": { "type": "Point", "coordinates": [ -64.2767649, -31.4345051 ] } },
{ "type": "Feature", "properties": { "Name": "11.23", "P.K.": null, "Al.Dist. Izq.": null, "Al.Dist. Der.": null, "Ruta": 20 }, "geometry": { "type": "Point", "coordinates": [ -64.2767653, -31.434503 ] } },
{ "type": "Feature", "properties": { "Name": "11.31", "P.K.": null, "Al.Dist. Izq.": null, "Al.Dist. Der.": null, "Ruta": 20 }, "geometry": { "type": "Point", "coordinates": [ -64.277702, -31.434564 ] } },
{ "type": "Feature", "properties": { "Name": "11.32", "P.K.": null, "Al.Dist. Izq.": null, "Al.Dist. Der.": null, "Ruta": 20 }, "geometry": { "type": "Point", "coordinates": [ -64.2778903, -31.4345784 ] } },
{ "type": "Feature", "properties": { "Name": "11.32", "P.K.": null, "Al.Dist. Izq.": null, "Al.Dist. Der.": null, "Ruta": 20 }, "geometry": { "type": "Point", "coordinates": [ -64.2778882, -31.4345826 ] } },
{ "type": "Feature", "properties": { "Name": "11.38", "P.K.": null, "Al.Dist. Izq.": null, "Al.Dist. Der.": null, "Ruta": 20 }, "geometry": { "type": "Point", "coordinates": [ -64.2786191, -31.4346021 ] } },
{ "type": "Feature", "properties": { "Name": "11.39", "P.K.": null, "Al.Dist. Izq.": null, "Al.Dist. Der.": null, "Ruta": 20 }, "geometry": { "type": "Point", "coordinates": [ -64.2786424, -31.4344758 ] } },
{ "type": "Feature", "properties": { "Name": "11.39", "P.K.": null, "Al.Dist. Izq.": null, "Al.Dist. Der.": null, "Ruta": 20 }, "geometry": { "type": "Point", "coordinates": [ -64.2787239, -31.4347556 ] } },
{ "type": "Feature", "properties": { "Name": "11.4", "P.K.": null, "Al.Dist. Izq.": null, "Al.Dist. Der.": null, "Ruta": 20 }, "geometry": { "type": "Point", "coordinates": [ -64.2787416, -31.4342579 ] } },
{ "type": "Feature", "properties": { "Name": "11.4", "P.K.": null, "Al.Dist. Izq.": null, "Al.Dist. Der.": null, "Ruta": 20 }, "geometry": { "type": "Point", "coordinates": [ -64.2788383, -31.4344524 ] } },
{ "type": "Feature", "properties": { "Name": "11.41", "P.K.": null, "Al.Dist. Izq.": null, "Al.Dist. Der.": null, "Ruta": 20 }, "geometry": { "type": "Point", "coordinates": [ -64.2791, -31.4346 ] } },
{ "type": "Feature", "properties": { "Name": "11.41", "P.K.": null, "Al.Dist. Izq.": null, "Al.Dist. Der.": null, "Ruta": 20 }, "geometry": { "type": "Point", "coordinates": [ -64.2791, -31.4346 ] } },
{ "type": "Feature", "properties": { "Name": "11.41", "P.K.": null, "Al.Dist. Izq.": null, "Al.Dist. Der.": null, "Ruta": 20 }, "geometry": { "type": "Point", "coordinates": [ -64.2788619, -31.4343651 ] } },
{ "type": "Feature", "properties": { "Name": "11.41", "P.K.": null, "Al.Dist. Izq.": null, "Al.Dist. Der.": null, "Ruta": 20 }, "geometry": { "type": "Point", "coordinates": [ -64.2786117, -31.4333983 ] } },
{ "type": "Feature", "properties": { "Name": "11.43", "P.K.": null, "Al.Dist. Izq.": null, "Al.Dist. Der.": null, "Ruta": 20 }, "geometry": { "type": "Point", "coordinates": [ -64.2791683, -31.4341638 ] } },
{ "type": "Feature", "properties": { "Name": "11.44", "P.K.": null, "Al.Dist. Izq.": null, "Al.Dist. Der.": null, "Ruta": 20 }, "geometry": { "type": "Point", "coordinates": [ -64.2795371, -31.4347906 ] } },
{ "type": "Feature", "properties": { "Name": "11.47", "P.K.": null, "Al.Dist. Izq.": null, "Al.Dist. Der.": null, "Ruta": 20 }, "geometry": { "type": "Point", "coordinates": [ -64.2799129, -31.4348514 ] } },
{ "type": "Feature", "properties": { "Name": "11.49", "P.K.": null, "Al.Dist. Izq.": null, "Al.Dist. Der.": null, "Ruta": 20 }, "geometry": { "type": "Point", "coordinates": [ -64.2801915, -31.43472 ] } },
{ "type": "Feature", "properties": { "Name": "11.54", "P.K.": null, "Al.Dist. Izq.": null, "Al.Dist. Der.": null, "Ruta": 20 }, "geometry": { "type": "Point", "coordinates": [ -64.2811042, -31.4347569 ] } },
{ "type": "Feature", "properties": { "Name": "11.55", "P.K.": null, "Al.Dist. Izq.": null, "Al.Dist. Der.": null, "Ruta": 20 }, "geometry": { "type": "Point", "coordinates": [ -64.2811773, -31.4347203 ] } },
{ "type": "Feature", "properties": { "Name": "11.58", "P.K.": null, "Al.Dist. Izq.": null, "Al.Dist. Der.": null, "Ruta": 20 }, "geometry": { "type": "Point", "coordinates": [ -64.2806903, -31.4334656 ] } },
{ "type": "Feature", "properties": { "Name": "11.58", "P.K.": null, "Al.Dist. Izq.": null, "Al.Dist. Der.": null, "Ruta": 20 }, "geometry": { "type": "Point", "coordinates": [ -64.2807243, -31.4334647 ] } },
{ "type": "Feature", "properties": { "Name": "11.58", "P.K.": null, "Al.Dist. Izq.": null, "Al.Dist. Der.": null, "Ruta": 20 }, "geometry": { "type": "Point", "coordinates": [ -64.2807354, -31.4334812 ] } },
{ "type": "Feature", "properties": { "Name": "11.65", "P.K.": null, "Al.Dist. Izq.": null, "Al.Dist. Der.": null, "Ruta": 20 }, "geometry": { "type": "Point", "coordinates": [ -64.281277, -31.4328698 ] } },
{ "type": "Feature", "properties": { "Name": "11.66", "P.K.": null, "Al.Dist. Izq.": null, "Al.Dist. Der.": null, "Ruta": 20 }, "geometry": { "type": "Point", "coordinates": [ -64.2829699, -31.4348524 ] } },
{ "type": "Feature", "properties": { "Name": "11.68", "P.K.": null, "Al.Dist. Izq.": null, "Al.Dist. Der.": null, "Ruta": 20 }, "geometry": { "type": "Point", "coordinates": [ -64.2816311, -31.4326556 ] } },
{ "type": "Feature", "properties": { "Name": "11.72", "P.K.": null, "Al.Dist. Izq.": null, "Al.Dist. Der.": null, "Ruta": 20 }, "geometry": { "type": "Point", "coordinates": [ -64.2819637, -31.4323998 ] } },
{ "type": "Feature", "properties": { "Name": "11.76", "P.K.": null, "Al.Dist. Izq.": null, "Al.Dist. Der.": null, "Ruta": 20 }, "geometry": { "type": "Point", "coordinates": [ -64.2822834, -31.4321886 ] } },
{ "type": "Feature", "properties": { "Name": "11.76", "P.K.": null, "Al.Dist. Izq.": null, "Al.Dist. Der.": null, "Ruta": 20 }, "geometry": { "type": "Point", "coordinates": [ -64.2822834, -31.4321886 ] } },
{ "type": "Feature", "properties": { "Name": "11.76", "P.K.": null, "Al.Dist. Izq.": null, "Al.Dist. Der.": null, "Ruta": 20 }, "geometry": { "type": "Point", "coordinates": [ -64.2822693, -31.4320624 ] } },
{ "type": "Feature", "properties": { "Name": "11.77", "P.K.": null, "Al.Dist. Izq.": null, "Al.Dist. Der.": null, "Ruta": 20 }, "geometry": { "type": "Point", "coordinates": [ -64.2823686, -31.4321306 ] } },
{ "type": "Feature", "properties": { "Name": "11.77", "P.K.": null, "Al.Dist. Izq.": null, "Al.Dist. Der.": null, "Ruta": 20 }, "geometry": { "type": "Point", "coordinates": [ -64.2823686, -31.4321306 ] } },
{ "type": "Feature", "properties": { "Name": "11.78", "P.K.": null, "Al.Dist. Izq.": null, "Al.Dist. Der.": null, "Ruta": 20 }, "geometry": { "type": "Point", "coordinates": [ -64.2825, -31.4321 ] } },
{ "type": "Feature", "properties": { "Name": "11.82", "P.K.": null, "Al.Dist. Izq.": null, "Al.Dist. Der.": null, "Ruta": 20 }, "geometry": { "type": "Point", "coordinates": [ -64.28289, -31.43183 ] } },
{ "type": "Feature", "properties": { "Name": "11.88", "P.K.": null, "Al.Dist. Izq.": null, "Al.Dist. Der.": null, "Ruta": 20 }, "geometry": { "type": "Point", "coordinates": [ -64.2834947, -31.43137 ] } },
{ "type": "Feature", "properties": { "Name": "12.13", "P.K.": null, "Al.Dist. Izq.": null, "Al.Dist. Der.": null, "Ruta": 20 }, "geometry": { "type": "Point", "coordinates": [ -64.28569, -31.43266 ] } },
{ "type": "Feature", "properties": { "Name": "12.15", "P.K.": null, "Al.Dist. Izq.": null, "Al.Dist. Der.": null, "Ruta": 20 }, "geometry": { "type": "Point", "coordinates": [ -64.28579, -31.432863 ] } },
{ "type": "Feature", "properties": { "Name": "12.16", "P.K.": null, "Al.Dist. Izq.": null, "Al.Dist. Der.": null, "Ruta": 20 }, "geometry": { "type": "Point", "coordinates": [ -64.28579, -31.43302 ] } },
{ "type": "Feature", "properties": { "Name": "12.21", "P.K.": null, "Al.Dist. Izq.": null, "Al.Dist. Der.": null, "Ruta": 20 }, "geometry": { "type": "Point", "coordinates": [ -64.2859735, -31.4334636 ] } },
{ "type": "Feature", "properties": { "Name": "12.23", "P.K.": null, "Al.Dist. Izq.": null, "Al.Dist. Der.": null, "Ruta": 20 }, "geometry": { "type": "Point", "coordinates": [ -64.2839692, -31.4349544 ] } },
{ "type": "Feature", "properties": { "Name": "12.37", "P.K.": null, "Al.Dist. Izq.": null, "Al.Dist. Der.": null, "Ruta": 20 }, "geometry": { "type": "Point", "coordinates": [ -64.2871335, -31.4351711 ] } },
{ "type": "Feature", "properties": { "Name": "12.4", "P.K.": null, "Al.Dist. Izq.": null, "Al.Dist. Der.": null, "Ruta": 20 }, "geometry": { "type": "Point", "coordinates": [ -64.2875807, -31.4346183 ] } },
{ "type": "Feature", "properties": { "Name": "12.48", "P.K.": null, "Al.Dist. Izq.": null, "Al.Dist. Der.": null, "Ruta": 20 }, "geometry": { "type": "Point", "coordinates": [ -64.2885282, -31.4353413 ] } },
{ "type": "Feature", "properties": { "Name": "12.53", "P.K.": null, "Al.Dist. Izq.": null, "Al.Dist. Der.": null, "Ruta": 20 }, "geometry": { "type": "Point", "coordinates": [ -64.2891015, -31.4349233 ] } },
{ "type": "Feature", "properties": { "Name": "12.55", "P.K.": null, "Al.Dist. Izq.": null, "Al.Dist. Der.": null, "Ruta": 20 }, "geometry": { "type": "Point", "coordinates": [ -64.289419, -31.435178 ] } },
{ "type": "Feature", "properties": { "Name": "12.55", "P.K.": null, "Al.Dist. Izq.": 20.0, "Al.Dist. Der.": null, "Ruta": 20 }, "geometry": { "type": "Point", "coordinates": [ -64.289419, -31.435178 ] } },
{ "type": "Feature", "properties": { "Name": "12.57", "P.K.": null, "Al.Dist. Izq.": 20.0, "Al.Dist. Der.": null, "Ruta": 20 }, "geometry": { "type": "Point", "coordinates": [ -64.2896265, -31.4350008 ] } },
{ "type": "Feature", "properties": { "Name": "12.59", "P.K.": null, "Al.Dist. Izq.": 20.0, "Al.Dist. Der.": null, "Ruta": 20 }, "geometry": { "type": "Point", "coordinates": [ -64.28993, -31.43519 ] } },
{ "type": "Feature", "properties": { "Name": "12.61", "P.K.": null, "Al.Dist. Izq.": 20.0, "Al.Dist. Der.": null, "Ruta": 20 }, "geometry": { "type": "Point", "coordinates": [ -64.2902135, -31.4350399 ] } },
{ "type": "Feature", "properties": { "Name": "12.66", "P.K.": null, "Al.Dist. Izq.": 20.0, "Al.Dist. Der.": null, "Ruta": 20 }, "geometry": { "type": "Point", "coordinates": [ -64.2906874, -31.435091 ] } },
{ "type": "Feature", "properties": { "Name": "12.68", "P.K.": null, "Al.Dist. Izq.": 20.0, "Al.Dist. Der.": null, "Ruta": 20 }, "geometry": { "type": "Point", "coordinates": [ -64.2910582, -31.4351108 ] } },
{ "type": "Feature", "properties": { "Name": "12.72", "P.K.": null, "Al.Dist. Izq.": 20.0, "Al.Dist. Der.": null, "Ruta": 20 }, "geometry": { "type": "Point", "coordinates": [ -64.2915, -31.4352 ] } },
{ "type": "Feature", "properties": { "Name": "12.77", "P.K.": null, "Al.Dist. Izq.": 20.0, "Al.Dist. Der.": null, "Ruta": 20 }, "geometry": { "type": "Point", "coordinates": [ -64.2921175, -31.4352036 ] } },
{ "type": "Feature", "properties": { "Name": "12.8", "P.K.": null, "Al.Dist. Izq.": 20.0, "Al.Dist. Der.": null, "Ruta": 20 }, "geometry": { "type": "Point", "coordinates": [ -64.2924901, -31.4356213 ] } },
{ "type": "Feature", "properties": { "Name": "13", "P.K.": "PK13", "Al.Dist. Izq.": 20.0, "Al.Dist. Der.": null, "Ruta": 20 }, "geometry": { "type": "Point", "coordinates": [ -64.2949382, -31.4353598 ] } },
{ "type": "Feature", "properties": { "Name": "13.03", "P.K.": null, "Al.Dist. Izq.": 20.0, "Al.Dist. Der.": null, "Ruta": 20 }, "geometry": { "type": "Point", "coordinates": [ -64.2951882, -31.4357618 ] } },
{ "type": "Feature", "properties": { "Name": "13.41", "P.K.": null, "Al.Dist. Izq.": 20.0, "Al.Dist. Der.": null, "Ruta": 20 }, "geometry": { "type": "Point", "coordinates": [ -64.2990765, -31.4356072 ] } },
{ "type": "Feature", "properties": { "Name": "13.45", "P.K.": null, "Al.Dist. Izq.": 20.0, "Al.Dist. Der.": null, "Ruta": 20 }, "geometry": { "type": "Point", "coordinates": [ -64.299474, -31.4360116 ] } },
{ "type": "Feature", "properties": { "Name": "13.54", "P.K.": null, "Al.Dist. Izq.": 20.0, "Al.Dist. Der.": null, "Ruta": 20 }, "geometry": { "type": "Point", "coordinates": [ -64.3004989, -31.4357289 ] } },
{ "type": "Feature", "properties": { "Name": "13.55", "P.K.": null, "Al.Dist. Izq.": 20.0, "Al.Dist. Der.": null, "Ruta": 20 }, "geometry": { "type": "Point", "coordinates": [ -64.3005162, -31.4357083 ] } },
{ "type": "Feature", "properties": { "Name": "13.8", "P.K.": null, "Al.Dist. Izq.": 20.0, "Al.Dist. Der.": null, "Ruta": 20 }, "geometry": { "type": "Point", "coordinates": [ -64.3030578, -31.4358708 ] } },
{ "type": "Feature", "properties": { "Name": "13.83", "P.K.": null, "Al.Dist. Izq.": 20.0, "Al.Dist. Der.": null, "Ruta": 20 }, "geometry": { "type": "Point", "coordinates": [ -64.3033221, -31.436484 ] } },
{ "type": "Feature", "properties": { "Name": "13.84", "P.K.": null, "Al.Dist. Izq.": 20.0, "Al.Dist. Der.": null, "Ruta": 20 }, "geometry": { "type": "Point", "coordinates": [ -64.3035, -31.4361 ] } },
{ "type": "Feature", "properties": { "Name": "13.84", "P.K.": null, "Al.Dist. Izq.": 20.0, "Al.Dist. Der.": null, "Ruta": 20 }, "geometry": { "type": "Point", "coordinates": [ -64.303432, -31.436197 ] } },
{ "type": "Feature", "properties": { "Name": "13.86", "P.K.": null, "Al.Dist. Izq.": 20.0, "Al.Dist. Der.": null, "Ruta": 20 }, "geometry": { "type": "Point", "coordinates": [ -64.3037523, -31.4359303 ] } },
{ "type": "Feature", "properties": { "Name": "13.94", "P.K.": null, "Al.Dist. Izq.": 20.0, "Al.Dist. Der.": null, "Ruta": 20 }, "geometry": { "type": "Point", "coordinates": [ -64.3045393, -31.4359581 ] } },
{ "type": "Feature", "properties": { "Name": "14.05", "P.K.": null, "Al.Dist. Izq.": 20.0, "Al.Dist. Der.": null, "Ruta": 20 }, "geometry": { "type": "Point", "coordinates": [ -64.3057068, -31.436195 ] } },
{ "type": "Feature", "properties": { "Name": "14.1", "P.K.": null, "Al.Dist. Izq.": 20.0, "Al.Dist. Der.": null, "Ruta": 20 }, "geometry": { "type": "Point", "coordinates": [ -64.3062578, -31.4360375 ] } },
{ "type": "Feature", "properties": { "Name": "14.1", "P.K.": null, "Al.Dist. Izq.": 20.0, "Al.Dist. Der.": null, "Ruta": 20 }, "geometry": { "type": "Point", "coordinates": [ -64.3062057, -31.4364418 ] } },
{ "type": "Feature", "properties": { "Name": "14.2", "P.K.": null, "Al.Dist. Izq.": 20.0, "Al.Dist. Der.": null, "Ruta": 20 }, "geometry": { "type": "Point", "coordinates": [ -64.3073127, -31.4361083 ] } },
{ "type": "Feature", "properties": { "Name": "14.2", "P.K.": null, "Al.Dist. Izq.": 20.0, "Al.Dist. Der.": null, "Ruta": 20 }, "geometry": { "type": "Point", "coordinates": [ -64.3072981, -31.4363067 ] } },
{ "type": "Feature", "properties": { "Name": "14.3", "P.K.": null, "Al.Dist. Izq.": 20.0, "Al.Dist. Der.": null, "Ruta": 20 }, "geometry": { "type": "Point", "coordinates": [ -64.308238, -31.4365952 ] } },
{ "type": "Feature", "properties": { "Name": "14.31", "P.K.": null, "Al.Dist. Izq.": 20.0, "Al.Dist. Der.": null, "Ruta": 20 }, "geometry": { "type": "Point", "coordinates": [ -64.3082953, -31.4363624 ] } },
{ "type": "Feature", "properties": { "Name": "14.31", "P.K.": null, "Al.Dist. Izq.": 20.0, "Al.Dist. Der.": null, "Ruta": 20 }, "geometry": { "type": "Point", "coordinates": [ -64.3082917, -31.4361673 ] } },
{ "type": "Feature", "properties": { "Name": "14.36", "P.K.": null, "Al.Dist. Izq.": 20.0, "Al.Dist. Der.": null, "Ruta": 20 }, "geometry": { "type": "Point", "coordinates": [ -64.3088891, -31.4362087 ] } },
{ "type": "Feature", "properties": { "Name": "14.39", "P.K.": null, "Al.Dist. Izq.": 20.0, "Al.Dist. Der.": null, "Ruta": 20 }, "geometry": { "type": "Point", "coordinates": [ -64.309166, -31.436322 ] } },
{ "type": "Feature", "properties": { "Name": "14.39", "P.K.": null, "Al.Dist. Izq.": 20.0, "Al.Dist. Der.": null, "Ruta": 20 }, "geometry": { "type": "Point", "coordinates": [ -64.309135, -31.436543 ] } },
{ "type": "Feature", "properties": { "Name": "14.4", "P.K.": null, "Al.Dist. Izq.": 20.0, "Al.Dist. Der.": null, "Ruta": 20 }, "geometry": { "type": "Point", "coordinates": [ -64.3093102, -31.4362213 ] } },
{ "type": "Feature", "properties": { "Name": "14.4", "P.K.": null, "Al.Dist. Izq.": 20.0, "Al.Dist. Der.": null, "Ruta": 20 }, "geometry": { "type": "Point", "coordinates": [ -64.3093217, -31.4362296 ] } },
{ "type": "Feature", "properties": { "Name": "14.45", "P.K.": null, "Al.Dist. Izq.": 20.0, "Al.Dist. Der.": null, "Ruta": 20 }, "geometry": { "type": "Point", "coordinates": [ -64.309769, -31.436412 ] } },
{ "type": "Feature", "properties": { "Name": "14.52", "P.K.": null, "Al.Dist. Izq.": 20.0, "Al.Dist. Der.": null, "Ruta": 20 }, "geometry": { "type": "Point", "coordinates": [ -64.310471, -31.4368616 ] } },
{ "type": "Feature", "properties": { "Name": "14.7", "P.K.": null, "Al.Dist. Izq.": 20.0, "Al.Dist. Der.": null, "Ruta": 20 }, "geometry": { "type": "Point", "coordinates": [ -64.3124473, -31.4364833 ] } },
{ "type": "Feature", "properties": { "Name": "14.7", "P.K.": null, "Al.Dist. Izq.": 20.0, "Al.Dist. Der.": null, "Ruta": 20 }, "geometry": { "type": "Point", "coordinates": [ -64.3124473, -31.4364833 ] } },
{ "type": "Feature", "properties": { "Name": "14.8", "P.K.": null, "Al.Dist. Izq.": 20.0, "Al.Dist. Der.": null, "Ruta": 20 }, "geometry": { "type": "Point", "coordinates": [ -64.3133663, -31.4369788 ] } },
{ "type": "Feature", "properties": { "Name": "14.89", "P.K.": null, "Al.Dist. Izq.": 20.0, "Al.Dist. Der.": null, "Ruta": 20 }, "geometry": { "type": "Point", "coordinates": [ -64.3143078, -31.4371402 ] } },
{ "type": "Feature", "properties": { "Name": "15.02", "P.K.": null, "Al.Dist. Izq.": 20.0, "Al.Dist. Der.": null, "Ruta": 20 }, "geometry": { "type": "Point", "coordinates": [ -64.3156704, -31.436665 ] } },
{ "type": "Feature", "properties": { "Name": "15.02", "P.K.": null, "Al.Dist. Izq.": 20.0, "Al.Dist. Der.": null, "Ruta": 20 }, "geometry": { "type": "Point", "coordinates": [ -64.3156752, -31.436714 ] } },
{ "type": "Feature", "properties": { "Name": "15.06", "P.K.": null, "Al.Dist. Izq.": 20.0, "Al.Dist. Der.": null, "Ruta": 20 }, "geometry": { "type": "Point", "coordinates": [ -64.3160923, -31.4367352 ] } },
{ "type": "Feature", "properties": { "Name": "15.08", "P.K.": null, "Al.Dist. Izq.": 20.0, "Al.Dist. Der.": null, "Ruta": 20 }, "geometry": { "type": "Point", "coordinates": [ -64.3162954, -31.4366806 ] } },
{ "type": "Feature", "properties": { "Name": "15.14", "P.K.": null, "Al.Dist. Izq.": 20.0, "Al.Dist. Der.": null, "Ruta": 20 }, "geometry": { "type": "Point", "coordinates": [ -64.3169723, -31.4367474 ] } },
{ "type": "Feature", "properties": { "Name": "15.2", "P.K.": null, "Al.Dist. Izq.": 20.0, "Al.Dist. Der.": null, "Ruta": 20 }, "geometry": { "type": "Point", "coordinates": [ -64.3175314, -31.4380097 ] } },
{ "type": "Feature", "properties": { "Name": "15.22", "P.K.": null, "Al.Dist. Izq.": 20.0, "Al.Dist. Der.": null, "Ruta": 20 }, "geometry": { "type": "Point", "coordinates": [ -64.3177325, -31.4370207 ] } },
{ "type": "Feature", "properties": { "Name": "15.23", "P.K.": null, "Al.Dist. Izq.": 20.0, "Al.Dist. Der.": null, "Ruta": 20 }, "geometry": { "type": "Point", "coordinates": [ -64.3178424, -31.4371751 ] } },
{ "type": "Feature", "properties": { "Name": "15.26", "P.K.": null, "Al.Dist. Izq.": 20.0, "Al.Dist. Der.": null, "Ruta": 20 }, "geometry": { "type": "Point", "coordinates": [ -64.318085, -31.4368143 ] } },
{ "type": "Feature", "properties": { "Name": "15.26", "P.K.": null, "Al.Dist. Izq.": 20.0, "Al.Dist. Der.": null, "Ruta": 20 }, "geometry": { "type": "Point", "coordinates": [ -64.3180902, -31.4369598 ] } },
{ "type": "Feature", "properties": { "Name": "15.35", "P.K.": null, "Al.Dist. Izq.": 20.0, "Al.Dist. Der.": null, "Ruta": 20 }, "geometry": { "type": "Point", "coordinates": [ -64.3190597, -31.4371057 ] } },
{ "type": "Feature", "properties": { "Name": "15.35", "P.K.": null, "Al.Dist. Izq.": 20.0, "Al.Dist. Der.": null, "Ruta": 20 }, "geometry": { "type": "Point", "coordinates": [ -64.319054, -31.4372728 ] } },
{ "type": "Feature", "properties": { "Name": "15.37", "P.K.": null, "Al.Dist. Izq.": 20.0, "Al.Dist. Der.": null, "Ruta": 20 }, "geometry": { "type": "Point", "coordinates": [ -64.3192438, -31.4370226 ] } },
{ "type": "Feature", "properties": { "Name": "15.37", "P.K.": null, "Al.Dist. Izq.": 20.0, "Al.Dist. Der.": null, "Ruta": 20 }, "geometry": { "type": "Point", "coordinates": [ -64.3192799, -31.4368646 ] } },
{ "type": "Feature", "properties": { "Name": "15.4", "P.K.": null, "Al.Dist. Izq.": 20.0, "Al.Dist. Der.": null, "Ruta": 20 }, "geometry": { "type": "Point", "coordinates": [ -64.3195231, -31.4372947 ] } },
{ "type": "Feature", "properties": { "Name": "15.4", "P.K.": null, "Al.Dist. Izq.": 20.0, "Al.Dist. Der.": null, "Ruta": 20 }, "geometry": { "type": "Point", "coordinates": [ -64.3195574, -31.4371145 ] } },
{ "type": "Feature", "properties": { "Name": "15.43", "P.K.": null, "Al.Dist. Izq.": 20.0, "Al.Dist. Der.": null, "Ruta": 20 }, "geometry": { "type": "Point", "coordinates": [ -64.3198833, -31.4368982 ] } },
{ "type": "Feature", "properties": { "Name": "15.46", "P.K.": null, "Al.Dist. Izq.": 20.0, "Al.Dist. Der.": null, "Ruta": 20 }, "geometry": { "type": "Point", "coordinates": [ -64.3201192, -31.4373381 ] } },
{ "type": "Feature", "properties": { "Name": "15.5", "P.K.": null, "Al.Dist. Izq.": 20.0, "Al.Dist. Der.": null, "Ruta": 20 }, "geometry": { "type": "Point", "coordinates": [ -64.3205979, -31.4369423 ] } },
{ "type": "Feature", "properties": { "Name": "15.65", "P.K.": null, "Al.Dist. Izq.": 20.0, "Al.Dist. Der.": null, "Ruta": 20 }, "geometry": { "type": "Point", "coordinates": [ -64.3221449, -31.4374486 ] } },
{ "type": "Feature", "properties": { "Name": "15.65", "P.K.": null, "Al.Dist. Izq.": 20.0, "Al.Dist. Der.": null, "Ruta": 20 }, "geometry": { "type": "Point", "coordinates": [ -64.3221741, -31.4374076 ] } },
{ "type": "Feature", "properties": { "Name": "15.67", "P.K.": null, "Al.Dist. Izq.": 20.0, "Al.Dist. Der.": null, "Ruta": 20 }, "geometry": { "type": "Point", "coordinates": [ -64.3223997, -31.4370415 ] } },
{ "type": "Feature", "properties": { "Name": "15.7", "P.K.": null, "Al.Dist. Izq.": 20.0, "Al.Dist. Der.": null, "Ruta": 20 }, "geometry": { "type": "Point", "coordinates": [ -64.32272, -31.43716 ] } },
{ "type": "Feature", "properties": { "Name": "15.87", "P.K.": null, "Al.Dist. Izq.": 20.0, "Al.Dist. Der.": null, "Ruta": 20 }, "geometry": { "type": "Point", "coordinates": [ -64.324345, -31.43724 ] } },
{ "type": "Feature", "properties": { "Name": "15.87", "P.K.": null, "Al.Dist. Izq.": 60.0, "Al.Dist. Der.": 60, "Ruta": 20 }, "geometry": { "type": "Point", "coordinates": [ -64.324345, -31.43724 ] } },
{ "type": "Feature", "properties": { "Name": "15.95", "P.K.": null, "Al.Dist. Izq.": 60.0, "Al.Dist. Der.": 60, "Ruta": 20 }, "geometry": { "type": "Point", "coordinates": [ -64.3251186, -31.4376703 ] } },
{ "type": "Feature", "properties": { "Name": "15.98", "P.K.": null, "Al.Dist. Izq.": 60.0, "Al.Dist. Der.": 60, "Ruta": 20 }, "geometry": { "type": "Point", "coordinates": [ -64.3255531, -31.437372 ] } },
{ "type": "Feature", "properties": { "Name": "16", "P.K.": "PK16", "Al.Dist. Izq.": 60.0, "Al.Dist. Der.": 60, "Ruta": 20 }, "geometry": { "type": "Point", "coordinates": [ -64.3257193, -31.437781 ] } },
{ "type": "Feature", "properties": { "Name": "16.01", "P.K.": null, "Al.Dist. Izq.": 60.0, "Al.Dist. Der.": 60, "Ruta": 20 }, "geometry": { "type": "Point", "coordinates": [ -64.32582, -31.43746 ] } },
{ "type": "Feature", "properties": { "Name": "16.06", "P.K.": null, "Al.Dist. Izq.": 60.0, "Al.Dist. Der.": 60, "Ruta": 20 }, "geometry": { "type": "Point", "coordinates": [ -64.3263069, -31.4378573 ] } },
{ "type": "Feature", "properties": { "Name": "16.51", "P.K.": null, "Al.Dist. Izq.": 60.0, "Al.Dist. Der.": 60, "Ruta": 20 }, "geometry": { "type": "Point", "coordinates": [ -64.331408, -31.437881 ] } },
{ "type": "Feature", "properties": { "Name": "16.54", "P.K.": null, "Al.Dist. Izq.": 60.0, "Al.Dist. Der.": 60, "Ruta": 20 }, "geometry": { "type": "Point", "coordinates": [ -64.3317031, -31.4382294 ] } },
{ "type": "Feature", "properties": { "Name": "16.7", "P.K.": null, "Al.Dist. Izq.": 60.0, "Al.Dist. Der.": 60, "Ruta": 20 }, "geometry": { "type": "Point", "coordinates": [ -64.3334395, -31.4383397 ] } },
{ "type": "Feature", "properties": { "Name": "16.79", "P.K.": null, "Al.Dist. Izq.": 60.0, "Al.Dist. Der.": 60, "Ruta": 20 }, "geometry": { "type": "Point", "coordinates": [ -64.3343935, -31.4382462 ] } },
{ "type": "Feature", "properties": { "Name": "16.79", "P.K.": null, "Al.Dist. Izq.": 60.0, "Al.Dist. Der.": 60, "Ruta": 20 }, "geometry": { "type": "Point", "coordinates": [ -64.3343661, -31.4384238 ] } },
{ "type": "Feature", "properties": { "Name": "16.99", "P.K.": null, "Al.Dist. Izq.": 60.0, "Al.Dist. Der.": 60, "Ruta": 20 }, "geometry": { "type": "Point", "coordinates": [ -64.3366765, -31.438144 ] } },
{ "type": "Feature", "properties": { "Name": "17", "P.K.": "PK17", "Al.Dist. Izq.": 60.0, "Al.Dist. Der.": 60, "Ruta": 20 }, "geometry": { "type": "Point", "coordinates": [ -64.3367483, -31.4381858 ] } },
{ "type": "Feature", "properties": { "Name": "17.01", "P.K.": null, "Al.Dist. Izq.": 60.0, "Al.Dist. Der.": 60, "Ruta": 20 }, "geometry": { "type": "Point", "coordinates": [ -64.3367759, -31.4385351 ] } },
{ "type": "Feature", "properties": { "Name": "17.01", "P.K.": null, "Al.Dist. Izq.": 60.0, "Al.Dist. Der.": 60, "Ruta": 20 }, "geometry": { "type": "Point", "coordinates": [ -64.3367744, -31.4383996 ] } },
{ "type": "Feature", "properties": { "Name": "17.18", "P.K.": null, "Al.Dist. Izq.": 60.0, "Al.Dist. Der.": 60, "Ruta": 20 }, "geometry": { "type": "Point", "coordinates": [ -64.3386291, -31.4382724 ] } },
{ "type": "Feature", "properties": { "Name": "17.29", "P.K.": null, "Al.Dist. Izq.": 60.0, "Al.Dist. Der.": 60, "Ruta": 20 }, "geometry": { "type": "Point", "coordinates": [ -64.3397827, -31.4387456 ] } },
{ "type": "Feature", "properties": { "Name": "17.3", "P.K.": null, "Al.Dist. Izq.": 60.0, "Al.Dist. Der.": 60, "Ruta": 20 }, "geometry": { "type": "Point", "coordinates": [ -64.3398287, -31.4386072 ] } },
{ "type": "Feature", "properties": { "Name": "17.32", "P.K.": null, "Al.Dist. Izq.": 60.0, "Al.Dist. Der.": 60, "Ruta": 20 }, "geometry": { "type": "Point", "coordinates": [ -64.3400518, -31.4384317 ] } },
{ "type": "Feature", "properties": { "Name": "17.34", "P.K.": null, "Al.Dist. Izq.": 60.0, "Al.Dist. Der.": 60, "Ruta": 20 }, "geometry": { "type": "Point", "coordinates": [ -64.3402574, -31.4387784 ] } },
{ "type": "Feature", "properties": { "Name": "17.37", "P.K.": null, "Al.Dist. Izq.": 60.0, "Al.Dist. Der.": 60, "Ruta": 20 }, "geometry": { "type": "Point", "coordinates": [ -64.3405884, -31.4384082 ] } },
{ "type": "Feature", "properties": { "Name": "17.37", "P.K.": null, "Al.Dist. Izq.": 60.0, "Al.Dist. Der.": 60, "Ruta": 20 }, "geometry": { "type": "Point", "coordinates": [ -64.340569, -31.438706 ] } },
{ "type": "Feature", "properties": { "Name": "17.82", "P.K.": null, "Al.Dist. Izq.": 60.0, "Al.Dist. Der.": 60, "Ruta": 20 }, "geometry": { "type": "Point", "coordinates": [ -64.345357, -31.438766 ] } },
{ "type": "Feature", "properties": { "Name": "18.36", "P.K.": null, "Al.Dist. Izq.": 60.0, "Al.Dist. Der.": 60, "Ruta": 20 }, "geometry": { "type": "Point", "coordinates": [ -64.3509465, -31.4390952 ] } },
{ "type": "Feature", "properties": { "Name": "19", "P.K.": "PK19", "Al.Dist. Izq.": 60.0, "Al.Dist. Der.": 60, "Ruta": 20 }, "geometry": { "type": "Point", "coordinates": [ -64.3576941, -31.4395157 ] } },
{ "type": "Feature", "properties": { "Name": "19.31", "P.K.": null, "Al.Dist. Izq.": 60.0, "Al.Dist. Der.": 60, "Ruta": 20 }, "geometry": { "type": "Point", "coordinates": [ -64.360969, -31.440108 ] } },
{ "type": "Feature", "properties": { "Name": "19.46", "P.K.": null, "Al.Dist. Izq.": 60.0, "Al.Dist. Der.": 60, "Ruta": 20 }, "geometry": { "type": "Point", "coordinates": [ -64.362564, -31.440127 ] } },
{ "type": "Feature", "properties": { "Name": "19.47", "P.K.": null, "Al.Dist. Izq.": 60.0, "Al.Dist. Der.": 60, "Ruta": 20 }, "geometry": { "type": "Point", "coordinates": [ -64.3625869, -31.4398343 ] } },
{ "type": "Feature", "properties": { "Name": "19.92", "P.K.": null, "Al.Dist. Izq.": 60.0, "Al.Dist. Der.": 60, "Ruta": 20 }, "geometry": { "type": "Point", "coordinates": [ -64.3673783, -31.4402064 ] } },
{ "type": "Feature", "properties": { "Name": "19.94", "P.K.": null, "Al.Dist. Izq.": 60.0, "Al.Dist. Der.": 60, "Ruta": 20 }, "geometry": { "type": "Point", "coordinates": [ -64.3675454, -31.4405503 ] } },
{ "type": "Feature", "properties": { "Name": "19.97", "P.K.": null, "Al.Dist. Izq.": 60.0, "Al.Dist. Der.": 60, "Ruta": 20 }, "geometry": { "type": "Point", "coordinates": [ -64.3678946, -31.4401776 ] } },
{ "type": "Feature", "properties": { "Name": "20", "P.K.": "PK20", "Al.Dist. Izq.": 60.0, "Al.Dist. Der.": 60, "Ruta": 20 }, "geometry": { "type": "Point", "coordinates": [ -64.3681539, -31.4405846 ] } },
{ "type": "Feature", "properties": { "Name": "20.14", "P.K.": null, "Al.Dist. Izq.": 60.0, "Al.Dist. Der.": 60, "Ruta": 20 }, "geometry": { "type": "Point", "coordinates": [ -64.3695563, -31.4407392 ] } },
{ "type": "Feature", "properties": { "Name": "20.25", "P.K.": null, "Al.Dist. Izq.": 60.0, "Al.Dist. Der.": 60, "Ruta": 20 }, "geometry": { "type": "Point", "coordinates": [ -64.3706982, -31.4410172 ] } },
{ "type": "Feature", "properties": { "Name": "20.32", "P.K.": null, "Al.Dist. Izq.": 60.0, "Al.Dist. Der.": 60, "Ruta": 20 }, "geometry": { "type": "Point", "coordinates": [ -64.3715165, -31.440797 ] } },
{ "type": "Feature", "properties": { "Name": "20.35", "P.K.": null, "Al.Dist. Izq.": 60.0, "Al.Dist. Der.": 60, "Ruta": 20 }, "geometry": { "type": "Point", "coordinates": [ -64.3716323, -31.4412383 ] } },
{ "type": "Feature", "properties": { "Name": "20.35", "P.K.": null, "Al.Dist. Izq.": 60.0, "Al.Dist. Der.": 60, "Ruta": 20 }, "geometry": { "type": "Point", "coordinates": [ -64.3716892, -31.4411379 ] } },
{ "type": "Feature", "properties": { "Name": "20.35", "P.K.": null, "Al.Dist. Izq.": 60.0, "Al.Dist. Der.": 60, "Ruta": 20 }, "geometry": { "type": "Point", "coordinates": [ -64.371706, -31.441106 ] } },
{ "type": "Feature", "properties": { "Name": "20.46", "P.K.": null, "Al.Dist. Izq.": 60.0, "Al.Dist. Der.": 60, "Ruta": 20 }, "geometry": { "type": "Point", "coordinates": [ -64.3727217, -31.4414996 ] } },
{ "type": "Feature", "properties": { "Name": "20.53", "P.K.": null, "Al.Dist. Izq.": 60.0, "Al.Dist. Der.": 60, "Ruta": 20 }, "geometry": { "type": "Point", "coordinates": [ -64.3733381, -31.4416004 ] } },
{ "type": "Feature", "properties": { "Name": "20.53", "P.K.": null, "Al.Dist. Izq.": 60.0, "Al.Dist. Der.": 60, "Ruta": 20 }, "geometry": { "type": "Point", "coordinates": [ -64.3733381, -31.4416004 ] } },
{ "type": "Feature", "properties": { "Name": "20.58", "P.K.": null, "Al.Dist. Izq.": 60.0, "Al.Dist. Der.": 60, "Ruta": 20 }, "geometry": { "type": "Point", "coordinates": [ -64.3738833, -31.4417565 ] } },
{ "type": "Feature", "properties": { "Name": "20.59", "P.K.": null, "Al.Dist. Izq.": 60.0, "Al.Dist. Der.": 60, "Ruta": 20 }, "geometry": { "type": "Point", "coordinates": [ -64.3739857, -31.4418327 ] } },
{ "type": "Feature", "properties": { "Name": "20.62", "P.K.": null, "Al.Dist. Izq.": 60.0, "Al.Dist. Der.": 60, "Ruta": 20 }, "geometry": { "type": "Point", "coordinates": [ -64.3742369, -31.4419569 ] } },
{ "type": "Feature", "properties": { "Name": "20.62", "P.K.": null, "Al.Dist. Izq.": 60.0, "Al.Dist. Der.": 60, "Ruta": 20 }, "geometry": { "type": "Point", "coordinates": [ -64.3741088, -31.4420965 ] } },
{ "type": "Feature", "properties": { "Name": "20.75", "P.K.": null, "Al.Dist. Izq.": 60.0, "Al.Dist. Der.": 60, "Ruta": 20 }, "geometry": { "type": "Point", "coordinates": [ -64.3751177, -31.4430017 ] } },
{ "type": "Feature", "properties": { "Name": "20.94", "P.K.": null, "Al.Dist. Izq.": 60.0, "Al.Dist. Der.": 60, "Ruta": 20 }, "geometry": { "type": "Point", "coordinates": [ -64.3767149, -31.444009 ] } },
{ "type": "Feature", "properties": { "Name": "21.03", "P.K.": null, "Al.Dist. Izq.": 60.0, "Al.Dist. Der.": 60, "Ruta": 20 }, "geometry": { "type": "Point", "coordinates": [ -64.3776988, -31.4441726 ] } },
{ "type": "Feature", "properties": { "Name": "21.3", "P.K.": null, "Al.Dist. Izq.": 60.0, "Al.Dist. Der.": 60, "Ruta": 20 }, "geometry": { "type": "Point", "coordinates": [ -64.3799166, -31.4456706 ] } },
{ "type": "Feature", "properties": { "Name": "21.36", "P.K.": null, "Al.Dist. Izq.": 60.0, "Al.Dist. Der.": 60, "Ruta": 20 }, "geometry": { "type": "Point", "coordinates": [ -64.3802518, -31.4463446 ] } },
{ "type": "Feature", "properties": { "Name": "21.43", "P.K.": null, "Al.Dist. Izq.": 60.0, "Al.Dist. Der.": 60, "Ruta": 20 }, "geometry": { "type": "Point", "coordinates": [ -64.380833, -31.4467303 ] } },
{ "type": "Feature", "properties": { "Name": "21.44", "P.K.": null, "Al.Dist. Izq.": 60.0, "Al.Dist. Der.": 60, "Ruta": 20 }, "geometry": { "type": "Point", "coordinates": [ -64.3811054, -31.4464134 ] } },
{ "type": "Feature", "properties": { "Name": "21.44", "P.K.": null, "Al.Dist. Izq.": 60.0, "Al.Dist. Der.": 60, "Ruta": 20 }, "geometry": { "type": "Point", "coordinates": [ -64.3810352, -31.4465424 ] } },
{ "type": "Feature", "properties": { "Name": "21.62", "P.K.": null, "Al.Dist. Izq.": 60.0, "Al.Dist. Der.": 60, "Ruta": 20 }, "geometry": { "type": "Point", "coordinates": [ -64.3825678, -31.4473335 ] } },
{ "type": "Feature", "properties": { "Name": "21.62", "P.K.": null, "Al.Dist. Izq.": 60.0, "Al.Dist. Der.": 60, "Ruta": 20 }, "geometry": { "type": "Point", "coordinates": [ -64.38244, -31.447558 ] } },
{ "type": "Feature", "properties": { "Name": "21.85", "P.K.": null, "Al.Dist. Izq.": 60.0, "Al.Dist. Der.": 60, "Ruta": 20 }, "geometry": { "type": "Point", "coordinates": [ -64.3845886, -31.448444 ] } },
{ "type": "Feature", "properties": { "Name": "22.28", "P.K.": null, "Al.Dist. Izq.": 60.0, "Al.Dist. Der.": 60, "Ruta": 20 }, "geometry": { "type": "Point", "coordinates": [ -64.3884019, -31.4506284 ] } },
{ "type": "Feature", "properties": { "Name": "22.36", "P.K.": null, "Al.Dist. Izq.": 60.0, "Al.Dist. Der.": 60, "Ruta": 20 }, "geometry": { "type": "Point", "coordinates": [ -64.3889689, -31.4513133 ] } },
{ "type": "Feature", "properties": { "Name": "22.94", "P.K.": null, "Al.Dist. Izq.": 60.0, "Al.Dist. Der.": 60, "Ruta": 20 }, "geometry": { "type": "Point", "coordinates": [ -64.3941314, -31.4536629 ] } },
{ "type": "Feature", "properties": { "Name": "22.94", "P.K.": null, "Al.Dist. Izq.": 60.0, "Al.Dist. Der.": 60, "Ruta": 20 }, "geometry": { "type": "Point", "coordinates": [ -64.393988, -31.453904 ] } },
{ "type": "Feature", "properties": { "Name": "23.01", "P.K.": null, "Al.Dist. Izq.": 60.0, "Al.Dist. Der.": 60, "Ruta": 20 }, "geometry": { "type": "Point", "coordinates": [ -64.394605, -31.4542352 ] } },
{ "type": "Feature", "properties": { "Name": "23.3", "P.K.": null, "Al.Dist. Izq.": 60.0, "Al.Dist. Der.": 60, "Ruta": 20 }, "geometry": { "type": "Point", "coordinates": [ -64.3971787, -31.4556797 ] } },
{ "type": "Feature", "properties": { "Name": "23.35", "P.K.": null, "Al.Dist. Izq.": 60.0, "Al.Dist. Der.": 60, "Ruta": 20 }, "geometry": { "type": "Point", "coordinates": [ -64.3975042, -31.4561336 ] } },
{ "type": "Feature", "properties": { "Name": "24", "P.K.": "PK24", "Al.Dist. Izq.": 60.0, "Al.Dist. Der.": 60, "Ruta": 20 }, "geometry": { "type": "Point", "coordinates": [ -64.4034812, -31.4588249 ] } },
{ "type": "Feature", "properties": { "Name": "24.21", "P.K.": null, "Al.Dist. Izq.": 60.0, "Al.Dist. Der.": 60, "Ruta": 20 }, "geometry": { "type": "Point", "coordinates": [ -64.4057887, -31.4587594 ] } },
{ "type": "Feature", "properties": { "Name": "24.32", "P.K.": null, "Al.Dist. Izq.": 60.0, "Al.Dist. Der.": 60, "Ruta": 20 }, "geometry": { "type": "Point", "coordinates": [ -64.4069292, -31.4588228 ] } },
{ "type": "Feature", "properties": { "Name": "24.81", "P.K.": null, "Al.Dist. Izq.": 60.0, "Al.Dist. Der.": 60, "Ruta": 20 }, "geometry": { "type": "Point", "coordinates": [ -64.4118991, -31.4584077 ] } },
{ "type": "Feature", "properties": { "Name": "24.98", "P.K.": null, "Al.Dist. Izq.": 60.0, "Al.Dist. Der.": 60, "Ruta": 20 }, "geometry": { "type": "Point", "coordinates": [ -64.4136973, -31.4581487 ] } },
{ "type": "Feature", "properties": { "Name": "25", "P.K.": "PK25", "Al.Dist. Izq.": 60.0, "Al.Dist. Der.": 60, "Ruta": 20 }, "geometry": { "type": "Point", "coordinates": [ -64.4137351, -31.457796 ] } },
{ "type": "Feature", "properties": { "Name": "25.08", "P.K.": null, "Al.Dist. Izq.": 60.0, "Al.Dist. Der.": 60, "Ruta": 20 }, "geometry": { "type": "Point", "coordinates": [ -64.4146978, -31.4578896 ] } },
{ "type": "Feature", "properties": { "Name": "25.08", "P.K.": null, "Al.Dist. Izq.": 60.0, "Al.Dist. Der.": 60, "Ruta": 20 }, "geometry": { "type": "Point", "coordinates": [ -64.414616, -31.457602 ] } },
{ "type": "Feature", "properties": { "Name": "25.26", "P.K.": null, "Al.Dist. Izq.": 60.0, "Al.Dist. Der.": 60, "Ruta": 20 }, "geometry": { "type": "Point", "coordinates": [ -64.4165233, -31.4573889 ] } },
{ "type": "Feature", "properties": { "Name": "25.31", "P.K.": null, "Al.Dist. Izq.": 60.0, "Al.Dist. Der.": 60, "Ruta": 20 }, "geometry": { "type": "Point", "coordinates": [ -64.4168723, -31.4569051 ] } },
{ "type": "Feature", "properties": { "Name": "25.37", "P.K.": null, "Al.Dist. Izq.": 60.0, "Al.Dist. Der.": 60, "Ruta": 20 }, "geometry": { "type": "Point", "coordinates": [ -64.4175103, -31.4569495 ] } },
{ "type": "Feature", "properties": { "Name": "25.37", "P.K.": null, "Al.Dist. Izq.": 60.0, "Al.Dist. Der.": 60, "Ruta": 20 }, "geometry": { "type": "Point", "coordinates": [ -64.4175738, -31.4571015 ] } },
{ "type": "Feature", "properties": { "Name": "25.49", "P.K.": null, "Al.Dist. Izq.": 60.0, "Al.Dist. Der.": 60, "Ruta": 20 }, "geometry": { "type": "Point", "coordinates": [ -64.4187024, -31.4565912 ] } },
{ "type": "Feature", "properties": { "Name": "25.57", "P.K.": null, "Al.Dist. Izq.": 60.0, "Al.Dist. Der.": 60, "Ruta": 20 }, "geometry": { "type": "Point", "coordinates": [ -64.4194569, -31.4561531 ] } },
{ "type": "Feature", "properties": { "Name": "25.6", "P.K.": null, "Al.Dist. Izq.": 60.0, "Al.Dist. Der.": 60, "Ruta": 20 }, "geometry": { "type": "Point", "coordinates": [ -64.4197962, -31.4560283 ] } },
{ "type": "Feature", "properties": { "Name": "25.6", "P.K.": null, "Al.Dist. Izq.": 60.0, "Al.Dist. Der.": 60, "Ruta": 20 }, "geometry": { "type": "Point", "coordinates": [ -64.419894, -31.456364 ] } },
{ "type": "Feature", "properties": { "Name": "25.72", "P.K.": null, "Al.Dist. Izq.": 60.0, "Al.Dist. Der.": 60, "Ruta": 20 }, "geometry": { "type": "Point", "coordinates": [ -64.420916, -31.455662 ] } },
{ "type": "Feature", "properties": { "Name": "25.73", "P.K.": null, "Al.Dist. Izq.": 60.0, "Al.Dist. Der.": 60, "Ruta": 20 }, "geometry": { "type": "Point", "coordinates": [ -64.421035, -31.4557088 ] } },
{ "type": "Feature", "properties": { "Name": "25.79", "P.K.": null, "Al.Dist. Izq.": 60.0, "Al.Dist. Der.": 60, "Ruta": 20 }, "geometry": { "type": "Point", "coordinates": [ -64.4217088, -31.4555153 ] } },
{ "type": "Feature", "properties": { "Name": "25.86", "P.K.": null, "Al.Dist. Izq.": 60.0, "Al.Dist. Der.": 60, "Ruta": 20 }, "geometry": { "type": "Point", "coordinates": [ -64.4224688, -31.4557385 ] } },
{ "type": "Feature", "properties": { "Name": "25.9", "P.K.": null, "Al.Dist. Izq.": 60.0, "Al.Dist. Der.": 60, "Ruta": 20 }, "geometry": { "type": "Point", "coordinates": [ -64.4228683, -31.4554123 ] } },
{ "type": "Feature", "properties": { "Name": "25.98", "P.K.": null, "Al.Dist. Izq.": 60.0, "Al.Dist. Der.": 60, "Ruta": 20 }, "geometry": { "type": "Point", "coordinates": [ -64.4236, -31.455 ] } },
{ "type": "Feature", "properties": { "Name": "25.98", "P.K.": null, "Al.Dist. Izq.": 60.0, "Al.Dist. Der.": 60, "Ruta": 20 }, "geometry": { "type": "Point", "coordinates": [ -64.4236, -31.455 ] } },
{ "type": "Feature", "properties": { "Name": "25.98", "P.K.": null, "Al.Dist. Izq.": null, "Al.Dist. Der.": null, "Ruta": 20 }, "geometry": { "type": "Point", "coordinates": [ -64.4236, -31.455 ] } },
{ "type": "Feature", "properties": { "Name": "197.65", "P.K.": null, "Al.Dist. Izq.": null, "Al.Dist. Der.": null, "Ruta": 20 }, "geometry": { "type": "Point", "coordinates": [ -65.1946497, -31.9475024 ] } },
{ "type": "Feature", "properties": { "Name": "197.65", "P.K.": null, "Al.Dist. Izq.": null, "Al.Dist. Der.": null, "Ruta": 20 }, "geometry": { "type": "Point", "coordinates": [ -65.1946497, -31.9475024 ] } },
{ "type": "Feature", "properties": { "Name": "197.66", "P.K.": null, "Al.Dist. Izq.": null, "Al.Dist. Der.": null, "Ruta": 20 }, "geometry": { "type": "Point", "coordinates": [ -65.1948318, -31.9474534 ] } },
{ "type": "Feature", "properties": { "Name": "197.66", "P.K.": null, "Al.Dist. Izq.": null, "Al.Dist. Der.": null, "Ruta": 20 }, "geometry": { "type": "Point", "coordinates": [ -65.1948318, -31.9474534 ] } },
{ "type": "Feature", "properties": { "Name": "197.67", "P.K.": null, "Al.Dist. Izq.": null, "Al.Dist. Der.": null, "Ruta": 20 }, "geometry": { "type": "Point", "coordinates": [ -65.1949455, -31.9474429 ] } },
{ "type": "Feature", "properties": { "Name": "197.67", "P.K.": null, "Al.Dist. Izq.": null, "Al.Dist. Der.": null, "Ruta": 20 }, "geometry": { "type": "Point", "coordinates": [ -65.1949455, -31.9474429 ] } },
{ "type": "Feature", "properties": { "Name": "197.77", "P.K.": null, "Al.Dist. Izq.": null, "Al.Dist. Der.": null, "Ruta": 20 }, "geometry": { "type": "Point", "coordinates": [ -65.1960348, -31.9472133 ] } },
{ "type": "Feature", "properties": { "Name": "197.87", "P.K.": null, "Al.Dist. Izq.": null, "Al.Dist. Der.": null, "Ruta": 20 }, "geometry": { "type": "Point", "coordinates": [ -65.1969879, -31.9470311 ] } },
{ "type": "Feature", "properties": { "Name": "197.9", "P.K.": null, "Al.Dist. Izq.": null, "Al.Dist. Der.": null, "Ruta": 20 }, "geometry": { "type": "Point", "coordinates": [ -65.1974733, -31.9469353 ] } },
{ "type": "Feature", "properties": { "Name": "198.03", "P.K.": null, "Al.Dist. Izq.": null, "Al.Dist. Der.": null, "Ruta": 20 }, "geometry": { "type": "Point", "coordinates": [ -65.1988326, -31.9466671 ] } },
{ "type": "Feature", "properties": { "Name": "198.17", "P.K.": null, "Al.Dist. Izq.": null, "Al.Dist. Der.": null, "Ruta": 20 }, "geometry": { "type": "Point", "coordinates": [ -65.2001918, -31.9463989 ] } },
{ "type": "Feature", "properties": { "Name": "198.21", "P.K.": null, "Al.Dist. Izq.": null, "Al.Dist. Der.": null, "Ruta": 20 }, "geometry": { "type": "Point", "coordinates": [ -65.2006626, -31.9463823 ] } },
{ "type": "Feature", "properties": { "Name": "198.21", "P.K.": null, "Al.Dist. Izq.": null, "Al.Dist. Der.": null, "Ruta": 20 }, "geometry": { "type": "Point", "coordinates": [ -65.2006626, -31.9463823 ] } },
{ "type": "Feature", "properties": { "Name": "198.32", "P.K.": null, "Al.Dist. Izq.": null, "Al.Dist. Der.": null, "Ruta": 20 }, "geometry": { "type": "Point", "coordinates": [ -65.2017723, -31.9460568 ] } },
{ "type": "Feature", "properties": { "Name": "198.45", "P.K.": null, "Al.Dist. Izq.": null, "Al.Dist. Der.": null, "Ruta": 20 }, "geometry": { "type": "Point", "coordinates": [ -65.2032325, -31.9457812 ] } },
{ "type": "Feature", "properties": { "Name": "198.55", "P.K.": null, "Al.Dist. Izq.": null, "Al.Dist. Der.": null, "Ruta": 20 }, "geometry": { "type": "Point", "coordinates": [ -65.2042896, -31.9456236 ] } },
{ "type": "Feature", "properties": { "Name": "198.55", "P.K.": null, "Al.Dist. Izq.": null, "Al.Dist. Der.": null, "Ruta": 20 }, "geometry": { "type": "Point", "coordinates": [ -65.2042896, -31.9456236 ] } },
{ "type": "Feature", "properties": { "Name": "198.68", "P.K.": null, "Al.Dist. Izq.": null, "Al.Dist. Der.": null, "Ruta": 20 }, "geometry": { "type": "Point", "coordinates": [ -65.2055992, -31.9453285 ] } },
{ "type": "Feature", "properties": { "Name": "198.73", "P.K.": null, "Al.Dist. Izq.": null, "Al.Dist. Der.": null, "Ruta": 20 }, "geometry": { "type": "Point", "coordinates": [ -65.2061154, -31.9452366 ] } },
{ "type": "Feature", "properties": { "Name": "198.73", "P.K.": null, "Al.Dist. Izq.": 25.0, "Al.Dist. Der.": 25, "Ruta": 20 }, "geometry": { "type": "Point", "coordinates": [ -65.2061154, -31.9452366 ] } },
{ "type": "Feature", "properties": { "Name": "198.8", "P.K.": null, "Al.Dist. Izq.": 25.0, "Al.Dist. Der.": 25, "Ruta": 20 }, "geometry": { "type": "Point", "coordinates": [ -65.2067716, -31.945108 ] } },
{ "type": "Feature", "properties": { "Name": "198.8", "P.K.": null, "Al.Dist. Izq.": 25.0, "Al.Dist. Der.": 25, "Ruta": 20 }, "geometry": { "type": "Point", "coordinates": [ -65.2068421, -31.9451928 ] } },
{ "type": "Feature", "properties": { "Name": "198.82", "P.K.": null, "Al.Dist. Izq.": 25.0, "Al.Dist. Der.": 25, "Ruta": 20 }, "geometry": { "type": "Point", "coordinates": [ -65.2070308, -31.9449655 ] } },
{ "type": "Feature", "properties": { "Name": "198.83", "P.K.": null, "Al.Dist. Izq.": 25.0, "Al.Dist. Der.": 25, "Ruta": 20 }, "geometry": { "type": "Point", "coordinates": [ -65.2071491, -31.9448697 ] } },
{ "type": "Feature", "properties": { "Name": "198.86", "P.K.": null, "Al.Dist. Izq.": 25.0, "Al.Dist. Der.": 25, "Ruta": 20 }, "geometry": { "type": "Point", "coordinates": [ -65.2074284, -31.9449018 ] } },
{ "type": "Feature", "properties": { "Name": "198.86", "P.K.": null, "Al.Dist. Izq.": 25.0, "Al.Dist. Der.": 25, "Ruta": 20 }, "geometry": { "type": "Point", "coordinates": [ -65.2074657, -31.944881 ] } },
{ "type": "Feature", "properties": { "Name": "198.87", "P.K.": null, "Al.Dist. Izq.": 25.0, "Al.Dist. Der.": 25, "Ruta": 20 }, "geometry": { "type": "Point", "coordinates": [ -65.2076346, -31.9448494 ] } },
{ "type": "Feature", "properties": { "Name": "198.89", "P.K.": null, "Al.Dist. Izq.": 25.0, "Al.Dist. Der.": 25, "Ruta": 20 }, "geometry": { "type": "Point", "coordinates": [ -65.2078596, -31.9449849 ] } },
{ "type": "Feature", "properties": { "Name": "198.92", "P.K.": null, "Al.Dist. Izq.": 25.0, "Al.Dist. Der.": 25, "Ruta": 20 }, "geometry": { "type": "Point", "coordinates": [ -65.208162, -31.9448238 ] } },
{ "type": "Feature", "properties": { "Name": "198.94", "P.K.": null, "Al.Dist. Izq.": 25.0, "Al.Dist. Der.": 25, "Ruta": 20 }, "geometry": { "type": "Point", "coordinates": [ -65.2083374, -31.9447715 ] } },
{ "type": "Feature", "properties": { "Name": "198.95", "P.K.": null, "Al.Dist. Izq.": 25.0, "Al.Dist. Der.": 25, "Ruta": 20 }, "geometry": { "type": "Point", "coordinates": [ -65.208445, -31.944908 ] } },
{ "type": "Feature", "properties": { "Name": "198.98", "P.K.": null, "Al.Dist. Izq.": 25.0, "Al.Dist. Der.": 25, "Ruta": 20 }, "geometry": { "type": "Point", "coordinates": [ -65.2087327, -31.9446921 ] } },
{ "type": "Feature", "properties": { "Name": "199.01", "P.K.": null, "Al.Dist. Izq.": 25.0, "Al.Dist. Der.": 25, "Ruta": 20 }, "geometry": { "type": "Point", "coordinates": [ -65.20912, -31.94467 ] } },
{ "type": "Feature", "properties": { "Name": "199.06", "P.K.": null, "Al.Dist. Izq.": 25.0, "Al.Dist. Der.": 25, "Ruta": 20 }, "geometry": { "type": "Point", "coordinates": [ -65.209593, -31.9447058 ] } },
{ "type": "Feature", "properties": { "Name": "199.11", "P.K.": null, "Al.Dist. Izq.": 25.0, "Al.Dist. Der.": 25, "Ruta": 20 }, "geometry": { "type": "Point", "coordinates": [ -65.2101382, -31.9443911 ] } },
{ "type": "Feature", "properties": { "Name": "199.18", "P.K.": null, "Al.Dist. Izq.": 25.0, "Al.Dist. Der.": 25, "Ruta": 20 }, "geometry": { "type": "Point", "coordinates": [ -65.2108818, -31.9444139 ] } },
{ "type": "Feature", "properties": { "Name": "199.19", "P.K.": null, "Al.Dist. Izq.": 25.0, "Al.Dist. Der.": 25, "Ruta": 20 }, "geometry": { "type": "Point", "coordinates": [ -65.2109388, -31.9445339 ] } },
{ "type": "Feature", "properties": { "Name": "199.21", "P.K.": null, "Al.Dist. Izq.": 25.0, "Al.Dist. Der.": 25, "Ruta": 20 }, "geometry": { "type": "Point", "coordinates": [ -65.211142, -31.9445345 ] } },
{ "type": "Feature", "properties": { "Name": "199.24", "P.K.": null, "Al.Dist. Izq.": 25.0, "Al.Dist. Der.": 25, "Ruta": 20 }, "geometry": { "type": "Point", "coordinates": [ -65.2114964, -31.9444858 ] } },
{ "type": "Feature", "properties": { "Name": "199.27", "P.K.": null, "Al.Dist. Izq.": 25.0, "Al.Dist. Der.": 25, "Ruta": 20 }, "geometry": { "type": "Point", "coordinates": [ -65.2118608, -31.9445339 ] } },
{ "type": "Feature", "properties": { "Name": "199.31", "P.K.": null, "Al.Dist. Izq.": 25.0, "Al.Dist. Der.": 25, "Ruta": 20 }, "geometry": { "type": "Point", "coordinates": [ -65.2121857, -31.9448895 ] } },
{ "type": "Feature", "properties": { "Name": "199.34", "P.K.": null, "Al.Dist. Izq.": 25.0, "Al.Dist. Der.": 25, "Ruta": 20 }, "geometry": { "type": "Point", "coordinates": [ -65.2125635, -31.9448136 ] } },
{ "type": "Feature", "properties": { "Name": "199.36", "P.K.": null, "Al.Dist. Izq.": 25.0, "Al.Dist. Der.": 25, "Ruta": 20 }, "geometry": { "type": "Point", "coordinates": [ -65.21283, -31.94498 ] } },
{ "type": "Feature", "properties": { "Name": "199.39", "P.K.": null, "Al.Dist. Izq.": 25.0, "Al.Dist. Der.": 25, "Ruta": 20 }, "geometry": { "type": "Point", "coordinates": [ -65.213155, -31.9450557 ] } },
{ "type": "Feature", "properties": { "Name": "199.42", "P.K.": null, "Al.Dist. Izq.": 25.0, "Al.Dist. Der.": 25, "Ruta": 20 }, "geometry": { "type": "Point", "coordinates": [ -65.2133903, -31.9451403 ] } },
{ "type": "Feature", "properties": { "Name": "199.46", "P.K.": null, "Al.Dist. Izq.": 45.0, "Al.Dist. Der.": 25, "Ruta": 20 }, "geometry": { "type": "Point", "coordinates": [ -65.213798, -31.9452361 ] } },
{ "type": "Feature", "properties": { "Name": "199.52", "P.K.": null, "Al.Dist. Izq.": 45.0, "Al.Dist. Der.": 25, "Ruta": 20 }, "geometry": { "type": "Point", "coordinates": [ -65.2144501, -31.9454005 ] } },
{ "type": "Feature", "properties": { "Name": "199.53", "P.K.": null, "Al.Dist. Izq.": 45.0, "Al.Dist. Der.": 25, "Ruta": 20 }, "geometry": { "type": "Point", "coordinates": [ -65.2145008, -31.9453527 ] } },
{ "type": "Feature", "properties": { "Name": "199.56", "P.K.": null, "Al.Dist. Izq.": 45.0, "Al.Dist. Der.": 25, "Ruta": 20 }, "geometry": { "type": "Point", "coordinates": [ -65.2147925, -31.9455883 ] } },
{ "type": "Feature", "properties": { "Name": "199.57", "P.K.": null, "Al.Dist. Izq.": 45.0, "Al.Dist. Der.": 25, "Ruta": 20 }, "geometry": { "type": "Point", "coordinates": [ -65.2148894, -31.9457533 ] } },
{ "type": "Feature", "properties": { "Name": "199.79", "P.K.": null, "Al.Dist. Izq.": 45.0, "Al.Dist. Der.": 25, "Ruta": 20 }, "geometry": { "type": "Point", "coordinates": [ -65.2170938, -31.9463547 ] } },
{ "type": "Feature", "properties": { "Name": "199.83", "P.K.": null, "Al.Dist. Izq.": 45.0, "Al.Dist. Der.": 25, "Ruta": 20 }, "geometry": { "type": "Point", "coordinates": [ -65.21738, -31.94658 ] } },
{ "type": "Feature", "properties": { "Name": "199.88", "P.K.": null, "Al.Dist. Izq.": 45.0, "Al.Dist. Der.": 25, "Ruta": 20 }, "geometry": { "type": "Point", "coordinates": [ -65.2179561, -31.9467712 ] } },
{ "type": "Feature", "properties": { "Name": "200.27", "P.K.": null, "Al.Dist. Izq.": 45.0, "Al.Dist. Der.": 25, "Ruta": 20 }, "geometry": { "type": "Point", "coordinates": [ -65.220574, -31.9495012 ] } },
{ "type": "Feature", "properties": { "Name": "200.29", "P.K.": null, "Al.Dist. Izq.": 45.0, "Al.Dist. Der.": 25, "Ruta": 20 }, "geometry": { "type": "Point", "coordinates": [ -65.2205958, -31.9496733 ] } },
{ "type": "Feature", "properties": { "Name": "200.37", "P.K.": null, "Al.Dist. Izq.": 45.0, "Al.Dist. Der.": 25, "Ruta": 20 }, "geometry": { "type": "Point", "coordinates": [ -65.22067, -31.9505 ] } },
{ "type": "Feature", "properties": { "Name": "200.4", "P.K.": null, "Al.Dist. Izq.": 45.0, "Al.Dist. Der.": 25, "Ruta": 20 }, "geometry": { "type": "Point", "coordinates": [ -65.2208539, -31.950735 ] } },
{ "type": "Feature", "properties": { "Name": "200.51", "P.K.": null, "Al.Dist. Izq.": 45.0, "Al.Dist. Der.": 25, "Ruta": 20 }, "geometry": { "type": "Point", "coordinates": [ -65.2209558, -31.9517455 ] } },
{ "type": "Feature", "properties": { "Name": "200.55", "P.K.": null, "Al.Dist. Izq.": 45.0, "Al.Dist. Der.": 25, "Ruta": 20 }, "geometry": { "type": "Point", "coordinates": [ -65.2211808, -31.9520862 ] } },
{ "type": "Feature", "properties": { "Name": "200.84", "P.K.": null, "Al.Dist. Izq.": 45.0, "Al.Dist. Der.": 25, "Ruta": 20 }, "geometry": { "type": "Point", "coordinates": [ -65.2218893, -31.9547241 ] } },
{ "type": "Feature", "properties": { "Name": "200.84", "P.K.": null, "Al.Dist. Izq.": 45.0, "Al.Dist. Der.": 25, "Ruta": 20 }, "geometry": { "type": "Point", "coordinates": [ -65.2217343, -31.9547319 ] } },
{ "type": "Feature", "properties": { "Name": "201.09", "P.K.": null, "Al.Dist. Izq.": 45.0, "Al.Dist. Der.": 25, "Ruta": 20 }, "geometry": { "type": "Point", "coordinates": [ -65.2224186, -31.9569334 ] } },
{ "type": "Feature", "properties": { "Name": "201.28", "P.K.": null, "Al.Dist. Izq.": 45.0, "Al.Dist. Der.": 25, "Ruta": 20 }, "geometry": { "type": "Point", "coordinates": [ -65.2229759, -31.9585551 ] } },
{ "type": "Feature", "properties": { "Name": "201.31", "P.K.": null, "Al.Dist. Izq.": 45.0, "Al.Dist. Der.": 25, "Ruta": 20 }, "geometry": { "type": "Point", "coordinates": [ -65.2231053, -31.9589095 ] } },
{ "type": "Feature", "properties": { "Name": "201.41", "P.K.": null, "Al.Dist. Izq.": 45.0, "Al.Dist. Der.": 25, "Ruta": 20 }, "geometry": { "type": "Point", "coordinates": [ -65.22317, -31.95982 ] } },
{ "type": "Feature", "properties": { "Name": "201.64", "P.K.": null, "Al.Dist. Izq.": 45.0, "Al.Dist. Der.": 25, "Ruta": 20 }, "geometry": { "type": "Point", "coordinates": [ -65.2241725, -31.9617273 ] } },
{ "type": "Feature", "properties": { "Name": "201.76", "P.K.": null, "Al.Dist. Izq.": 45.0, "Al.Dist. Der.": 25, "Ruta": 20 }, "geometry": { "type": "Point", "coordinates": [ -65.2250767, -31.9625275 ] } },
{ "type": "Feature", "properties": { "Name": "201.8", "P.K.": null, "Al.Dist. Izq.": 45.0, "Al.Dist. Der.": 25, "Ruta": 20 }, "geometry": { "type": "Point", "coordinates": [ -65.2252527, -31.962932 ] } },
{ "type": "Feature", "properties": { "Name": "201.81", "P.K.": null, "Al.Dist. Izq.": 45.0, "Al.Dist. Der.": 25, "Ruta": 20 }, "geometry": { "type": "Point", "coordinates": [ -65.2253751, -31.9628853 ] } },
{ "type": "Feature", "properties": { "Name": "202", "P.K.": "PK202", "Al.Dist. Izq.": 45.0, "Al.Dist. Der.": 25, "Ruta": 20 }, "geometry": { "type": "Point", "coordinates": [ -65.2265238, -31.9643482 ] } },
{ "type": "Feature", "properties": { "Name": "202.11", "P.K.": null, "Al.Dist. Izq.": 45.0, "Al.Dist. Der.": 25, "Ruta": 20 }, "geometry": { "type": "Point", "coordinates": [ -65.2273886, -31.9650134 ] } },
{ "type": "Feature", "properties": { "Name": "202.38", "P.K.": null, "Al.Dist. Izq.": 45.0, "Al.Dist. Der.": 25, "Ruta": 20 }, "geometry": { "type": "Point", "coordinates": [ -65.2291983, -31.9667631 ] } },
{ "type": "Feature", "properties": { "Name": "202.48", "P.K.": null, "Al.Dist. Izq.": 45.0, "Al.Dist. Der.": 25, "Ruta": 20 }, "geometry": { "type": "Point", "coordinates": [ -65.2299127, -31.9674469 ] } },
{ "type": "Feature", "properties": { "Name": "202.65", "P.K.": null, "Al.Dist. Izq.": 45.0, "Al.Dist. Der.": 25, "Ruta": 20 }, "geometry": { "type": "Point", "coordinates": [ -65.2310329, -31.9684825 ] } },
{ "type": "Feature", "properties": { "Name": "202.74", "P.K.": null, "Al.Dist. Izq.": 45.0, "Al.Dist. Der.": 25, "Ruta": 20 }, "geometry": { "type": "Point", "coordinates": [ -65.2315804, -31.9691864 ] } },
{ "type": "Feature", "properties": { "Name": "202.9", "P.K.": null, "Al.Dist. Izq.": 45.0, "Al.Dist. Der.": 25, "Ruta": 20 }, "geometry": { "type": "Point", "coordinates": [ -65.2325232, -31.9703056 ] } },
{ "type": "Feature", "properties": { "Name": "202.96", "P.K.": null, "Al.Dist. Izq.": 45.0, "Al.Dist. Der.": 25, "Ruta": 20 }, "geometry": { "type": "Point", "coordinates": [ -65.23286, -31.97078 ] } },
{ "type": "Feature", "properties": { "Name": "203", "P.K.": "PK203", "Al.Dist. Izq.": 45.0, "Al.Dist. Der.": 25, "Ruta": 20 }, "geometry": { "type": "Point", "coordinates": [ -65.2331663, -31.9710238 ] } },
{ "type": "Feature", "properties": { "Name": "203.19", "P.K.": null, "Al.Dist. Izq.": 45.0, "Al.Dist. Der.": 25, "Ruta": 20 }, "geometry": { "type": "Point", "coordinates": [ -65.2342003, -31.9724204 ] } },
{ "type": "Feature", "properties": { "Name": "203.2", "P.K.": null, "Al.Dist. Izq.": 45.0, "Al.Dist. Der.": 25, "Ruta": 20 }, "geometry": { "type": "Point", "coordinates": [ -65.23423, -31.97251 ] } },
{ "type": "Feature", "properties": { "Name": "203.24", "P.K.": null, "Al.Dist. Izq.": 45.0, "Al.Dist. Der.": 25, "Ruta": 20 }, "geometry": { "type": "Point", "coordinates": [ -65.23439, -31.97273 ] } },
{ "type": "Feature", "properties": { "Name": "203.27", "P.K.": null, "Al.Dist. Izq.": 45.0, "Al.Dist. Der.": 25, "Ruta": 20 }, "geometry": { "type": "Point", "coordinates": [ -65.2345951, -31.9728688 ] } },
{ "type": "Feature", "properties": { "Name": "203.46", "P.K.": null, "Al.Dist. Izq.": 45.0, "Al.Dist. Der.": 25, "Ruta": 20 }, "geometry": { "type": "Point", "coordinates": [ -65.23566, -31.97427 ] } },
{ "type": "Feature", "properties": { "Name": "203.48", "P.K.": null, "Al.Dist. Izq.": 45.0, "Al.Dist. Der.": 25, "Ruta": 20 }, "geometry": { "type": "Point", "coordinates": [ -65.2358883, -31.9743653 ] } },
{ "type": "Feature", "properties": { "Name": "203.48", "P.K.": null, "Al.Dist. Izq.": 45.0, "Al.Dist. Der.": 25, "Ruta": 20 }, "geometry": { "type": "Point", "coordinates": [ -65.2358879, -31.9743697 ] } },
{ "type": "Feature", "properties": { "Name": "203.63", "P.K.": null, "Al.Dist. Izq.": 45.0, "Al.Dist. Der.": 25, "Ruta": 20 }, "geometry": { "type": "Point", "coordinates": [ -65.2367996, -31.9753239 ] } },
{ "type": "Feature", "properties": { "Name": "203.63", "P.K.": null, "Al.Dist. Izq.": 45.0, "Al.Dist. Der.": 25, "Ruta": 20 }, "geometry": { "type": "Point", "coordinates": [ -65.2367996, -31.9753239 ] } },
{ "type": "Feature", "properties": { "Name": "203.65", "P.K.": null, "Al.Dist. Izq.": 45.0, "Al.Dist. Der.": 25, "Ruta": 20 }, "geometry": { "type": "Point", "coordinates": [ -65.2369207, -31.9753294 ] } },
{ "type": "Feature", "properties": { "Name": "203.67", "P.K.": null, "Al.Dist. Izq.": 45.0, "Al.Dist. Der.": 25, "Ruta": 20 }, "geometry": { "type": "Point", "coordinates": [ -65.23704, -31.97554 ] } },
{ "type": "Feature", "properties": { "Name": "203.71", "P.K.": null, "Al.Dist. Izq.": 45.0, "Al.Dist. Der.": 25, "Ruta": 20 }, "geometry": { "type": "Point", "coordinates": [ -65.2373655, -31.9756997 ] } },
{ "type": "Feature", "properties": { "Name": "203.74", "P.K.": null, "Al.Dist. Izq.": 45.0, "Al.Dist. Der.": 25, "Ruta": 20 }, "geometry": { "type": "Point", "coordinates": [ -65.2376255, -31.9759032 ] } },
{ "type": "Feature", "properties": { "Name": "203.77", "P.K.": null, "Al.Dist. Izq.": 45.0, "Al.Dist. Der.": 25, "Ruta": 20 }, "geometry": { "type": "Point", "coordinates": [ -65.237815, -31.9761628 ] } },
{ "type": "Feature", "properties": { "Name": "203.82", "P.K.": null, "Al.Dist. Izq.": 45.0, "Al.Dist. Der.": 25, "Ruta": 20 }, "geometry": { "type": "Point", "coordinates": [ -65.2380875, -31.9764268 ] } },
{ "type": "Feature", "properties": { "Name": "203.82", "P.K.": null, "Al.Dist. Izq.": 45.0, "Al.Dist. Der.": 25, "Ruta": 20 }, "geometry": { "type": "Point", "coordinates": [ -65.2380752, -31.9764002 ] } },
{ "type": "Feature", "properties": { "Name": "203.83", "P.K.": null, "Al.Dist. Izq.": 45.0, "Al.Dist. Der.": 25, "Ruta": 20 }, "geometry": { "type": "Point", "coordinates": [ -65.23812, -31.97645 ] } },
{ "type": "Feature", "properties": { "Name": "203.85", "P.K.": null, "Al.Dist. Izq.": 45.0, "Al.Dist. Der.": 25, "Ruta": 20 }, "geometry": { "type": "Point", "coordinates": [ -65.2383131, -31.9766 ] } },
{ "type": "Feature", "properties": { "Name": "203.92", "P.K.": null, "Al.Dist. Izq.": 45.0, "Al.Dist. Der.": 25, "Ruta": 20 }, "geometry": { "type": "Point", "coordinates": [ -65.23853, -31.97719 ] } },
{ "type": "Feature", "properties": { "Name": "203.94", "P.K.": null, "Al.Dist. Izq.": 45.0, "Al.Dist. Der.": 25, "Ruta": 20 }, "geometry": { "type": "Point", "coordinates": [ -65.2385976, -31.9772273 ] } },
{ "type": "Feature", "properties": { "Name": "204", "P.K.": "PK204", "Al.Dist. Izq.": 45.0, "Al.Dist. Der.": 25, "Ruta": 20 }, "geometry": { "type": "Point", "coordinates": [ -65.2390219, -31.9775982 ] } },
{ "type": "Feature", "properties": { "Name": "204.02", "P.K.": null, "Al.Dist. Izq.": 45.0, "Al.Dist. Der.": 25, "Ruta": 20 }, "geometry": { "type": "Point", "coordinates": [ -65.2393134, -31.9776222 ] } },
{ "type": "Feature", "properties": { "Name": "204.05", "P.K.": null, "Al.Dist. Izq.": 45.0, "Al.Dist. Der.": 25, "Ruta": 20 }, "geometry": { "type": "Point", "coordinates": [ -65.2394523, -31.9778351 ] } },
{ "type": "Feature", "properties": { "Name": "204.07", "P.K.": null, "Al.Dist. Izq.": 45.0, "Al.Dist. Der.": 25, "Ruta": 20 }, "geometry": { "type": "Point", "coordinates": [ -65.2396636, -31.9778735 ] } },
{ "type": "Feature", "properties": { "Name": "204.1", "P.K.": null, "Al.Dist. Izq.": 45.0, "Al.Dist. Der.": 25, "Ruta": 20 }, "geometry": { "type": "Point", "coordinates": [ -65.23989, -31.97813 ] } },
{ "type": "Feature", "properties": { "Name": "204.11", "P.K.": null, "Al.Dist. Izq.": 45.0, "Al.Dist. Der.": 25, "Ruta": 20 }, "geometry": { "type": "Point", "coordinates": [ -65.2399859, -31.9781731 ] } },
{ "type": "Feature", "properties": { "Name": "204.11", "P.K.": null, "Al.Dist. Izq.": 45.0, "Al.Dist. Der.": 25, "Ruta": 20 }, "geometry": { "type": "Point", "coordinates": [ -65.2399859, -31.9781731 ] } },
{ "type": "Feature", "properties": { "Name": "204.11", "P.K.": null, "Al.Dist. Izq.": 45.0, "Al.Dist. Der.": 25, "Ruta": 20 }, "geometry": { "type": "Point", "coordinates": [ -65.2399939, -31.9781793 ] } },
{ "type": "Feature", "properties": { "Name": "204.21", "P.K.": null, "Al.Dist. Izq.": 45.0, "Al.Dist. Der.": 25, "Ruta": 20 }, "geometry": { "type": "Point", "coordinates": [ -65.2407604, -31.9789113 ] } },
{ "type": "Feature", "properties": { "Name": "204.23", "P.K.": null, "Al.Dist. Izq.": 45.0, "Al.Dist. Der.": 25, "Ruta": 20 }, "geometry": { "type": "Point", "coordinates": [ -65.2408904, -31.9790413 ] } },
{ "type": "Feature", "properties": { "Name": "204.34", "P.K.": null, "Al.Dist. Izq.": 45.0, "Al.Dist. Der.": 25, "Ruta": 20 }, "geometry": { "type": "Point", "coordinates": [ -65.2416715, -31.9797334 ] } },
{ "type": "Feature", "properties": { "Name": "204.55", "P.K.": null, "Al.Dist. Izq.": 45.0, "Al.Dist. Der.": 25, "Ruta": 20 }, "geometry": { "type": "Point", "coordinates": [ -65.2433042, -31.9812407 ] } },
{ "type": "Feature", "properties": { "Name": "204.55", "P.K.": null, "Al.Dist. Izq.": 45.0, "Al.Dist. Der.": 25, "Ruta": 20 }, "geometry": { "type": "Point", "coordinates": [ -65.2433047, -31.9812411 ] } },
{ "type": "Feature", "properties": { "Name": "204.69", "P.K.": null, "Al.Dist. Izq.": 45.0, "Al.Dist. Der.": 25, "Ruta": 20 }, "geometry": { "type": "Point", "coordinates": [ -65.2443152, -31.9821755 ] } },
{ "type": "Feature", "properties": { "Name": "204.9", "P.K.": null, "Al.Dist. Izq.": 45.0, "Al.Dist. Der.": 25, "Ruta": 20 }, "geometry": { "type": "Point", "coordinates": [ -65.2458, -31.983652 ] } },
{ "type": "Feature", "properties": { "Name": "204.98", "P.K.": null, "Al.Dist. Izq.": 45.0, "Al.Dist. Der.": 25, "Ruta": 20 }, "geometry": { "type": "Point", "coordinates": [ -65.2457032, -31.9848714 ] } },
{ "type": "Feature", "properties": { "Name": "205", "P.K.": "PK205", "Al.Dist. Izq.": 45.0, "Al.Dist. Der.": 25, "Ruta": 20 }, "geometry": { "type": "Point", "coordinates": [ -65.2465428, -31.9842396 ] } },
{ "type": "Feature", "properties": { "Name": "206", "P.K.": "PK206", "Al.Dist. Izq.": 45.0, "Al.Dist. Der.": 25, "Ruta": 20 }, "geometry": { "type": "Point", "coordinates": [ -65.253195, -31.99048 ] } },
{ "type": "Feature", "properties": { "Name": "206.16", "P.K.": null, "Al.Dist. Izq.": 45.0, "Al.Dist. Der.": 25, "Ruta": 20 }, "geometry": { "type": "Point", "coordinates": [ -65.2543927, -31.9915202 ] } },
{ "type": "Feature", "properties": { "Name": "207", "P.K.": "PK207", "Al.Dist. Izq.": 45.0, "Al.Dist. Der.": 25, "Ruta": 20 }, "geometry": { "type": "Point", "coordinates": [ -65.2603675, -31.9970553 ] } },
{ "type": "Feature", "properties": { "Name": "207.13", "P.K.": null, "Al.Dist. Izq.": 45.0, "Al.Dist. Der.": 25, "Ruta": 20 }, "geometry": { "type": "Point", "coordinates": [ -65.2612875, -31.9978523 ] } },
{ "type": "Feature", "properties": { "Name": "207.82", "P.K.": null, "Al.Dist. Izq.": 45.0, "Al.Dist. Der.": 25, "Ruta": 20 }, "geometry": { "type": "Point", "coordinates": [ -65.26583, -32.0021086 ] } },
{ "type": "Feature", "properties": { "Name": "208", "P.K.": "PK208", "Al.Dist. Izq.": 45.0, "Al.Dist. Der.": 25, "Ruta": 20 }, "geometry": { "type": "Point", "coordinates": [ -65.2670241, -32.0033504 ] } },
{ "type": "Feature", "properties": { "Name": "208.26", "P.K.": null, "Al.Dist. Izq.": 45.0, "Al.Dist. Der.": 25, "Ruta": 20 }, "geometry": { "type": "Point", "coordinates": [ -65.268964, -32.0052377 ] } },
{ "type": "Feature", "properties": { "Name": "208.5", "P.K.": null, "Al.Dist. Izq.": 45.0, "Al.Dist. Der.": 25, "Ruta": 20 }, "geometry": { "type": "Point", "coordinates": [ -65.2709305, -32.0067517 ] } },
{ "type": "Feature", "properties": { "Name": "208.81", "P.K.": null, "Al.Dist. Izq.": 45.0, "Al.Dist. Der.": 25, "Ruta": 20 }, "geometry": { "type": "Point", "coordinates": [ -65.2733454, -32.0089104 ] } },
{ "type": "Feature", "properties": { "Name": "208.82", "P.K.": null, "Al.Dist. Izq.": 45.0, "Al.Dist. Der.": 25, "Ruta": 20 }, "geometry": { "type": "Point", "coordinates": [ -65.2730567, -32.009417 ] } },
{ "type": "Feature", "properties": { "Name": "209", "P.K.": "PK209", "Al.Dist. Izq.": 45.0, "Al.Dist. Der.": 25, "Ruta": 20 }, "geometry": { "type": "Point", "coordinates": [ -65.2747958, -32.0101983 ] } },
{ "type": "Feature", "properties": { "Name": "209.62", "P.K.": null, "Al.Dist. Izq.": 45.0, "Al.Dist. Der.": 25, "Ruta": 20 }, "geometry": { "type": "Point", "coordinates": [ -65.2792942, -32.0138989 ] } },
{ "type": "Feature", "properties": { "Name": "210.01", "P.K.": null, "Al.Dist. Izq.": 45.0, "Al.Dist. Der.": 25, "Ruta": 20 }, "geometry": { "type": "Point", "coordinates": [ -65.2820683, -32.0161749 ] } },
{ "type": "Feature", "properties": { "Name": "210.06", "P.K.": null, "Al.Dist. Izq.": 45.0, "Al.Dist. Der.": 25, "Ruta": 20 }, "geometry": { "type": "Point", "coordinates": [ -65.2822809, -32.0167133 ] } },
{ "type": "Feature", "properties": { "Name": "210.36", "P.K.": null, "Al.Dist. Izq.": 45.0, "Al.Dist. Der.": 25, "Ruta": 20 }, "geometry": { "type": "Point", "coordinates": [ -65.28437, -32.01855 ] } },
{ "type": "Feature", "properties": { "Name": "210.51", "P.K.": null, "Al.Dist. Izq.": 45.0, "Al.Dist. Der.": 25, "Ruta": 20 }, "geometry": { "type": "Point", "coordinates": [ -65.2854117, -32.0195669 ] } },
{ "type": "Feature", "properties": { "Name": "210.6", "P.K.": null, "Al.Dist. Izq.": 45.0, "Al.Dist. Der.": 25, "Ruta": 20 }, "geometry": { "type": "Point", "coordinates": [ -65.286213, -32.0199151 ] } },
{ "type": "Feature", "properties": { "Name": "210.68", "P.K.": null, "Al.Dist. Izq.": 45.0, "Al.Dist. Der.": 25, "Ruta": 20 }, "geometry": { "type": "Point", "coordinates": [ -65.28693, -32.02022 ] } },
{ "type": "Feature", "properties": { "Name": "210.86", "P.K.": null, "Al.Dist. Izq.": 45.0, "Al.Dist. Der.": 25, "Ruta": 20 }, "geometry": { "type": "Point", "coordinates": [ -65.2886125, -32.0209706 ] } },
{ "type": "Feature", "properties": { "Name": "211", "P.K.": "PK211", "Al.Dist. Izq.": 45.0, "Al.Dist. Der.": 25, "Ruta": 20 }, "geometry": { "type": "Point", "coordinates": [ -65.2899369, -32.0212685 ] } },
{ "type": "Feature", "properties": { "Name": "211.68", "P.K.": null, "Al.Dist. Izq.": 45.0, "Al.Dist. Der.": 25, "Ruta": 20 }, "geometry": { "type": "Point", "coordinates": [ -65.2966186, -32.023685 ] } },
{ "type": "Feature", "properties": { "Name": "212", "P.K.": "PK212", "Al.Dist. Izq.": 45.0, "Al.Dist. Der.": 25, "Ruta": 20 }, "geometry": { "type": "Point", "coordinates": [ -65.2997326, -32.0247244 ] } },
{ "type": "Feature", "properties": { "Name": "212.39", "P.K.": null, "Al.Dist. Izq.": 45.0, "Al.Dist. Der.": 25, "Ruta": 20 }, "geometry": { "type": "Point", "coordinates": [ -65.3059084, -32.0268862 ] } },
{ "type": "Feature", "properties": { "Name": "213", "P.K.": "PK213", "Al.Dist. Izq.": 45.0, "Al.Dist. Der.": 25, "Ruta": 20 }, "geometry": { "type": "Point", "coordinates": [ -65.3156804, -32.030321 ] } },
{ "type": "Feature", "properties": { "Name": "214", "P.K.": "PK214", "Al.Dist. Izq.": 45.0, "Al.Dist. Der.": 25, "Ruta": 20 }, "geometry": { "type": "Point", "coordinates": [ -65.3188803, -32.0315384 ] } },
{ "type": "Feature", "properties": { "Name": "214.13", "P.K.": null, "Al.Dist. Izq.": 45.0, "Al.Dist. Der.": 25, "Ruta": 20 }, "geometry": { "type": "Point", "coordinates": [ -65.320163, -32.0319593 ] } },
{ "type": "Feature", "properties": { "Name": "214.27", "P.K.": null, "Al.Dist. Izq.": 45.0, "Al.Dist. Der.": 25, "Ruta": 20 }, "geometry": { "type": "Point", "coordinates": [ -65.3214793, -32.0324499 ] } },
{ "type": "Feature", "properties": { "Name": "214.27", "P.K.": null, "Al.Dist. Izq.": 45.0, "Al.Dist. Der.": 25, "Ruta": 20 }, "geometry": { "type": "Point", "coordinates": [ -65.3215092, -32.0324391 ] } },
{ "type": "Feature", "properties": { "Name": "214.45", "P.K.": null, "Al.Dist. Izq.": 45.0, "Al.Dist. Der.": 25, "Ruta": 20 }, "geometry": { "type": "Point", "coordinates": [ -65.3232804, -32.0331392 ] } },
{ "type": "Feature", "properties": { "Name": "214.58", "P.K.": null, "Al.Dist. Izq.": 45.0, "Al.Dist. Der.": 25, "Ruta": 20 }, "geometry": { "type": "Point", "coordinates": [ -65.3246745, -32.0336496 ] } },
{ "type": "Feature", "properties": { "Name": "214.61", "P.K.": null, "Al.Dist. Izq.": 45.0, "Al.Dist. Der.": 25, "Ruta": 20 }, "geometry": { "type": "Point", "coordinates": [ -65.3249575, -32.0336596 ] } },
{ "type": "Feature", "properties": { "Name": "214.62", "P.K.": null, "Al.Dist. Izq.": 45.0, "Al.Dist. Der.": 25, "Ruta": 20 }, "geometry": { "type": "Point", "coordinates": [ -65.3251016, -32.0336749 ] } },
{ "type": "Feature", "properties": { "Name": "214.64", "P.K.": null, "Al.Dist. Izq.": 45.0, "Al.Dist. Der.": 25, "Ruta": 20 }, "geometry": { "type": "Point", "coordinates": [ -65.3252553, -32.0337552 ] } },
{ "type": "Feature", "properties": { "Name": "214.69", "P.K.": null, "Al.Dist. Izq.": 45.0, "Al.Dist. Der.": 25, "Ruta": 20 }, "geometry": { "type": "Point", "coordinates": [ -65.325723, -32.0340213 ] } },
{ "type": "Feature", "properties": { "Name": "214.7", "P.K.": null, "Al.Dist. Izq.": 45.0, "Al.Dist. Der.": 25, "Ruta": 20 }, "geometry": { "type": "Point", "coordinates": [ -65.3258443, -32.0339832 ] } },
{ "type": "Feature", "properties": { "Name": "214.72", "P.K.": null, "Al.Dist. Izq.": 45.0, "Al.Dist. Der.": 25, "Ruta": 20 }, "geometry": { "type": "Point", "coordinates": [ -65.3260322, -32.0340754 ] } },
{ "type": "Feature", "properties": { "Name": "214.75", "P.K.": null, "Al.Dist. Izq.": 45.0, "Al.Dist. Der.": 25, "Ruta": 20 }, "geometry": { "type": "Point", "coordinates": [ -65.3262946, -32.0341585 ] } },
{ "type": "Feature", "properties": { "Name": "214.75", "P.K.": null, "Al.Dist. Izq.": 45.0, "Al.Dist. Der.": 25, "Ruta": 20 }, "geometry": { "type": "Point", "coordinates": [ -65.3262426, -32.0342025 ] } },
{ "type": "Feature", "properties": { "Name": "214.76", "P.K.": null, "Al.Dist. Izq.": 45.0, "Al.Dist. Der.": 25, "Ruta": 20 }, "geometry": { "type": "Point", "coordinates": [ -65.3263532, -32.0343653 ] } },
{ "type": "Feature", "properties": { "Name": "214.78", "P.K.": null, "Al.Dist. Izq.": 45.0, "Al.Dist. Der.": 25, "Ruta": 20 }, "geometry": { "type": "Point", "coordinates": [ -65.3265876, -32.0342852 ] } },
{ "type": "Feature", "properties": { "Name": "214.83", "P.K.": null, "Al.Dist. Izq.": 45.0, "Al.Dist. Der.": 25, "Ruta": 20 }, "geometry": { "type": "Point", "coordinates": [ -65.3271041, -32.0344443 ] } },
{ "type": "Feature", "properties": { "Name": "214.9", "P.K.": null, "Al.Dist. Izq.": 45.0, "Al.Dist. Der.": 25, "Ruta": 20 }, "geometry": { "type": "Point", "coordinates": [ -65.3277353, -32.0347166 ] } },
{ "type": "Feature", "properties": { "Name": "214.91", "P.K.": null, "Al.Dist. Izq.": 45.0, "Al.Dist. Der.": 25, "Ruta": 20 }, "geometry": { "type": "Point", "coordinates": [ -65.3278234, -32.0346961 ] } },
{ "type": "Feature", "properties": { "Name": "214.92", "P.K.": null, "Al.Dist. Izq.": 45.0, "Al.Dist. Der.": 25, "Ruta": 20 }, "geometry": { "type": "Point", "coordinates": [ -65.3279021, -32.0348426 ] } },
{ "type": "Feature", "properties": { "Name": "214.94", "P.K.": null, "Al.Dist. Izq.": 45.0, "Al.Dist. Der.": 25, "Ruta": 20 }, "geometry": { "type": "Point", "coordinates": [ -65.3281034, -32.0348709 ] } }
]
}
