{
"type": "FeatureCollection",
"name": "MOJONES RN A005",
"crs": { "type": "name", "properties": { "name": "urn:ogc:def:crs:OGC:1.3:CRS84" } },
"features": [
{ "type": "Feature", "properties": { "Name": "0", "P.K.": null, "Al.Dist. Izq.": null, "Al.Dist. Der.": null, "Ruta": "A005" }, "geometry": { "type": "Point", "coordinates": [ -64.379171, -33.163411 ] } },
{ "type": "Feature", "properties": { "Name": "0.04", "P.K.": null, "Al.Dist. Izq.": null, "Al.Dist. Der.": null, "Ruta": "A005" }, "geometry": { "type": "Point", "coordinates": [ -64.37966933, -33.16335236 ] } },
{ "type": "Feature", "properties": { "Name": "0.05", "P.K.": null, "Al.Dist. Izq.": null, "Al.Dist. Der.": null, "Ruta": "A005" }, "geometry": { "type": "Point", "coordinates": [ -64.37938627, -33.16309966 ] } },
{ "type": "Feature", "properties": { "Name": "0.05", "P.K.": null, "Al.Dist. Izq.": 65, "Al.Dist. Der.": 35, "Ruta": "A005" }, "geometry": { "type": "Point", "coordinates": [ -64.37938627, -33.16309966 ] } },
{ "type": "Feature", "properties": { "Name": "0.07", "P.K.": null, "Al.Dist. Izq.": 65, "Al.Dist. Der.": 35, "Ruta": "A005" }, "geometry": { "type": "Point", "coordinates": [ -64.37933262, -33.16303455 ] } },
{ "type": "Feature", "properties": { "Name": "0.27", "P.K.": null, "Al.Dist. Izq.": 65, "Al.Dist. Der.": 35, "Ruta": "A005" }, "geometry": { "type": "Point", "coordinates": [ -64.3803943, -33.16159705 ] } },
{ "type": "Feature", "properties": { "Name": "0.3", "P.K.": null, "Al.Dist. Izq.": 65, "Al.Dist. Der.": 35, "Ruta": "A005" }, "geometry": { "type": "Point", "coordinates": [ -64.38056267, -33.16128791 ] } },
{ "type": "Feature", "properties": { "Name": "0.3", "P.K.": null, "Al.Dist. Izq.": 65, "Al.Dist. Der.": 35, "Ruta": "A005" }, "geometry": { "type": "Point", "coordinates": [ -64.38056267, -33.16128791 ] } },
{ "type": "Feature", "properties": { "Name": "0.42", "P.K.": null, "Al.Dist. Izq.": 65, "Al.Dist. Der.": 35, "Ruta": "A005" }, "geometry": { "type": "Point", "coordinates": [ -64.38087758, -33.16038896 ] } },
{ "type": "Feature", "properties": { "Name": "0.46", "P.K.": null, "Al.Dist. Izq.": 65, "Al.Dist. Der.": 35, "Ruta": "A005" }, "geometry": { "type": "Point", "coordinates": [ -64.38108999, -33.16014889 ] } },
{ "type": "Feature", "properties": { "Name": "0.49", "P.K.": null, "Al.Dist. Izq.": 65, "Al.Dist. Der.": 35, "Ruta": "A005" }, "geometry": { "type": "Point", "coordinates": [ -64.38114915, -33.15984697 ] } },
{ "type": "Feature", "properties": { "Name": "0.54", "P.K.": null, "Al.Dist. Izq.": 65, "Al.Dist. Der.": 35, "Ruta": "A005" }, "geometry": { "type": "Point", "coordinates": [ -64.38129835, -33.15937207 ] } },
{ "type": "Feature", "properties": { "Name": "0.62", "P.K.": null, "Al.Dist. Izq.": 65, "Al.Dist. Der.": 35, "Ruta": "A005" }, "geometry": { "type": "Point", "coordinates": [ -64.38171161, -33.15894445 ] } },
{ "type": "Feature", "properties": { "Name": "0.63", "P.K.": null, "Al.Dist. Izq.": 65, "Al.Dist. Der.": 35, "Ruta": "A005" }, "geometry": { "type": "Point", "coordinates": [ -64.38176807, -33.15881296 ] } },
{ "type": "Feature", "properties": { "Name": "0.68", "P.K.": null, "Al.Dist. Izq.": 65, "Al.Dist. Der.": 35, "Ruta": "A005" }, "geometry": { "type": "Point", "coordinates": [ -64.38195264, -33.15840542 ] } },
{ "type": "Feature", "properties": { "Name": "0.76", "P.K.": null, "Al.Dist. Izq.": 65, "Al.Dist. Der.": 35, "Ruta": "A005" }, "geometry": { "type": "Point", "coordinates": [ -64.38225959, -33.15785275 ] } },
{ "type": "Feature", "properties": { "Name": "0.88", "P.K.": null, "Al.Dist. Izq.": 65, "Al.Dist. Der.": 35, "Ruta": "A005" }, "geometry": { "type": "Point", "coordinates": [ -64.38272242, -33.15690064 ] } },
{ "type": "Feature", "properties": { "Name": "0.89", "P.K.": null, "Al.Dist. Izq.": 65, "Al.Dist. Der.": 35, "Ruta": "A005" }, "geometry": { "type": "Point", "coordinates": [ -64.3828775, -33.15691471 ] } },
{ "type": "Feature", "properties": { "Name": "0.97", "P.K.": null, "Al.Dist. Izq.": 65, "Al.Dist. Der.": 35, "Ruta": "A005" }, "geometry": { "type": "Point", "coordinates": [ -64.3831417, -33.15631263 ] } },
{ "type": "Feature", "properties": { "Name": "1", "P.K.": "PK1", "Al.Dist. Izq.": 65, "Al.Dist. Der.": 35, "Ruta": "A005" }, "geometry": { "type": "Point", "coordinates": [ -64.38300826, -33.15596879 ] } },
{ "type": "Feature", "properties": { "Name": "1.01", "P.K.": null, "Al.Dist. Izq.": 65, "Al.Dist. Der.": 35, "Ruta": "A005" }, "geometry": { "type": "Point", "coordinates": [ -64.38324731, -33.1559803 ] } },
{ "type": "Feature", "properties": { "Name": "1.04", "P.K.": null, "Al.Dist. Izq.": 65, "Al.Dist. Der.": 35, "Ruta": "A005" }, "geometry": { "type": "Point", "coordinates": [ -64.38321512, -33.15566116 ] } },
{ "type": "Feature", "properties": { "Name": "1.07", "P.K.": null, "Al.Dist. Izq.": 65, "Al.Dist. Der.": 35, "Ruta": "A005" }, "geometry": { "type": "Point", "coordinates": [ -64.38337002, -33.15547169 ] } },
{ "type": "Feature", "properties": { "Name": "1.13", "P.K.": null, "Al.Dist. Izq.": 65, "Al.Dist. Der.": 35, "Ruta": "A005" }, "geometry": { "type": "Point", "coordinates": [ -64.38347764, -33.15496168 ] } },
{ "type": "Feature", "properties": { "Name": "1.14", "P.K.": null, "Al.Dist. Izq.": 65, "Al.Dist. Der.": 35, "Ruta": "A005" }, "geometry": { "type": "Point", "coordinates": [ -64.383424, -33.15485389 ] } },
{ "type": "Feature", "properties": { "Name": "1.31", "P.K.": null, "Al.Dist. Izq.": 65, "Al.Dist. Der.": 35, "Ruta": "A005" }, "geometry": { "type": "Point", "coordinates": [ -64.38381493, -33.15368649 ] } },
{ "type": "Feature", "properties": { "Name": "1.35", "P.K.": null, "Al.Dist. Izq.": 65, "Al.Dist. Der.": 35, "Ruta": "A005" }, "geometry": { "type": "Point", "coordinates": [ -64.38380186, -33.1532152 ] } },
{ "type": "Feature", "properties": { "Name": "1.36", "P.K.": null, "Al.Dist. Izq.": 65, "Al.Dist. Der.": 35, "Ruta": "A005" }, "geometry": { "type": "Point", "coordinates": [ -64.38379746, -33.15312429 ] } },
{ "type": "Feature", "properties": { "Name": "1.43", "P.K.": null, "Al.Dist. Izq.": 65, "Al.Dist. Der.": 35, "Ruta": "A005" }, "geometry": { "type": "Point", "coordinates": [ -64.38390646, -33.1526465 ] } },
{ "type": "Feature", "properties": { "Name": "1.49", "P.K.": null, "Al.Dist. Izq.": 65, "Al.Dist. Der.": 35, "Ruta": "A005" }, "geometry": { "type": "Point", "coordinates": [ -64.38389305, -33.15206321 ] } },
{ "type": "Feature", "properties": { "Name": "1.63", "P.K.": null, "Al.Dist. Izq.": 65, "Al.Dist. Der.": 35, "Ruta": "A005" }, "geometry": { "type": "Point", "coordinates": [ -64.38381359, -33.15101816 ] } },
{ "type": "Feature", "properties": { "Name": "1.79", "P.K.": null, "Al.Dist. Izq.": 65, "Al.Dist. Der.": 35, "Ruta": "A005" }, "geometry": { "type": "Point", "coordinates": [ -64.38381024, -33.14961575 ] } },
{ "type": "Feature", "properties": { "Name": "2", "P.K.": "PK2", "Al.Dist. Izq.": 65, "Al.Dist. Der.": 35, "Ruta": "A005" }, "geometry": { "type": "Point", "coordinates": [ -64.3838317, -33.14794636 ] } },
{ "type": "Feature", "properties": { "Name": "2.01", "P.K.": null, "Al.Dist. Izq.": 65, "Al.Dist. Der.": 35, "Ruta": "A005" }, "geometry": { "type": "Point", "coordinates": [ -64.38388065, -33.14784558 ] } },
{ "type": "Feature", "properties": { "Name": "2.02", "P.K.": null, "Al.Dist. Izq.": 65, "Al.Dist. Der.": 35, "Ruta": "A005" }, "geometry": { "type": "Point", "coordinates": [ -64.38373111, -33.14775519 ] } },
{ "type": "Feature", "properties": { "Name": "2.06", "P.K.": null, "Al.Dist. Izq.": 65, "Al.Dist. Der.": 35, "Ruta": "A005" }, "geometry": { "type": "Point", "coordinates": [ -64.38377436, -33.14724794 ] } },
{ "type": "Feature", "properties": { "Name": "2.1", "P.K.": null, "Al.Dist. Izq.": 65, "Al.Dist. Der.": 35, "Ruta": "A005" }, "geometry": { "type": "Point", "coordinates": [ -64.38386723, -33.14692062 ] } },
{ "type": "Feature", "properties": { "Name": "2.14", "P.K.": null, "Al.Dist. Izq.": 65, "Al.Dist. Der.": 35, "Ruta": "A005" }, "geometry": { "type": "Point", "coordinates": [ -64.38384309, -33.14664215 ] } },
{ "type": "Feature", "properties": { "Name": "2.14", "P.K.": null, "Al.Dist. Izq.": 65, "Al.Dist. Der.": 35, "Ruta": "A005" }, "geometry": { "type": "Point", "coordinates": [ -64.38401073, -33.1465891 ] } },
{ "type": "Feature", "properties": { "Name": "2.15", "P.K.": null, "Al.Dist. Izq.": 65, "Al.Dist. Der.": 35, "Ruta": "A005" }, "geometry": { "type": "Point", "coordinates": [ -64.38397251, -33.14646193 ] } },
{ "type": "Feature", "properties": { "Name": "2.15", "P.K.": null, "Al.Dist. Izq.": 65, "Al.Dist. Der.": 35, "Ruta": "A005" }, "geometry": { "type": "Point", "coordinates": [ -64.38418608, -33.14647035 ] } },
{ "type": "Feature", "properties": { "Name": "2.15", "P.K.": null, "Al.Dist. Izq.": 65, "Al.Dist. Der.": 35, "Ruta": "A005" }, "geometry": { "type": "Point", "coordinates": [ -64.38381996, -33.14647372 ] } },
{ "type": "Feature", "properties": { "Name": "2.16", "P.K.": null, "Al.Dist. Izq.": 65, "Al.Dist. Der.": 35, "Ruta": "A005" }, "geometry": { "type": "Point", "coordinates": [ -64.38405633, -33.14620507 ] } },
{ "type": "Feature", "properties": { "Name": "2.19", "P.K.": null, "Al.Dist. Izq.": 65, "Al.Dist. Der.": 35, "Ruta": "A005" }, "geometry": { "type": "Point", "coordinates": [ -64.38374452, -33.14614725 ] } },
{ "type": "Feature", "properties": { "Name": "2.24", "P.K.": null, "Al.Dist. Izq.": 65, "Al.Dist. Der.": 35, "Ruta": "A005" }, "geometry": { "type": "Point", "coordinates": [ -64.38400168, -33.14574918 ] } },
{ "type": "Feature", "properties": { "Name": "2.24", "P.K.": null, "Al.Dist. Izq.": 65, "Al.Dist. Der.": 35, "Ruta": "A005" }, "geometry": { "type": "Point", "coordinates": [ -64.38415792, -33.14579522 ] } },
{ "type": "Feature", "properties": { "Name": "2.24", "P.K.": null, "Al.Dist. Izq.": 65, "Al.Dist. Der.": 35, "Ruta": "A005" }, "geometry": { "type": "Point", "coordinates": [ -64.38401341, -33.14568041 ] } },
{ "type": "Feature", "properties": { "Name": "2.25", "P.K.": null, "Al.Dist. Izq.": 65, "Al.Dist. Der.": 35, "Ruta": "A005" }, "geometry": { "type": "Point", "coordinates": [ -64.38413814, -33.14551731 ] } },
{ "type": "Feature", "properties": { "Name": "2.28", "P.K.": null, "Al.Dist. Izq.": 65, "Al.Dist. Der.": 35, "Ruta": "A005" }, "geometry": { "type": "Point", "coordinates": [ -64.38402917, -33.14520037 ] } },
{ "type": "Feature", "properties": { "Name": "2.32", "P.K.": null, "Al.Dist. Izq.": 65, "Al.Dist. Der.": 35, "Ruta": "A005" }, "geometry": { "type": "Point", "coordinates": [ -64.38395944, -33.14489242 ] } },
{ "type": "Feature", "properties": { "Name": "2.35", "P.K.": null, "Al.Dist. Izq.": 65, "Al.Dist. Der.": 35, "Ruta": "A005" }, "geometry": { "type": "Point", "coordinates": [ -64.38393798, -33.14468019 ] } },
{ "type": "Feature", "properties": { "Name": "2.49", "P.K.": null, "Al.Dist. Izq.": 65, "Al.Dist. Der.": 35, "Ruta": "A005" }, "geometry": { "type": "Point", "coordinates": [ -64.38380688, -33.14319768 ] } },
{ "type": "Feature", "properties": { "Name": "2.56", "P.K.": null, "Al.Dist. Izq.": 65, "Al.Dist. Der.": 35, "Ruta": "A005" }, "geometry": { "type": "Point", "coordinates": [ -64.38385047, -33.14245458 ] } },
{ "type": "Feature", "properties": { "Name": "2.73", "P.K.": null, "Al.Dist. Izq.": 65, "Al.Dist. Der.": 35, "Ruta": "A005" }, "geometry": { "type": "Point", "coordinates": [ -64.38382834, -33.14081931 ] } },
{ "type": "Feature", "properties": { "Name": "2.79", "P.K.": null, "Al.Dist. Izq.": 65, "Al.Dist. Der.": 35, "Ruta": "A005" }, "geometry": { "type": "Point", "coordinates": [ -64.3839011, -33.14020028 ] } },
{ "type": "Feature", "properties": { "Name": "2.9", "P.K.": null, "Al.Dist. Izq.": 65, "Al.Dist. Der.": 35, "Ruta": "A005" }, "geometry": { "type": "Point", "coordinates": [ -64.3839192, -33.1391068 ] } },
{ "type": "Feature", "properties": { "Name": "2.96", "P.K.": null, "Al.Dist. Izq.": 65, "Al.Dist. Der.": 35, "Ruta": "A005" }, "geometry": { "type": "Point", "coordinates": [ -64.38377, -33.13850938 ] } },
{ "type": "Feature", "properties": { "Name": "3", "P.K.": "PK3", "Al.Dist. Izq.": 65, "Al.Dist. Der.": 35, "Ruta": "A005" }, "geometry": { "type": "Point", "coordinates": [ -64.38381929, -33.13813851 ] } },
{ "type": "Feature", "properties": { "Name": "3.03", "P.K.": null, "Al.Dist. Izq.": 65, "Al.Dist. Der.": 35, "Ruta": "A005" }, "geometry": { "type": "Point", "coordinates": [ -64.38407075, -33.13789342 ] } },
{ "type": "Feature", "properties": { "Name": "3.11", "P.K.": null, "Al.Dist. Izq.": 65, "Al.Dist. Der.": 35, "Ruta": "A005" }, "geometry": { "type": "Point", "coordinates": [ -64.38394636, -33.13725472 ] } },
{ "type": "Feature", "properties": { "Name": "3.13", "P.K.": null, "Al.Dist. Izq.": 65, "Al.Dist. Der.": 35, "Ruta": "A005" }, "geometry": { "type": "Point", "coordinates": [ -64.38377369, -33.13711266 ] } },
{ "type": "Feature", "properties": { "Name": "3.17", "P.K.": null, "Al.Dist. Izq.": 65, "Al.Dist. Der.": 35, "Ruta": "A005" }, "geometry": { "type": "Point", "coordinates": [ -64.38397151, -33.1368176 ] } },
{ "type": "Feature", "properties": { "Name": "3.18", "P.K.": null, "Al.Dist. Izq.": 65, "Al.Dist. Der.": 35, "Ruta": "A005" }, "geometry": { "type": "Point", "coordinates": [ -64.38377101, -33.13663539 ] } },
{ "type": "Feature", "properties": { "Name": "3.28", "P.K.": null, "Al.Dist. Izq.": 65, "Al.Dist. Der.": 35, "Ruta": "A005" }, "geometry": { "type": "Point", "coordinates": [ -64.38408114, -33.13590235 ] } },
{ "type": "Feature", "properties": { "Name": "3.31", "P.K.": null, "Al.Dist. Izq.": 65, "Al.Dist. Der.": 35, "Ruta": "A005" }, "geometry": { "type": "Point", "coordinates": [ -64.38402984, -33.13563255 ] } },
{ "type": "Feature", "properties": { "Name": "3.38", "P.K.": null, "Al.Dist. Izq.": 65, "Al.Dist. Der.": 35, "Ruta": "A005" }, "geometry": { "type": "Point", "coordinates": [ -64.38369859, -33.13498934 ] } },
{ "type": "Feature", "properties": { "Name": "3.38", "P.K.": null, "Al.Dist. Izq.": 65, "Al.Dist. Der.": 35, "Ruta": "A005" }, "geometry": { "type": "Point", "coordinates": [ -64.38369859, -33.13498934 ] } },
{ "type": "Feature", "properties": { "Name": "3.4", "P.K.": null, "Al.Dist. Izq.": 65, "Al.Dist. Der.": 35, "Ruta": "A005" }, "geometry": { "type": "Point", "coordinates": [ -64.38395742, -33.13482706 ] } },
{ "type": "Feature", "properties": { "Name": "3.46", "P.K.": null, "Al.Dist. Izq.": 65, "Al.Dist. Der.": 35, "Ruta": "A005" }, "geometry": { "type": "Point", "coordinates": [ -64.38390646, -33.13438038 ] } },
{ "type": "Feature", "properties": { "Name": "3.48", "P.K.": null, "Al.Dist. Izq.": 65, "Al.Dist. Der.": 35, "Ruta": "A005" }, "geometry": { "type": "Point", "coordinates": [ -64.38387059, -33.13417683 ] } },
{ "type": "Feature", "properties": { "Name": "3.66", "P.K.": null, "Al.Dist. Izq.": 65, "Al.Dist. Der.": 35, "Ruta": "A005" }, "geometry": { "type": "Point", "coordinates": [ -64.38400235, -33.13262787 ] } },
{ "type": "Feature", "properties": { "Name": "3.68", "P.K.": null, "Al.Dist. Izq.": 65, "Al.Dist. Der.": 35, "Ruta": "A005" }, "geometry": { "type": "Point", "coordinates": [ -64.38380715, -33.13247125 ] } },
{ "type": "Feature", "properties": { "Name": "3.95", "P.K.": null, "Al.Dist. Izq.": 65, "Al.Dist. Der.": 35, "Ruta": "A005" }, "geometry": { "type": "Point", "coordinates": [ -64.38380305, -33.13021268 ] } },
{ "type": "Feature", "properties": { "Name": "4.03", "P.K.": null, "Al.Dist. Izq.": 65, "Al.Dist. Der.": 35, "Ruta": "A005" }, "geometry": { "type": "Point", "coordinates": [ -64.383815, -33.12948998 ] } },
{ "type": "Feature", "properties": { "Name": "4.1", "P.K.": null, "Al.Dist. Izq.": 65, "Al.Dist. Der.": 35, "Ruta": "A005" }, "geometry": { "type": "Point", "coordinates": [ -64.38407879, -33.12895486 ] } },
{ "type": "Feature", "properties": { "Name": "4.26", "P.K.": null, "Al.Dist. Izq.": 65, "Al.Dist. Der.": 35, "Ruta": "A005" }, "geometry": { "type": "Point", "coordinates": [ -64.38381393, -33.1275667 ] } },
{ "type": "Feature", "properties": { "Name": "4.29", "P.K.": null, "Al.Dist. Izq.": 65, "Al.Dist. Der.": 35, "Ruta": "A005" }, "geometry": { "type": "Point", "coordinates": [ -64.3838317, -33.12730922 ] } },
{ "type": "Feature", "properties": { "Name": "4.3", "P.K.": null, "Al.Dist. Izq.": 65, "Al.Dist. Der.": 35, "Ruta": "A005" }, "geometry": { "type": "Point", "coordinates": [ -64.3839534, -33.1272483 ] } },
{ "type": "Feature", "properties": { "Name": "4.49", "P.K.": null, "Al.Dist. Izq.": 65, "Al.Dist. Der.": 35, "Ruta": "A005" }, "geometry": { "type": "Point", "coordinates": [ -64.38375123, -33.12559027 ] } },
{ "type": "Feature", "properties": { "Name": "4.59", "P.K.": null, "Al.Dist. Izq.": 65, "Al.Dist. Der.": 35, "Ruta": "A005" }, "geometry": { "type": "Point", "coordinates": [ -64.38381995, -33.12479189 ] } },
{ "type": "Feature", "properties": { "Name": "4.73", "P.K.": null, "Al.Dist. Izq.": 65, "Al.Dist. Der.": 35, "Ruta": "A005" }, "geometry": { "type": "Point", "coordinates": [ -64.38378476, -33.12353097 ] } },
{ "type": "Feature", "properties": { "Name": "4.77", "P.K.": null, "Al.Dist. Izq.": 65, "Al.Dist. Der.": 35, "Ruta": "A005" }, "geometry": { "type": "Point", "coordinates": [ -64.38363053, -33.1232732 ] } },
{ "type": "Feature", "properties": { "Name": "4.89", "P.K.": null, "Al.Dist. Izq.": 65, "Al.Dist. Der.": 35, "Ruta": "A005" }, "geometry": { "type": "Point", "coordinates": [ -64.38351936, -33.12220067 ] } },
{ "type": "Feature", "properties": { "Name": "4.91", "P.K.": null, "Al.Dist. Izq.": 65, "Al.Dist. Der.": 35, "Ruta": "A005" }, "geometry": { "type": "Point", "coordinates": [ -64.38348033, -33.12199559 ] } },
{ "type": "Feature", "properties": { "Name": "5", "P.K.": "PK5", "Al.Dist. Izq.": 65, "Al.Dist. Der.": 35, "Ruta": "A005" }, "geometry": { "type": "Point", "coordinates": [ -64.38319232, -33.12139384 ] } },
{ "type": "Feature", "properties": { "Name": "5.08", "P.K.": null, "Al.Dist. Izq.": 65, "Al.Dist. Der.": 35, "Ruta": "A005" }, "geometry": { "type": "Point", "coordinates": [ -64.38301262, -33.12059945 ] } },
{ "type": "Feature", "properties": { "Name": "5.24", "P.K.": null, "Al.Dist. Izq.": 65, "Al.Dist. Der.": 35, "Ruta": "A005" }, "geometry": { "type": "Point", "coordinates": [ -64.38253921, -33.11927687 ] } },
{ "type": "Feature", "properties": { "Name": "5.34", "P.K.": null, "Al.Dist. Izq.": 65, "Al.Dist. Der.": 35, "Ruta": "A005" }, "geometry": { "type": "Point", "coordinates": [ -64.38218147, -33.11841816 ] } },
{ "type": "Feature", "properties": { "Name": "5.37", "P.K.": null, "Al.Dist. Izq.": 65, "Al.Dist. Der.": 35, "Ruta": "A005" }, "geometry": { "type": "Point", "coordinates": [ -64.38206747, -33.11813735 ] } },
{ "type": "Feature", "properties": { "Name": "5.42", "P.K.": null, "Al.Dist. Izq.": 65, "Al.Dist. Der.": 35, "Ruta": "A005" }, "geometry": { "type": "Point", "coordinates": [ -64.38192532, -33.1177358 ] } },
{ "type": "Feature", "properties": { "Name": "5.57", "P.K.": null, "Al.Dist. Izq.": 65, "Al.Dist. Der.": 35, "Ruta": "A005" }, "geometry": { "type": "Point", "coordinates": [ -64.38151795, -33.1164171 ] } },
{ "type": "Feature", "properties": { "Name": "5.61", "P.K.": null, "Al.Dist. Izq.": 65, "Al.Dist. Der.": 35, "Ruta": "A005" }, "geometry": { "type": "Point", "coordinates": [ -64.38145595, -33.11606602 ] } },
{ "type": "Feature", "properties": { "Name": "5.63", "P.K.": null, "Al.Dist. Izq.": 65, "Al.Dist. Der.": 35, "Ruta": "A005" }, "geometry": { "type": "Point", "coordinates": [ -64.38141469, -33.11593269 ] } },
{ "type": "Feature", "properties": { "Name": "5.66", "P.K.": null, "Al.Dist. Izq.": 65, "Al.Dist. Der.": 35, "Ruta": "A005" }, "geometry": { "type": "Point", "coordinates": [ -64.38140061, -33.11549687 ] } },
{ "type": "Feature", "properties": { "Name": "5.68", "P.K.": null, "Al.Dist. Izq.": 65, "Al.Dist. Der.": 35, "Ruta": "A005" }, "geometry": { "type": "Point", "coordinates": [ -64.38118871, -33.1155505 ] } },
{ "type": "Feature", "properties": { "Name": "5.69", "P.K.": null, "Al.Dist. Izq.": 65, "Al.Dist. Der.": 35, "Ruta": "A005" }, "geometry": { "type": "Point", "coordinates": [ -64.38115225, -33.11542743 ] } },
{ "type": "Feature", "properties": { "Name": "5.69", "P.K.": null, "Al.Dist. Izq.": 65, "Al.Dist. Der.": 35, "Ruta": "A005" }, "geometry": { "type": "Point", "coordinates": [ -64.38135803, -33.11536544 ] } },
{ "type": "Feature", "properties": { "Name": "5.75", "P.K.": null, "Al.Dist. Izq.": 65, "Al.Dist. Der.": 35, "Ruta": "A005" }, "geometry": { "type": "Point", "coordinates": [ -64.38128326, -33.11479033 ] } },
{ "type": "Feature", "properties": { "Name": "5.81", "P.K.": null, "Al.Dist. Izq.": 65, "Al.Dist. Der.": 35, "Ruta": "A005" }, "geometry": { "type": "Point", "coordinates": [ -64.38114412, -33.11429861 ] } },
{ "type": "Feature", "properties": { "Name": "5.83", "P.K.": null, "Al.Dist. Izq.": 65, "Al.Dist. Der.": 35, "Ruta": "A005" }, "geometry": { "type": "Point", "coordinates": [ -64.38104857, -33.11412871 ] } },
{ "type": "Feature", "properties": { "Name": "5.87", "P.K.": null, "Al.Dist. Izq.": 65, "Al.Dist. Der.": 35, "Ruta": "A005" }, "geometry": { "type": "Point", "coordinates": [ -64.38095167, -33.11374174 ] } },
{ "type": "Feature", "properties": { "Name": "5.88", "P.K.": null, "Al.Dist. Izq.": 65, "Al.Dist. Der.": 35, "Ruta": "A005" }, "geometry": { "type": "Point", "coordinates": [ -64.38092083, -33.11368726 ] } },
{ "type": "Feature", "properties": { "Name": "5.9", "P.K.": null, "Al.Dist. Izq.": 65, "Al.Dist. Der.": 35, "Ruta": "A005" }, "geometry": { "type": "Point", "coordinates": [ -64.38087523, -33.1135095 ] } },
{ "type": "Feature", "properties": { "Name": "5.93", "P.K.": null, "Al.Dist. Izq.": 65, "Al.Dist. Der.": 35, "Ruta": "A005" }, "geometry": { "type": "Point", "coordinates": [ -64.38081656, -33.11324552 ] } },
{ "type": "Feature", "properties": { "Name": "5.95", "P.K.": null, "Al.Dist. Izq.": 65, "Al.Dist. Der.": 35, "Ruta": "A005" }, "geometry": { "type": "Point", "coordinates": [ -64.38072301, -33.11306355 ] } },
{ "type": "Feature", "properties": { "Name": "5.98", "P.K.": null, "Al.Dist. Izq.": 65, "Al.Dist. Der.": 35, "Ruta": "A005" }, "geometry": { "type": "Point", "coordinates": [ -64.38071363, -33.11283074 ] } },
{ "type": "Feature", "properties": { "Name": "6", "P.K.": "PK6", "Al.Dist. Izq.": 65, "Al.Dist. Der.": 35, "Ruta": "A005" }, "geometry": { "type": "Point", "coordinates": [ -64.38058958, -33.11264287 ] } },
{ "type": "Feature", "properties": { "Name": "6.08", "P.K.": null, "Al.Dist. Izq.": 65, "Al.Dist. Der.": 35, "Ruta": "A005" }, "geometry": { "type": "Point", "coordinates": [ -64.37998205, -33.11196439 ] } },
{ "type": "Feature", "properties": { "Name": "6.09", "P.K.": null, "Al.Dist. Izq.": 65, "Al.Dist. Der.": 35, "Ruta": "A005" }, "geometry": { "type": "Point", "coordinates": [ -64.38008029, -33.1118324 ] } },
{ "type": "Feature", "properties": { "Name": "6.13", "P.K.": null, "Al.Dist. Izq.": 65, "Al.Dist. Der.": 35, "Ruta": "A005" }, "geometry": { "type": "Point", "coordinates": [ -64.38015807, -33.11138841 ] } },
{ "type": "Feature", "properties": { "Name": "6.15", "P.K.": null, "Al.Dist. Izq.": 65, "Al.Dist. Der.": 35, "Ruta": "A005" }, "geometry": { "type": "Point", "coordinates": [ -64.37985163, -33.11125024 ] } },
{ "type": "Feature", "properties": { "Name": "6.18", "P.K.": null, "Al.Dist. Izq.": 65, "Al.Dist. Der.": 35, "Ruta": "A005" }, "geometry": { "type": "Point", "coordinates": [ -64.37970813, -33.11096997 ] } },
{ "type": "Feature", "properties": { "Name": "6.22", "P.K.": null, "Al.Dist. Izq.": 65, "Al.Dist. Der.": 35, "Ruta": "A005" }, "geometry": { "type": "Point", "coordinates": [ -64.37958777, -33.11062595 ] } },
{ "type": "Feature", "properties": { "Name": "6.24", "P.K.": null, "Al.Dist. Izq.": 65, "Al.Dist. Der.": 35, "Ruta": "A005" }, "geometry": { "type": "Point", "coordinates": [ -64.3797762, -33.11021313 ] } },
{ "type": "Feature", "properties": { "Name": "6.25", "P.K.": null, "Al.Dist. Izq.": 65, "Al.Dist. Der.": 35, "Ruta": "A005" }, "geometry": { "type": "Point", "coordinates": [ -64.37963001, -33.11026227 ] } },
{ "type": "Feature", "properties": { "Name": "6.4", "P.K.": null, "Al.Dist. Izq.": 65, "Al.Dist. Der.": 35, "Ruta": "A005" }, "geometry": { "type": "Point", "coordinates": [ -64.37916566, -33.10871627 ] } },
{ "type": "Feature", "properties": { "Name": "6.46", "P.K.": null, "Al.Dist. Izq.": 65, "Al.Dist. Der.": 35, "Ruta": "A005" }, "geometry": { "type": "Point", "coordinates": [ -64.37889777, -33.10818604 ] } },
{ "type": "Feature", "properties": { "Name": "6.46", "P.K.": null, "Al.Dist. Izq.": 65, "Al.Dist. Der.": 35, "Ruta": "A005" }, "geometry": { "type": "Point", "coordinates": [ -64.37889777, -33.10818604 ] } },
{ "type": "Feature", "properties": { "Name": "6.47", "P.K.": null, "Al.Dist. Izq.": 65, "Al.Dist. Der.": 35, "Ruta": "A005" }, "geometry": { "type": "Point", "coordinates": [ -64.37871605, -33.1081206 ] } },
{ "type": "Feature", "properties": { "Name": "6.49", "P.K.": null, "Al.Dist. Izq.": 65, "Al.Dist. Der.": 35, "Ruta": "A005" }, "geometry": { "type": "Point", "coordinates": [ -64.3786228, -33.10794087 ] } },
{ "type": "Feature", "properties": { "Name": "6.51", "P.K.": null, "Al.Dist. Izq.": 65, "Al.Dist. Der.": 35, "Ruta": "A005" }, "geometry": { "type": "Point", "coordinates": [ -64.37858362, -33.10780634 ] } },
{ "type": "Feature", "properties": { "Name": "6.54", "P.K.": null, "Al.Dist. Izq.": 65, "Al.Dist. Der.": 35, "Ruta": "A005" }, "geometry": { "type": "Point", "coordinates": [ -64.37840257, -33.10747382 ] } },
{ "type": "Feature", "properties": { "Name": "6.6", "P.K.": null, "Al.Dist. Izq.": 65, "Al.Dist. Der.": 35, "Ruta": "A005" }, "geometry": { "type": "Point", "coordinates": [ -64.37831133, -33.10695063 ] } },
{ "type": "Feature", "properties": { "Name": "6.6", "P.K.": null, "Al.Dist. Izq.": 65, "Al.Dist. Der.": 35, "Ruta": "A005" }, "geometry": { "type": "Point", "coordinates": [ -64.37831133, -33.10695063 ] } },
{ "type": "Feature", "properties": { "Name": "6.61", "P.K.": null, "Al.Dist. Izq.": 65, "Al.Dist. Der.": 35, "Ruta": "A005" }, "geometry": { "type": "Point", "coordinates": [ -64.37825438, -33.10682198 ] } },
{ "type": "Feature", "properties": { "Name": "6.67", "P.K.": null, "Al.Dist. Izq.": 65, "Al.Dist. Der.": 35, "Ruta": "A005" }, "geometry": { "type": "Point", "coordinates": [ -64.37811758, -33.10619429 ] } },
{ "type": "Feature", "properties": { "Name": "6.78", "P.K.": null, "Al.Dist. Izq.": 65, "Al.Dist. Der.": 35, "Ruta": "A005" }, "geometry": { "type": "Point", "coordinates": [ -64.37764719, -33.10509112 ] } },
{ "type": "Feature", "properties": { "Name": "6.89", "P.K.": null, "Al.Dist. Izq.": 65, "Al.Dist. Der.": 35, "Ruta": "A005" }, "geometry": { "type": "Point", "coordinates": [ -64.3774581, -33.1040705 ] } },
{ "type": "Feature", "properties": { "Name": "6.93", "P.K.": null, "Al.Dist. Izq.": 65, "Al.Dist. Der.": 35, "Ruta": "A005" }, "geometry": { "type": "Point", "coordinates": [ -64.37726833, -33.10361832 ] } },
{ "type": "Feature", "properties": { "Name": "7", "P.K.": "PK7", "Al.Dist. Izq.": 65, "Al.Dist. Der.": 35, "Ruta": "A005" }, "geometry": { "type": "Point", "coordinates": [ -64.37691428, -33.10299173 ] } },
{ "type": "Feature", "properties": { "Name": "7.03", "P.K.": null, "Al.Dist. Izq.": 65, "Al.Dist. Der.": 35, "Ruta": "A005" }, "geometry": { "type": "Point", "coordinates": [ -64.37682856, -33.10268622 ] } },
{ "type": "Feature", "properties": { "Name": "7.44", "P.K.": null, "Al.Dist. Izq.": 65, "Al.Dist. Der.": 35, "Ruta": "A005" }, "geometry": { "type": "Point", "coordinates": [ -64.3739159, -33.09988736 ] } },
{ "type": "Feature", "properties": { "Name": "7.6", "P.K.": null, "Al.Dist. Izq.": 65, "Al.Dist. Der.": 35, "Ruta": "A005" }, "geometry": { "type": "Point", "coordinates": [ -64.37240046, -33.09907565 ] } },
{ "type": "Feature", "properties": { "Name": "7.72", "P.K.": null, "Al.Dist. Izq.": 65, "Al.Dist. Der.": 35, "Ruta": "A005" }, "geometry": { "type": "Point", "coordinates": [ -64.37118968, -33.09860951 ] } },
{ "type": "Feature", "properties": { "Name": "7.72", "P.K.": null, "Al.Dist. Izq.": null, "Al.Dist. Der.": null, "Ruta": "A005" }, "geometry": { "type": "Point", "coordinates": [ -64.37118968, -33.09860951 ] } },
{ "type": "Feature", "properties": { "Name": "7.83", "P.K.": null, "Al.Dist. Izq.": null, "Al.Dist. Der.": null, "Ruta": "A005" }, "geometry": { "type": "Point", "coordinates": [ -64.37007294, -33.09820352 ] } },
{ "type": "Feature", "properties": { "Name": "7.98", "P.K.": null, "Al.Dist. Izq.": null, "Al.Dist. Der.": null, "Ruta": "A005" }, "geometry": { "type": "Point", "coordinates": [ -64.36859608, -33.09761652 ] } },
{ "type": "Feature", "properties": { "Name": "8", "P.K.": "PK8", "Al.Dist. Izq.": null, "Al.Dist. Der.": null, "Ruta": "A005" }, "geometry": { "type": "Point", "coordinates": [ -64.3684214, -33.0973862 ] } },
{ "type": "Feature", "properties": { "Name": "8.03", "P.K.": null, "Al.Dist. Izq.": null, "Al.Dist. Der.": null, "Ruta": "A005" }, "geometry": { "type": "Point", "coordinates": [ -64.36814815, -33.09727722 ] } },
{ "type": "Feature", "properties": { "Name": "8.03", "P.K.": null, "Al.Dist. Izq.": null, "Al.Dist. Der.": null, "Ruta": "A005" }, "geometry": { "type": "Point", "coordinates": [ -64.36794866, -33.09738395 ] } },
{ "type": "Feature", "properties": { "Name": "8.06", "P.K.": null, "Al.Dist. Izq.": null, "Al.Dist. Der.": null, "Ruta": "A005" }, "geometry": { "type": "Point", "coordinates": [ -64.36776962, -33.09715251 ] } },
{ "type": "Feature", "properties": { "Name": "8.09", "P.K.": null, "Al.Dist. Izq.": null, "Al.Dist. Der.": null, "Ruta": "A005" }, "geometry": { "type": "Point", "coordinates": [ -64.36732505, -33.0971233 ] } },
{ "type": "Feature", "properties": { "Name": "8.11", "P.K.": null, "Al.Dist. Izq.": null, "Al.Dist. Der.": null, "Ruta": "A005" }, "geometry": { "type": "Point", "coordinates": [ -64.36711114, -33.0969646 ] } },
{ "type": "Feature", "properties": { "Name": "8.13", "P.K.": null, "Al.Dist. Izq.": null, "Al.Dist. Der.": null, "Ruta": "A005" }, "geometry": { "type": "Point", "coordinates": [ -64.36694719, -33.09691011 ] } },
{ "type": "Feature", "properties": { "Name": "8.14", "P.K.": null, "Al.Dist. Izq.": null, "Al.Dist. Der.": null, "Ruta": "A005" }, "geometry": { "type": "Point", "coordinates": [ -64.36673732, -33.09680536 ] } },
{ "type": "Feature", "properties": { "Name": "8.15", "P.K.": null, "Al.Dist. Izq.": null, "Al.Dist. Der.": null, "Ruta": "A005" }, "geometry": { "type": "Point", "coordinates": [ -64.36671753, -33.09689017 ] } },
{ "type": "Feature", "properties": { "Name": "8.16", "P.K.": null, "Al.Dist. Izq.": null, "Al.Dist. Der.": null, "Ruta": "A005" }, "geometry": { "type": "Point", "coordinates": [ -64.36650261, -33.09671631 ] } },
{ "type": "Feature", "properties": { "Name": "8.18", "P.K.": null, "Al.Dist. Izq.": null, "Al.Dist. Der.": null, "Ruta": "A005" }, "geometry": { "type": "Point", "coordinates": [ -64.36632726, -33.09677248 ] } },
{ "type": "Feature", "properties": { "Name": "8.22", "P.K.": null, "Al.Dist. Izq.": null, "Al.Dist. Der.": null, "Ruta": "A005" }, "geometry": { "type": "Point", "coordinates": [ -64.36598126, -33.09654048 ] } },
{ "type": "Feature", "properties": { "Name": "8.22", "P.K.": null, "Al.Dist. Izq.": null, "Al.Dist. Der.": null, "Ruta": "A005" }, "geometry": { "type": "Point", "coordinates": [ -64.36603691, -33.09642363 ] } },
{ "type": "Feature", "properties": { "Name": "8.23", "P.K.": null, "Al.Dist. Izq.": null, "Al.Dist. Der.": null, "Ruta": "A005" }, "geometry": { "type": "Point", "coordinates": [ -64.36588638, -33.09642279 ] } },
{ "type": "Feature", "properties": { "Name": "8.28", "P.K.": null, "Al.Dist. Izq.": null, "Al.Dist. Der.": null, "Ruta": "A005" }, "geometry": { "type": "Point", "coordinates": [ -64.36546393, -33.09616635 ] } },
{ "type": "Feature", "properties": { "Name": "8.32", "P.K.": null, "Al.Dist. Izq.": null, "Al.Dist. Der.": null, "Ruta": "A005" }, "geometry": { "type": "Point", "coordinates": [ -64.36488457, -33.0959408 ] } },
{ "type": "Feature", "properties": { "Name": "8.48", "P.K.": null, "Al.Dist. Izq.": null, "Al.Dist. Der.": null, "Ruta": "A005" }, "geometry": { "type": "Point", "coordinates": [ -64.36296447, -33.09532416 ] } },
{ "type": "Feature", "properties": { "Name": "8.56", "P.K.": null, "Al.Dist. Izq.": null, "Al.Dist. Der.": null, "Ruta": "A005" }, "geometry": { "type": "Point", "coordinates": [ -64.36217554, -33.09478357 ] } },
{ "type": "Feature", "properties": { "Name": "8.62", "P.K.": null, "Al.Dist. Izq.": null, "Al.Dist. Der.": null, "Ruta": "A005" }, "geometry": { "type": "Point", "coordinates": [ -64.36140239, -33.09474425 ] } },
{ "type": "Feature", "properties": { "Name": "8.68", "P.K.": null, "Al.Dist. Izq.": null, "Al.Dist. Der.": null, "Ruta": "A005" }, "geometry": { "type": "Point", "coordinates": [ -64.36061416, -33.09436505 ] } },
{ "type": "Feature", "properties": { "Name": "8.71", "P.K.": null, "Al.Dist. Izq.": null, "Al.Dist. Der.": null, "Ruta": "A005" }, "geometry": { "type": "Point", "coordinates": [ -64.360369, -33.094179 ] } },
{ "type": "Feature", "properties": { "Name": "8.79", "P.K.": null, "Al.Dist. Izq.": null, "Al.Dist. Der.": null, "Ruta": "A005" }, "geometry": { "type": "Point", "coordinates": [ -64.35945166, -33.09382521 ] } },
{ "type": "Feature", "properties": { "Name": "8.79", "P.K.": null, "Al.Dist. Izq.": 65, "Al.Dist. Der.": 35, "Ruta": "A005" }, "geometry": { "type": "Point", "coordinates": [ -64.35945166, -33.09382521 ] } },
{ "type": "Feature", "properties": { "Name": "9", "P.K.": "PK9", "Al.Dist. Izq.": 65, "Al.Dist. Der.": 35, "Ruta": "A005" }, "geometry": { "type": "Point", "coordinates": [ -64.35700223, -33.09286034 ] } },
{ "type": "Feature", "properties": { "Name": "9.03", "P.K.": null, "Al.Dist. Izq.": 65, "Al.Dist. Der.": 35, "Ruta": "A005" }, "geometry": { "type": "Point", "coordinates": [ -64.35666496, -33.09269263 ] } },
{ "type": "Feature", "properties": { "Name": "9.04", "P.K.": null, "Al.Dist. Izq.": 65, "Al.Dist. Der.": 35, "Ruta": "A005" }, "geometry": { "type": "Point", "coordinates": [ -64.35669076, -33.09260248 ] } },
{ "type": "Feature", "properties": { "Name": "9.06", "P.K.": null, "Al.Dist. Izq.": 65, "Al.Dist. Der.": 35, "Ruta": "A005" }, "geometry": { "type": "Point", "coordinates": [ -64.35646478, -33.09257102 ] } },
{ "type": "Feature", "properties": { "Name": "9.15", "P.K.": null, "Al.Dist. Izq.": 65, "Al.Dist. Der.": 35, "Ruta": "A005" }, "geometry": { "type": "Point", "coordinates": [ -64.35553037, -33.092248 ] } },
{ "type": "Feature", "properties": { "Name": "9.18", "P.K.": null, "Al.Dist. Izq.": 65, "Al.Dist. Der.": 35, "Ruta": "A005" }, "geometry": { "type": "Point", "coordinates": [ -64.35529836, -33.09207356 ] } },
{ "type": "Feature", "properties": { "Name": "9.33", "P.K.": null, "Al.Dist. Izq.": 65, "Al.Dist. Der.": 35, "Ruta": "A005" }, "geometry": { "type": "Point", "coordinates": [ -64.35382314, -33.09154548 ] } },
{ "type": "Feature", "properties": { "Name": "9.35", "P.K.": null, "Al.Dist. Izq.": 65, "Al.Dist. Der.": 35, "Ruta": "A005" }, "geometry": { "type": "Point", "coordinates": [ -64.35356498, -33.09135335 ] } },
{ "type": "Feature", "properties": { "Name": "9.36", "P.K.": null, "Al.Dist. Izq.": 65, "Al.Dist. Der.": 35, "Ruta": "A005" }, "geometry": { "type": "Point", "coordinates": [ -64.35347275, -33.09143567 ] } },
{ "type": "Feature", "properties": { "Name": "9.41", "P.K.": null, "Al.Dist. Izq.": 65, "Al.Dist. Der.": 35, "Ruta": "A005" }, "geometry": { "type": "Point", "coordinates": [ -64.35309693, -33.09102442 ] } },
{ "type": "Feature", "properties": { "Name": "9.45", "P.K.": null, "Al.Dist. Izq.": 65, "Al.Dist. Der.": 35, "Ruta": "A005" }, "geometry": { "type": "Point", "coordinates": [ -64.35267362, -33.09105706 ] } },
{ "type": "Feature", "properties": { "Name": "9.53", "P.K.": null, "Al.Dist. Izq.": 65, "Al.Dist. Der.": 35, "Ruta": "A005" }, "geometry": { "type": "Point", "coordinates": [ -64.35188592, -33.09063763 ] } },
{ "type": "Feature", "properties": { "Name": "9.57", "P.K.": null, "Al.Dist. Izq.": 65, "Al.Dist. Der.": 35, "Ruta": "A005" }, "geometry": { "type": "Point", "coordinates": [ -64.35148493, -33.09050364 ] } },
{ "type": "Feature", "properties": { "Name": "9.63", "P.K.": null, "Al.Dist. Izq.": 65, "Al.Dist. Der.": 35, "Ruta": "A005" }, "geometry": { "type": "Point", "coordinates": [ -64.35087338, -33.09031544 ] } },
{ "type": "Feature", "properties": { "Name": "9.64", "P.K.": null, "Al.Dist. Izq.": 65, "Al.Dist. Der.": 35, "Ruta": "A005" }, "geometry": { "type": "Point", "coordinates": [ -64.35077246, -33.09033454 ] } },
{ "type": "Feature", "properties": { "Name": "9.65", "P.K.": null, "Al.Dist. Izq.": 65, "Al.Dist. Der.": 35, "Ruta": "A005" }, "geometry": { "type": "Point", "coordinates": [ -64.35075335, -33.09029184 ] } },
{ "type": "Feature", "properties": { "Name": "9.73", "P.K.": null, "Al.Dist. Izq.": 65, "Al.Dist. Der.": 35, "Ruta": "A005" }, "geometry": { "type": "Point", "coordinates": [ -64.35001072, -33.08992948 ] } },
{ "type": "Feature", "properties": { "Name": "9.97", "P.K.": null, "Al.Dist. Izq.": 65, "Al.Dist. Der.": 35, "Ruta": "A005" }, "geometry": { "type": "Point", "coordinates": [ -64.34749703, -33.08899681 ] } },
{ "type": "Feature", "properties": { "Name": "10", "P.K.": "PK10", "Al.Dist. Izq.": 65, "Al.Dist. Der.": 35, "Ruta": "A005" }, "geometry": { "type": "Point", "coordinates": [ -64.34728459, -33.08880054 ] } },
{ "type": "Feature", "properties": { "Name": "10.07", "P.K.": null, "Al.Dist. Izq.": 65, "Al.Dist. Der.": 35, "Ruta": "A005" }, "geometry": { "type": "Point", "coordinates": [ -64.34672266, -33.08858818 ] } },
{ "type": "Feature", "properties": { "Name": "10.08", "P.K.": null, "Al.Dist. Izq.": 65, "Al.Dist. Der.": 35, "Ruta": "A005" }, "geometry": { "type": "Point", "coordinates": [ -64.34654597, -33.08862189 ] } },
{ "type": "Feature", "properties": { "Name": "10.2", "P.K.": null, "Al.Dist. Izq.": 65, "Al.Dist. Der.": 35, "Ruta": "A005" }, "geometry": { "type": "Point", "coordinates": [ -64.34558788, -33.08817721 ] } },
{ "type": "Feature", "properties": { "Name": "10.32", "P.K.": null, "Al.Dist. Izq.": 65, "Al.Dist. Der.": 35, "Ruta": "A005" }, "geometry": { "type": "Point", "coordinates": [ -64.34470363, -33.08778198 ] } },
{ "type": "Feature", "properties": { "Name": "10.49", "P.K.": null, "Al.Dist. Izq.": 65, "Al.Dist. Der.": 35, "Ruta": "A005" }, "geometry": { "type": "Point", "coordinates": [ -64.34333839, -33.08701145 ] } },
{ "type": "Feature", "properties": { "Name": "10.67", "P.K.": null, "Al.Dist. Izq.": 65, "Al.Dist. Der.": 35, "Ruta": "A005" }, "geometry": { "type": "Point", "coordinates": [ -64.34229869, -33.08598445 ] } },
{ "type": "Feature", "properties": { "Name": "10.71", "P.K.": null, "Al.Dist. Izq.": 65, "Al.Dist. Der.": 35, "Ruta": "A005" }, "geometry": { "type": "Point", "coordinates": [ -64.34210874, -33.08569049 ] } },
{ "type": "Feature", "properties": { "Name": "10.82", "P.K.": null, "Al.Dist. Izq.": 65, "Al.Dist. Der.": 35, "Ruta": "A005" }, "geometry": { "type": "Point", "coordinates": [ -64.3415169, -33.08496759 ] } },
{ "type": "Feature", "properties": { "Name": "10.96", "P.K.": null, "Al.Dist. Izq.": 65, "Al.Dist. Der.": 35, "Ruta": "A005" }, "geometry": { "type": "Point", "coordinates": [ -64.34108682, -33.08390263 ] } },
{ "type": "Feature", "properties": { "Name": "11", "P.K.": "PK11", "Al.Dist. Izq.": 65, "Al.Dist. Der.": 35, "Ruta": "A005" }, "geometry": { "type": "Point", "coordinates": [ -64.34094988, -33.08375061 ] } },
{ "type": "Feature", "properties": { "Name": "11.04", "P.K.": null, "Al.Dist. Izq.": 65, "Al.Dist. Der.": 35, "Ruta": "A005" }, "geometry": { "type": "Point", "coordinates": [ -64.34076715, -33.08335339 ] } },
{ "type": "Feature", "properties": { "Name": "11.15", "P.K.": null, "Al.Dist. Izq.": 65, "Al.Dist. Der.": 35, "Ruta": "A005" }, "geometry": { "type": "Point", "coordinates": [ -64.34059516, -33.08245753 ] } },
{ "type": "Feature", "properties": { "Name": "11.22", "P.K.": null, "Al.Dist. Izq.": 65, "Al.Dist. Der.": 35, "Ruta": "A005" }, "geometry": { "type": "Point", "coordinates": [ -64.34051234, -33.08190045 ] } },
{ "type": "Feature", "properties": { "Name": "11.23", "P.K.": null, "Al.Dist. Izq.": 65, "Al.Dist. Der.": 35, "Ruta": "A005" }, "geometry": { "type": "Point", "coordinates": [ -64.34080873, -33.08187264 ] } },
{ "type": "Feature", "properties": { "Name": "11.27", "P.K.": null, "Al.Dist. Izq.": 65, "Al.Dist. Der.": 35, "Ruta": "A005" }, "geometry": { "type": "Point", "coordinates": [ -64.34067491, -33.08143111 ] } },
{ "type": "Feature", "properties": { "Name": "11.3", "P.K.": null, "Al.Dist. Izq.": 65, "Al.Dist. Der.": 35, "Ruta": "A005" }, "geometry": { "type": "Point", "coordinates": [ -64.34112389, -33.08119505 ] } },
{ "type": "Feature", "properties": { "Name": "11.35", "P.K.": null, "Al.Dist. Izq.": 65, "Al.Dist. Der.": 35, "Ruta": "A005" }, "geometry": { "type": "Point", "coordinates": [ -64.34065349, -33.08086131 ] } },
{ "type": "Feature", "properties": { "Name": "11.35", "P.K.": null, "Al.Dist. Izq.": 65, "Al.Dist. Der.": 35, "Ruta": "A005" }, "geometry": { "type": "Point", "coordinates": [ -64.34047815, -33.08090625 ] } },
{ "type": "Feature", "properties": { "Name": "11.4", "P.K.": null, "Al.Dist. Izq.": 65, "Al.Dist. Der.": 35, "Ruta": "A005" }, "geometry": { "type": "Point", "coordinates": [ -64.34023, -33.080491 ] } }
]
}
