{
"type": "FeatureCollection",
"name": "PATRIMONIO",
"crs": { "type": "name", "properties": { "name": "urn:ogc:def:crs:OGC:1.3:CRS84" } },
"features": [
{ "type": "Feature", "properties": { "Name": "CT 86 RUBIOLO 565.800" }, "geometry": { "type": "Point", "coordinates": [ -64.183499740750747, -33.986528303305278 ] } },
{ "type": "Feature", "properties": { "Name": "CT. 73 - 15000 m2 - KM 533,400" }, "geometry": { "type": "Point", "coordinates": [ -63.84867012526167, -34.051908077975433 ] } },
{ "type": "Feature", "properties": { "Name": "Bonetto ?" }, "geometry": { "type": "Point", "coordinates": [ -64.142283569504784, -34.000255927922133 ] } },
{ "type": "Feature", "properties": { "Name": "CT 62 CAMPOS Y HACIENDA" }, "geometry": { "type": "Point", "coordinates": [ -63.478172039827001, -34.133716458029532 ] } },
{ "type": "Feature", "properties": { "Name": "CT 75 - 15000 m2 - KM 542.800" }, "geometry": { "type": "Point", "coordinates": [ -63.942454622972761, -34.037927495525267 ] } },
{ "type": "Feature", "properties": { "Name": "Marca Km 460" }, "geometry": { "type": "Point", "coordinates": [ -63.077302953220112, -34.204214550123922 ] } },
{ "type": "Feature", "properties": { "Name": "Km 496 - CT 60" }, "geometry": { "type": "Point", "coordinates": [ -63.457352174865413, -34.136840127150272 ] } },
{ "type": "Feature", "properties": { "Name": "Marca Km 502" }, "geometry": { "type": "Point", "coordinates": [ -63.523021214593037, -34.13314395374131 ] } },
{ "type": "Feature", "properties": { "Name": "Marca Km 510" }, "geometry": { "type": "Point", "coordinates": [ -63.603433613442149, -34.113251330402477 ] } },
{ "type": "Feature", "properties": { "Name": "Marca Km 512" }, "geometry": { "type": "Point", "coordinates": [ -63.619882876550882, -34.109096464309751 ] } },
{ "type": "Feature", "properties": { "Name": "CT 082 LLANOS" }, "geometry": { "type": "Point", "coordinates": [ -64.124854682538711, -34.007251533509283 ] } },
{ "type": "Feature", "properties": { "Name": "LUIS LLANOS CT 82-KM 561.200" }, "geometry": { "type": "Point", "coordinates": [ -64.139437437026416, -34.001039229326388 ] } },
{ "type": "Feature", "properties": { "Name": "Marca Km 506" }, "geometry": { "type": "Point", "coordinates": [ -63.56028444781888, -34.123869391435413 ] } },
{ "type": "Feature", "properties": { "Name": "CT 94 - 3430508" }, "geometry": { "type": "Point", "coordinates": [ -64.433768956192665, -33.928631292286461 ] } },
{ "type": "Feature", "properties": { "Name": "CT 94 - 3430509" }, "geometry": { "type": "Point", "coordinates": [ -64.448332027940197, -33.928758708457067 ] } },
{ "type": "Feature", "properties": { "Name": "CT 94  -  3430510" }, "geometry": { "type": "Point", "coordinates": [ -64.461367095373873, -33.928826125933142 ] } },
{ "type": "Feature", "properties": { "Name": "CT 99  -  3430511" }, "geometry": { "type": "Point", "coordinates": [ -64.464609260422691, -33.928612950082773 ] } },
{ "type": "Feature", "properties": { "Name": "CT 99  -  3430512" }, "geometry": { "type": "Point", "coordinates": [ -64.479404946714595, -33.928954486231902 ] } },
{ "type": "Feature", "properties": { "Name": "CT 107  -  3430513" }, "geometry": { "type": "Point", "coordinates": [ -64.626221678294911, -33.922670508401808 ] } },
{ "type": "Feature", "properties": { "Name": "CT 107  -  3430544" }, "geometry": { "type": "Point", "coordinates": [ -64.645073445673603, -33.920880445808393 ] } },
{ "type": "Feature", "properties": { "Name": "CT 110  -  3430545" }, "geometry": { "type": "Point", "coordinates": [ -64.690107785253304, -33.91466538184558 ] } },
{ "type": "Feature", "properties": { "Name": "CT 110  -  3430546" }, "geometry": { "type": "Point", "coordinates": [ -64.690665783591854, -33.916182001788073 ] } },
{ "type": "Feature", "properties": { "Name": "CT 111  -  3430547" }, "geometry": { "type": "Point", "coordinates": [ -64.707679972740962, -33.911492629651868 ] } },
{ "type": "Feature", "properties": { "Name": "CT 112  -  3430548" }, "geometry": { "type": "Point", "coordinates": [ -64.738984665748845, -33.905523495443717 ] } },
{ "type": "Feature", "properties": { "Name": "CT 112  -  3430549" }, "geometry": { "type": "Point", "coordinates": [ -64.739241703185201, -33.907182499808137 ] } },
{ "type": "Feature", "properties": { "Name": "CT 112  -  3430550" }, "geometry": { "type": "Point", "coordinates": [ -64.776120433339685, -33.902774307154971 ] } },
{ "type": "Feature", "properties": { "Name": "CT 112  -  3430551" }, "geometry": { "type": "Point", "coordinates": [ -64.7764670140118, -33.904198779616642 ] } },
{ "type": "Feature", "properties": { "Name": "CT 112  -  3430552" }, "geometry": { "type": "Point", "coordinates": [ -64.797922234579048, -33.9013284815342 ] } },
{ "type": "Feature", "properties": { "Name": "CT 112  -  3430553" }, "geometry": { "type": "Point", "coordinates": [ -64.798687201916593, -33.902788884755893 ] } },
{ "type": "Feature", "properties": { "Name": "CT 113  -  3430554" }, "geometry": { "type": "Point", "coordinates": [ -64.819366630521657, -33.899939789090837 ] } },
{ "type": "Feature", "properties": { "Name": "CT 113  -  3430555" }, "geometry": { "type": "Point", "coordinates": [ -64.820359312461207, -33.901447582890597 ] } },
{ "type": "Feature", "properties": { "Name": "CT 114  -  3430556" }, "geometry": { "type": "Point", "coordinates": [ -64.877556047026502, -33.902160965110433 ] } },
{ "type": "Feature", "properties": { "Name": "CT 114  -  3430557" }, "geometry": { "type": "Point", "coordinates": [ -64.87593507296063, -33.903645377195247 ] } },
{ "type": "Feature", "properties": { "Name": "CT 114  -  3430558" }, "geometry": { "type": "Point", "coordinates": [ -64.885073377173967, -33.902550591563049 ] } },
{ "type": "Feature", "properties": { "Name": "CT 114  -  3430559" }, "geometry": { "type": "Point", "coordinates": [ -64.883549038920052, -33.903946221453872 ] } },
{ "type": "Feature", "properties": { "Name": "CT 114  -  3430560" }, "geometry": { "type": "Point", "coordinates": [ -64.896729625904698, -33.904484479963003 ] } },
{ "type": "Feature", "properties": { "Name": "CT 114  -  3430561" }, "geometry": { "type": "Point", "coordinates": [ -64.915489528038933, -33.905374570605048 ] } },
{ "type": "Feature", "properties": { "Name": "CT 114  -  3430562" }, "geometry": { "type": "Point", "coordinates": [ -64.927761620792467, -33.905882204069741 ] } },
{ "type": "Feature", "properties": { "Name": "CT 115  -  3430563" }, "geometry": { "type": "Point", "coordinates": [ -64.948333203410996, -33.905671328613828 ] } },
{ "type": "Feature", "properties": { "Name": "CT 115  -  3430564" }, "geometry": { "type": "Point", "coordinates": [ -64.960427459064917, -33.906314632783939 ] } },
{ "type": "Feature", "properties": { "Name": "CT 115  -  3430565" }, "geometry": { "type": "Point", "coordinates": [ -64.960004547236679, -33.907698864340837 ] } },
{ "type": "Feature", "properties": { "Name": "CT 118  -  3430566" }, "geometry": { "type": "Point", "coordinates": [ -65.017488165436461, -33.907283575938337 ] } },
{ "type": "Feature", "properties": { "Name": "CT 118  -  3430567" }, "geometry": { "type": "Point", "coordinates": [ -65.061209914070872, -33.897016793208827 ] } },
{ "type": "Feature", "properties": { "Name": "CT 118  -  3430568" }, "geometry": { "type": "Point", "coordinates": [ -65.070881697531476, -33.894553872690643 ] } },
{ "type": "Feature", "properties": { "Name": "CT 118  -  3430569" }, "geometry": { "type": "Point", "coordinates": [ -65.081464283278564, -33.892068225947959 ] } },
{ "type": "Feature", "properties": { "Name": "March" }, "geometry": { "type": "Point", "coordinates": [ -64.256280810837652, -31.379972145508891 ] } },
{ "type": "Feature", "properties": { "Name": "CT.13326 LUQUE SANTILLAN" }, "geometry": { "type": "Point", "coordinates": [ -64.22626513746016, -31.354638503749829 ] } },
{ "type": "Feature", "properties": { "Name": "CT.13328 LOPEZ" }, "geometry": { "type": "Point", "coordinates": [ -64.226297676587578, -31.354506682426951 ] } },
{ "type": "Feature", "properties": { "Name": "CT.13316 CASONE Y LA FROSSIA" }, "geometry": { "type": "Point", "coordinates": [ -64.226199063113853, -31.354965110095989 ] } },
{ "type": "Feature", "properties": { "Name": "CT.13346" }, "geometry": { "type": "Point", "coordinates": [ -64.226194792867034, -31.355203861262481 ] } },
{ "type": "Feature", "properties": { "Name": "CT.13331" }, "geometry": { "type": "Point", "coordinates": [ -64.226225109734344, -31.355824890085099 ] } },
{ "type": "Feature", "properties": { "Name": "CT.13323" }, "geometry": { "type": "Point", "coordinates": [ -64.226236832840513, -31.356084901292171 ] } },
{ "type": "Feature", "properties": { "Name": "CT.13329" }, "geometry": { "type": "Point", "coordinates": [ -64.226276124099655, -31.356959241153511 ] } },
{ "type": "Feature", "properties": { "Name": "CT.13314" }, "geometry": { "type": "Point", "coordinates": [ -64.22625715234048, -31.357190064942539 ] } },
{ "type": "Feature", "properties": { "Name": "CT.13310" }, "geometry": { "type": "Point", "coordinates": [ -64.226597517755266, -31.357230563120709 ] } },
{ "type": "Feature", "properties": { "Name": "CT.13340" }, "geometry": { "type": "Point", "coordinates": [ -64.226612458960489, -31.35694958850069 ] } },
{ "type": "Feature", "properties": { "Name": "CT.13337" }, "geometry": { "type": "Point", "coordinates": [ -64.226387047518728, -31.356925060037302 ] } },
{ "type": "Feature", "properties": { "Name": "CT.13325" }, "geometry": { "type": "Point", "coordinates": [ -64.226368672325236, -31.356650612885801 ] } },
{ "type": "Feature", "properties": { "Name": "CT.13357" }, "geometry": { "type": "Point", "coordinates": [ -64.22649466667383, -31.35660186887824 ] } },
{ "type": "Feature", "properties": { "Name": "CT.13344" }, "geometry": { "type": "Point", "coordinates": [ -64.226627454725701, -31.35671737613929 ] } },
{ "type": "Feature", "properties": { "Name": "CT.13330" }, "geometry": { "type": "Point", "coordinates": [ -64.226352295037955, -31.35632788325913 ] } },
{ "type": "Feature", "properties": { "Name": "LOTE 11" }, "geometry": { "type": "Point", "coordinates": [ -64.226483344044979, -31.356302553694999 ] } },
{ "type": "Feature", "properties": { "Name": "CT.13338" }, "geometry": { "type": "Point", "coordinates": [ -64.226450765878852, -31.355788432709481 ] } },
{ "type": "Feature", "properties": { "Name": "CT.13316" }, "geometry": { "type": "Point", "coordinates": [ -64.226513706693211, -31.35524546418899 ] } },
{ "type": "Feature", "properties": { "Name": "CT.13316(1)" }, "geometry": { "type": "Point", "coordinates": [ -64.226637137318093, -31.355197819030071 ] } },
{ "type": "Feature", "properties": { "Name": "CT.13316 (2)" }, "geometry": { "type": "Point", "coordinates": [ -64.226846184757974, -31.35492748639146 ] } },
{ "type": "Feature", "properties": { "Name": "CT.13318" }, "geometry": { "type": "Point", "coordinates": [ -64.226729458208467, -31.354951557507 ] } },
{ "type": "Feature", "properties": { "Name": "CT.13319(3)" }, "geometry": { "type": "Point", "coordinates": [ -64.226597051319501, -31.35497863970658 ] } },
{ "type": "Feature", "properties": { "Name": "CT.13316 (4)" }, "geometry": { "type": "Point", "coordinates": [ -64.22646640526375, -31.355011672623679 ] } },
{ "type": "Feature", "properties": { "Name": "CT.13316 (5)" }, "geometry": { "type": "Point", "coordinates": [ -64.226352887394285, -31.354941950362321 ] } },
{ "type": "Feature", "properties": { "Name": "CT.13354" }, "geometry": { "type": "Point", "coordinates": [ -64.227035694540518, -31.354757367756761 ] } },
{ "type": "Feature", "properties": { "Name": "CT.13358" }, "geometry": { "type": "Point", "coordinates": [ -64.227026426363238, -31.35457130398909 ] } },
{ "type": "Feature", "properties": { "Name": "CT.13347" }, "geometry": { "type": "Point", "coordinates": [ -64.226774172799409, -31.354746024221569 ] } },
{ "type": "Feature", "properties": { "Name": "CT.13327" }, "geometry": { "type": "Point", "coordinates": [ -64.226661559887987, -31.35439345327034 ] } },
{ "type": "Feature", "properties": { "Name": "CT.13335" }, "geometry": { "type": "Point", "coordinates": [ -64.227392462689764, -31.35396908933313 ] } },
{ "type": "Feature", "properties": { "Name": "CAMPO LA RESERVA CT 88 KM 571.500" }, "geometry": { "type": "Point", "coordinates": [ -64.24517313218648, -33.965679615819411 ] } },
{ "type": "Feature", "properties": { "Name": "CAMPO LA RESERVA CT 88 KM 573" }, "geometry": { "type": "Point", "coordinates": [ -64.255097613121251, -33.964080017148277 ] } },
{ "type": "Feature", "properties": { "Name": "PLANO 56856-1965" }, "geometry": { "type": "Point", "coordinates": [ -64.340496843, -33.155632488 ] } },
{ "type": "Feature", "properties": { "Name": "F°174 A°1977" }, "geometry": { "type": "Point", "coordinates": [ -64.340526256, -33.155438975 ] } },
{ "type": "Feature", "properties": { "Name": "MFR 850968" }, "geometry": { "type": "Point", "coordinates": [ -64.335351962, -33.153914923 ] } },
{ "type": "Feature", "properties": { "Name": "MFR 850968" }, "geometry": { "type": "Point", "coordinates": [ -64.335366227, -33.154628903 ] } },
{ "type": "Feature", "properties": { "Name": "CT 3132 Nuevo Banco Italiano (Trobbiani)" }, "geometry": { "type": "Point", "coordinates": [ -63.729407235522288, -31.292072148642699 ] } },
{ "type": "Feature", "properties": { "Name": "LOTE 182 - 9952 m2 fraccion N y S - Benjamin Lloveras-CT.1224" }, "geometry": { "type": "Point", "coordinates": [ -64.336876431176663, -33.152574463428088 ] } },
{ "type": "Feature", "properties": { "Name": "MZ 182 Fracc. Sur - Benjamin Lloveras" }, "geometry": { "type": "Point", "coordinates": [ -64.335798665421606, -33.154020168422029 ] } },
{ "type": "Feature", "properties": { "Name": "lOTE 198- Benjamin Lloveras-CT.1224" }, "geometry": { "type": "Point", "coordinates": [ -64.337223259460259, -33.154450149478961 ] } },
{ "type": "Feature", "properties": { "Name": "MZ 137 - 6180 M2 - ayuso rebora CT. 1221" }, "geometry": { "type": "Point", "coordinates": [ -64.334942112774129, -33.153753098930068 ] } },
{ "type": "Feature", "properties": { "Name": "MZ 138 - 2434.10 M2 - Ayuso Rebora CT 1221" }, "geometry": { "type": "Point", "coordinates": [ -64.335117552775287, -33.154376579600843 ] } },
{ "type": "Feature", "properties": { "Name": "Moreno Pedro CT.1294" }, "geometry": { "type": "Point", "coordinates": [ -64.714948036420594, -33.392157267761029 ] } },
{ "type": "Feature", "properties": { "Name": "CT 71 y 72" }, "geometry": { "type": "Point", "coordinates": [ -63.743776756728508, -34.079262601655699 ] } },
{ "type": "Feature", "properties": { "Name": "ARROYITO" }, "geometry": { "type": "Point", "coordinates": [ -63.058911202075713, -31.437193347301189 ] } },
{ "type": "Feature", "properties": { "Name": "QUENON LLOVERAS CT 1223 6126.06 m2" }, "geometry": { "type": "Point", "coordinates": [ -64.337919411075688, -33.153235327015707 ] } },
{ "type": "Feature", "properties": { "Name": "CT 8044 JUAREZ" }, "geometry": { "type": "Point", "coordinates": [ -64.255613085592515, -30.515028276896619 ] } },
{ "type": "Feature", "properties": { "Name": "MARCUZZI DE BROWN?" }, "geometry": { "type": "Point", "coordinates": [ -64.248571795697288, -31.46108245581598 ] } },
{ "type": "Feature", "properties": { "Name": "Marca CT.12722 HEREDIA" }, "geometry": { "type": "Point", "coordinates": [ -64.114532020756329, -31.43491039852556 ] } },
{ "type": "Feature", "properties": { "Name": "CT.12679 HEREDIA LEONARDA" }, "geometry": { "type": "Point", "coordinates": [ -64.117698204172569, -31.436146342321681 ] } },
{ "type": "Feature", "properties": { "Name": "CT 12715 LUCERO" }, "geometry": { "type": "Point", "coordinates": [ -64.115230967879171, -31.435538934179799 ] } },
{ "type": "Feature", "properties": { "Name": "CT 12692 CALABRESE" }, "geometry": { "type": "Point", "coordinates": [ -64.115719001016288, -31.435985396685759 ] } },
{ "type": "Feature", "properties": { "Name": "CT 13142 CHAVEZ" }, "geometry": { "type": "Point", "coordinates": [ -64.117185860626449, -31.43727964132324 ] } },
{ "type": "Feature", "properties": { "Name": "CT. 13172 PAEZ" }, "geometry": { "type": "Point", "coordinates": [ -64.119100578014894, -31.437405535398341 ] } },
{ "type": "Feature", "properties": { "Name": "CT. 12645 LUJAN" }, "geometry": { "type": "Point", "coordinates": [ -64.118873649494901, -31.437190967734011 ] } },
{ "type": "Feature", "properties": { "Name": "CT. 12640 RUSALEN" }, "geometry": { "type": "Point", "coordinates": [ -64.118728011226324, -31.437063245664461 ] } },
{ "type": "Feature", "properties": { "Name": "CT. 12639 ZABALA DE PALACIO" }, "geometry": { "type": "Point", "coordinates": [ -64.118557893074751, -31.436925113501559 ] } },
{ "type": "Feature", "properties": { "Name": "VAUDENS CT. 11283/84" }, "geometry": { "type": "Point", "coordinates": [ -64.18322086259532, -31.309918496301709 ] } },
{ "type": "Feature", "properties": { "Name": "FERNANDEZ FELIPIE CT 11277" }, "geometry": { "type": "Point", "coordinates": [ -64.183122515131771, -31.31070411677484 ] } },
{ "type": "Feature", "properties": { "Name": "FELIPE FERNANDEZ 11277" }, "geometry": { "type": "Point", "coordinates": [ -64.183254766326712, -31.310545759457149 ] } },
{ "type": "Feature", "properties": { "Name": "ALMADA CT.11383" }, "geometry": { "type": "Point", "coordinates": [ -64.183396991469607, -31.3119044027396 ] } },
{ "type": "Feature", "properties": { "Name": "ct 8009 CECARELLI" }, "geometry": { "type": "Point", "coordinates": [ -64.116193357907363, -30.750449095410492 ] } },
{ "type": "Feature", "properties": { "Name": "Basiluk Miguel - CT. 1365 - Id.1482971" }, "geometry": { "type": "Point", "coordinates": [ -63.201617557263788, -33.396911252644777 ] } },
{ "type": "Feature", "properties": { "Name": "CT.11332 MOYANO LUJAN" }, "geometry": { "type": "Point", "coordinates": [ -64.183611824484274, -31.31174457886361 ] } },
{ "type": "Feature", "properties": { "Name": "CT.11330 GARDA" }, "geometry": { "type": "Point", "coordinates": [ -64.183719358424582, -31.311229469071922 ] } },
{ "type": "Feature", "properties": { "Name": "CT.12042 EMPRESA DON BOSCO" }, "geometry": { "type": "Point", "coordinates": [ -64.263818761976609, -31.395532215205229 ] } },
{ "type": "Feature", "properties": { "Name": "COMODATO SOPPELSA VENCIDO" }, "geometry": { "type": "Point", "coordinates": [ -64.239712522601678, -31.356540476699809 ] } },
{ "type": "Feature", "properties": { "Name": "NAPOLI CT.12048" }, "geometry": { "type": "Point", "coordinates": [ -64.262561674556139, -31.395204101664969 ] } },
{ "type": "Feature", "properties": { "Name": "SARACHAGA CT.12049" }, "geometry": { "type": "Point", "coordinates": [ -64.261498350986344, -31.394933793033541 ] } },
{ "type": "Feature", "properties": { "Name": "CECCHIN" }, "geometry": { "type": "Point", "coordinates": [ -64.238966333814403, -31.355728699951548 ] } },
{ "type": "Feature", "properties": { "Name": "CT. 3052 MEDRANO ABEL" }, "geometry": { "type": "Point", "coordinates": [ -64.055213870042763, -31.383218317721202 ] } },
{ "type": "Feature", "properties": { "Name": "CT.3062 VACA ALFREDO" }, "geometry": { "type": "Point", "coordinates": [ -64.055546184435016, -31.383367984248611 ] } },
{ "type": "Feature", "properties": { "Name": "CAVIGIOLO CT. 3057" }, "geometry": { "type": "Point", "coordinates": [ -64.057146508792243, -31.383756123408851 ] } },
{ "type": "Feature", "properties": { "Name": "CT.1305 SCAGLIONI" }, "geometry": { "type": "Point", "coordinates": [ -64.72600565084872, -33.398087834003377 ] } },
{ "type": "Feature", "properties": { "Name": "ct.1304 CARBONARI & BORDESE" }, "geometry": { "type": "Point", "coordinates": [ -64.7240597454377, -33.397228388210593 ] } },
{ "type": "Feature", "properties": { "Name": "CT.1303 CINOTTI & CIA" }, "geometry": { "type": "Point", "coordinates": [ -64.72168861780078, -33.396198154059711 ] } },
{ "type": "Feature", "properties": { "Name": "CT.12094 COMPAÑÍA ESPINOZA AMESPIL I" }, "geometry": { "type": "Point", "coordinates": [ -64.168578072324806, -31.471855940391389 ] } },
{ "type": "Feature", "properties": { "Name": "CT.12118 ROMERO" }, "geometry": { "type": "Point", "coordinates": [ -64.169087335461825, -31.471824882146262 ] } },
{ "type": "Feature", "properties": { "Name": "CT.12117 BARTOLOME NEBBIA" }, "geometry": { "type": "Point", "coordinates": [ -64.16903113677651, -31.471504265320281 ] } },
{ "type": "Feature", "properties": { "Name": "CT.74 10.000M2 3430266" }, "geometry": { "type": "Point", "coordinates": [ -63.880421952124337, -34.045993454186707 ] } },
{ "type": "Feature", "properties": { "Name": "Peaje Piedras Moras" }, "geometry": { "type": "Point", "coordinates": [ -64.26906488092375, -32.144954919207407 ] } },
{ "type": "Feature", "properties": { "Name": "OBRADOR 4" }, "geometry": { "type": "Point", "coordinates": [ -64.339511333283113, -33.053210116377997 ] } },
{ "type": "Feature", "properties": { "Name": "CT.11.401 JUAREZ" }, "geometry": { "type": "Point", "coordinates": [ -64.183095610686237, -31.310846660823788 ] } },
{ "type": "Feature", "properties": { "Name": "CT. 11402 PAVON" }, "geometry": { "type": "Point", "coordinates": [ -64.183624009293098, -31.311151325212361 ] } },
{ "type": "Feature", "properties": { "Name": "CT. 11384 HUERTA" }, "geometry": { "type": "Point", "coordinates": [ -64.183545395259173, -31.311966914157189 ] } },
{ "type": "Feature", "properties": { "Name": "CT.11406 CHAVEZ" }, "geometry": { "type": "Point", "coordinates": [ -64.183027643297677, -31.30919525827807 ] } },
{ "type": "Feature", "properties": { "Name": "CT.11258 MOYANO" }, "geometry": { "type": "Point", "coordinates": [ -64.183525306544894, -31.309992557960619 ] } },
{ "type": "Feature", "properties": { "Name": "km.232.73 Bosquecillo?" }, "geometry": { "type": "Point", "coordinates": [ -63.14091616871459, -31.43478520434196 ] } },
{ "type": "Feature", "properties": { "Name": "CT.11094 METTE Préstamo" }, "geometry": { "type": "Point", "coordinates": [ -64.002523198440116, -30.5558689357315 ] } },
{ "type": "Feature", "properties": { "Name": "CT.1251 RONCHI" }, "geometry": { "type": "Point", "coordinates": [ -64.416981697863363, -33.192712277859478 ] } },
{ "type": "Feature", "properties": { "Name": "Alcorta/Toledo" }, "geometry": { "type": "Point", "coordinates": [ -64.371737343217035, -34.804490336104827 ] } },
{ "type": "Feature", "properties": { "Name": "Km.161 ID.1.482.580 - CT.3099" }, "geometry": { "type": "Point", "coordinates": [ -62.397864299124933, -31.406705373555141 ] } },
{ "type": "Feature", "properties": { "Name": "Caminero Las Peñas CT 11094" }, "geometry": { "type": "Point", "coordinates": [ -64.002486602889434, -30.556183314152431 ] } },
{ "type": "Feature", "properties": { "Name": "Ex Yuspe" }, "geometry": { "type": "Point", "coordinates": [ -64.770181006953081, -31.37756840364807 ] } },
{ "type": "Feature", "properties": { "Name": "Ex Taninga" }, "geometry": { "type": "Point", "coordinates": [ -65.073542929785305, -31.34834430258158 ] } },
{ "type": "Feature", "properties": { "Name": "Ex Las Palmas" }, "geometry": { "type": "Point", "coordinates": [ -65.301661268593691, -31.374510618347951 ] } },
{ "type": "Feature", "properties": { "Name": "LLANOS CT. 082 - KM 559.400" }, "geometry": { "type": "Point", "coordinates": [ -64.124830326871859, -34.005544400248723 ] } },
{ "type": "Feature", "properties": { "Name": "CT 7053 315 m2 S/Alta" }, "geometry": { "type": "Point", "coordinates": [ -64.999001395943537, -30.85620544692275 ] } },
{ "type": "Feature", "properties": { "Name": "T.70 y 69" }, "geometry": { "type": "Point", "coordinates": [ -63.737558614126627, -34.079383626758677 ] } },
{ "type": "Feature", "properties": { "Name": "CT 5115 NIEVA 3" }, "geometry": { "type": "Point", "coordinates": [ -64.386326393543541, -33.94411265653472 ] } },
{ "type": "Feature", "properties": { "Name": "Solicitado por Asociación Mutual Arroyito" }, "geometry": { "type": "Point", "coordinates": [ -63.05884554856614, -31.437251145440381 ] } },
{ "type": "Feature", "properties": { "Name": "Control  3.430.019" }, "geometry": { "type": "Point", "coordinates": [ -63.18462256690448, -32.404616827426743 ] } },
{ "type": "Feature", "properties": { "Name": "Control 3.430.020" }, "geometry": { "type": "Point", "coordinates": [ -63.183909186322907, -32.405798708731133 ] } },
{ "type": "Feature", "properties": { "Name": "Galpon y Oficina 3.428.741/742" }, "geometry": { "type": "Point", "coordinates": [ -64.148526381489603, -32.995006380131173 ] } },
{ "type": "Feature", "properties": { "Name": "galpon y oficina 3.428.744/745" }, "geometry": { "type": "Point", "coordinates": [ -63.344703407778518, -32.448473327240023 ] } },
{ "type": "Feature", "properties": { "Name": "Casa Habitacion  3.428.743" }, "geometry": { "type": "Point", "coordinates": [ -63.34547912149462, -32.449021618075633 ] } },
{ "type": "Feature", "properties": { "Name": "galpon y oficina 3.428.746/747" }, "geometry": { "type": "Point", "coordinates": [ -63.347491703314887, -32.450250551181313 ] } },
{ "type": "Feature", "properties": { "Name": "Bosquecillo Km.600  1.482.661 CT 2266" }, "geometry": { "type": "Point", "coordinates": [ -63.50434702030342, -32.11696014438678 ] } },
{ "type": "Feature", "properties": { "Name": "loteo agra" }, "geometry": { "type": "Point", "coordinates": [ -64.435608838505317, -31.678467587348202 ] } },
{ "type": "Feature", "properties": { "Name": "Lote George" }, "geometry": { "type": "Point", "coordinates": [ -64.545291378011669, -31.78393223374313 ] } },
{ "type": "Feature", "properties": { "Name": "ACOSTA OLMOS CT12674" }, "geometry": { "type": "Point", "coordinates": [ -64.11761108196265, -31.43604330235145 ] } },
{ "type": "Feature", "properties": { "Name": "2562383" }, "geometry": { "type": "Point", "coordinates": [ -64.183588473460347, -31.31344786160658 ] } },
{ "type": "Feature", "properties": { "Name": "GUTIERREZ CT 11382" }, "geometry": { "type": "Point", "coordinates": [ -64.182735455282341, -31.31383461733148 ] } },
{ "type": "Feature", "properties": { "Name": "GORRETA CT.11267 - 478.40 M2" }, "geometry": { "type": "Point", "coordinates": [ -64.183309207628795, -31.313226862359421 ] } },
{ "type": "Feature", "properties": { "Name": "GORRETA CT.11267 - 388.74 M2" }, "geometry": { "type": "Point", "coordinates": [ -64.183521104046449, -31.313311132293041 ] } },
{ "type": "Feature", "properties": { "Name": "GORRETA CT.11267 - 500M2" }, "geometry": { "type": "Point", "coordinates": [ -64.18371524250702, -31.313568394889568 ] } },
{ "type": "Feature", "properties": { "Name": "GORRETA CT. 11267 - 445.17 M2" }, "geometry": { "type": "Point", "coordinates": [ -64.183418782584667, -31.31326680072857 ] } },
{ "type": "Feature", "properties": { "Name": "GORRETA/PEZ CT.11268 - 500M2" }, "geometry": { "type": "Point", "coordinates": [ -64.182647831976865, -31.313552724809821 ] } },
{ "type": "Feature", "properties": { "Name": "2557339 CT.MARTINEZ CT.11273" }, "geometry": { "type": "Point", "coordinates": [ -64.183731653752929, -31.313649882699671 ] } },
{ "type": "Feature", "properties": { "Name": "CT.11395 ANDRADA DE SANCHEZ" }, "geometry": { "type": "Point", "coordinates": [ -64.18274591726086, -31.313239671022639 ] } },
{ "type": "Feature", "properties": { "Name": "CT.11269 RODRIGUEZ" }, "geometry": { "type": "Point", "coordinates": [ -64.182738888888892, -31.313627777777779 ] } },
{ "type": "Feature", "properties": { "Name": "CT. 11270" }, "geometry": { "type": "Point", "coordinates": [ -64.183061111111115, -31.314036111111111 ] } },
{ "type": "Feature", "properties": { "Name": "CT. 11271" }, "geometry": { "type": "Point", "coordinates": [ -64.183139784505983, -31.314007648866699 ] } },
{ "type": "Feature", "properties": { "Name": "CT.11266 - 377.57 m2" }, "geometry": { "type": "Point", "coordinates": [ -64.183716889839189, -31.313419064391422 ] } },
{ "type": "Feature", "properties": { "Name": "CT. 73 - 10000 m2 - KM 534" }, "geometry": { "type": "Point", "coordinates": [ -63.859093012868932, -34.05121604378806 ] } },
{ "type": "Feature", "properties": { "Name": "CT 5115 NIEVAS 1" }, "geometry": { "type": "Point", "coordinates": [ -64.387126747191104, -33.945647924596443 ] } },
{ "type": "Feature", "properties": { "Name": "CT 5115 NIEVAS 2" }, "geometry": { "type": "Point", "coordinates": [ -64.385373378292115, -33.945159045783583 ] } },
{ "type": "Feature", "properties": { "Name": "Riva CT 3121" }, "geometry": { "type": "Point", "coordinates": [ -63.869770112613352, -31.32585222161735 ] } },
{ "type": "Feature", "properties": { "Name": "El 80 - Km. 682- Id.1.482.947" }, "geometry": { "type": "Point", "coordinates": [ -64.028659018734885, -31.53609990041452 ] } },
{ "type": "Feature", "properties": { "Name": "Bosq. Km 677 - 1.482.939" }, "geometry": { "type": "Point", "coordinates": [ -63.993041092094771, -31.571280980839241 ] } },
{ "type": "Feature", "properties": { "Name": "Bosq. Km.428 - 1.482.498" }, "geometry": { "type": "Point", "coordinates": [ -61.919154472997619, -32.719628110573723 ] } },
{ "type": "Feature", "properties": { "Name": "Parque Km. 428 - 1.482.858" }, "geometry": { "type": "Point", "coordinates": [ -61.918493608837522, -32.721243978482683 ] } },
{ "type": "Feature", "properties": { "Name": "Bosq. Km. 580 - 1482815 CT 2252" }, "geometry": { "type": "Point", "coordinates": [ -63.375173243789028, -32.26360376952352 ] } },
{ "type": "Feature", "properties": { "Name": "Bosq. Km. 582 - 1.482.823" }, "geometry": { "type": "Point", "coordinates": [ -63.38477616966096, -32.252697622328988 ] } },
{ "type": "Feature", "properties": { "Name": "Bosq. Km. 583 - 1.482.599" }, "geometry": { "type": "Point", "coordinates": [ -63.392119271817158, -32.244228606371628 ] } },
{ "type": "Feature", "properties": { "Name": "Bosq. Km. 584 - 1.482.645" }, "geometry": { "type": "Point", "coordinates": [ -63.397267287086713, -32.238520042086023 ] } },
{ "type": "Feature", "properties": { "Name": "Bosq. Km. 587 - 1.482.963-CT 2264" }, "geometry": { "type": "Point", "coordinates": [ -63.418907655515767, -32.214009113391697 ] } },
{ "type": "Feature", "properties": { "Name": "Bosq. Km. 588.5 - 1.482.637 CT2265" }, "geometry": { "type": "Point", "coordinates": [ -63.428759466145983, -32.20259498468868 ] } },
{ "type": "Feature", "properties": { "Name": "Bosq. Km. 618 - 1.481.428" }, "geometry": { "type": "Point", "coordinates": [ -63.618073647302843, -31.98706717752103 ] } },
{ "type": "Feature", "properties": { "Name": "Refugio Km. 619 - 1.481.436" }, "geometry": { "type": "Point", "coordinates": [ -63.624973568287253, -31.977931146348951 ] } },
{ "type": "Feature", "properties": { "Name": "Bosq. Km. 621 - 1.482.688 - CT. 2176" }, "geometry": { "type": "Point", "coordinates": [ -63.638273628541761, -31.96391611874061 ] } },
{ "type": "Feature", "properties": { "Name": "Bosq. Km. 624 - 1.482.690" }, "geometry": { "type": "Point", "coordinates": [ -63.654799060325509, -31.945219903474442 ] } },
{ "type": "Feature", "properties": { "Name": "Bosq. Km. 625 - 1.482.718" }, "geometry": { "type": "Point", "coordinates": [ -63.663101655367988, -31.935790219283039 ] } },
{ "type": "Feature", "properties": { "Name": "Bosq. Km. 634 - 1.482.726" }, "geometry": { "type": "Point", "coordinates": [ -63.72048700934041, -31.86991243175693 ] } },
{ "type": "Feature", "properties": { "Name": "Bosq. Km. 636,5 - 1.482.734" }, "geometry": { "type": "Point", "coordinates": [ -63.728757005949582, -31.860489565425659 ] } },
{ "type": "Feature", "properties": { "Name": "Bosq. Km. 642 - 1.482.777" }, "geometry": { "type": "Point", "coordinates": [ -63.76806433801967, -31.81556924027214 ] } },
{ "type": "Feature", "properties": { "Name": "Bosq. Km. 643 - 1.482.785" }, "geometry": { "type": "Point", "coordinates": [ -63.776962260714591, -31.80558065200114 ] } },
{ "type": "Feature", "properties": { "Name": "Bosq. Km. 641 - 1.482.769" }, "geometry": { "type": "Point", "coordinates": [ -63.761500070962072, -31.8230896215637 ] } },
{ "type": "Feature", "properties": { "Name": "Bosq. Km. 649 - 1.482.793" }, "geometry": { "type": "Point", "coordinates": [ -63.815234086565589, -31.76162760195918 ] } },
{ "type": "Feature", "properties": { "Name": "Bosq. Km. 652 - 1.482.890" }, "geometry": { "type": "Point", "coordinates": [ -63.822427728892869, -31.75339969569346 ] } },
{ "type": "Feature", "properties": { "Name": "Vivero - Km. 663 - 1.482.874" }, "geometry": { "type": "Point", "coordinates": [ -63.889383625795062, -31.66339446785814 ] } },
{ "type": "Feature", "properties": { "Name": "parcela 214-3408 / 1" }, "geometry": { "type": "Point", "coordinates": [ -63.97445898105844, -31.588752939166248 ] } },
{ "type": "Feature", "properties": { "Name": "parcela 214-3408 / 2" }, "geometry": { "type": "Point", "coordinates": [ -63.966881257574187, -31.595794282181789 ] } },
{ "type": "Feature", "properties": { "Name": "Bosq. Km. 672 - 1.482.912" }, "geometry": { "type": "Point", "coordinates": [ -63.95349789993314, -31.609380582289781 ] } },
{ "type": "Feature", "properties": { "Name": "Bosq. Km.673 - 1.482.920 ct.2255 RUIZ" }, "geometry": { "type": "Point", "coordinates": [ -63.961350441397201, -31.60175640602446 ] } },
{ "type": "Feature", "properties": { "Name": "CASTRO RAMALLO ID.3.428826" }, "geometry": { "type": "Point", "coordinates": [ -64.35174757336604, -33.090136841038387 ] } },
{ "type": "Feature", "properties": { "Name": "IRUSTA DE ANGELONI" }, "geometry": { "type": "Point", "coordinates": [ -64.357770530205414, -33.093423615554052 ] } },
{ "type": "Feature", "properties": { "Name": "CAMPAMENTO RIO CUARTO" }, "geometry": { "type": "Point", "coordinates": [ -64.369587029252344, -33.157899609117422 ] } },
{ "type": "Feature", "properties": { "Name": "Km.277 - 1.482.521 - CT.3109" }, "geometry": { "type": "Point", "coordinates": [ -63.592303936453732, -31.346544069850989 ] } },
{ "type": "Feature", "properties": { "Name": "asociación Cordobesa de Futboll CT 11391" }, "geometry": { "type": "Point", "coordinates": [ -64.18468424915325, -31.333868389954219 ] } },
{ "type": "Feature", "properties": { "Name": "Hernández" }, "geometry": { "type": "Point", "coordinates": [ -64.184028219036222, -31.331633360582739 ] } },
{ "type": "Feature", "properties": { "Name": "Campamento Piedras Moras" }, "geometry": { "type": "Point", "coordinates": [ -64.244766500517784, -32.173138798458787 ] } },
{ "type": "Feature", "properties": { "Name": "Bosque Autóctono - Ortiz Ord.33 Parc.314-3791" }, "geometry": { "type": "Point", "coordinates": [ -62.515037892362457, -32.589452512684417 ] } },
{ "type": "Feature", "properties": { "Name": "Ruiz Orrico ?" }, "geometry": { "type": "Point", "coordinates": [ -63.233593667227161, -32.361996716857043 ] } },
{ "type": "Feature", "properties": { "Name": "Id.3.365.379 - CT.2202" }, "geometry": { "type": "Point", "coordinates": [ -63.459401085695319, -32.168367525592842 ] } },
{ "type": "Feature", "properties": { "Name": "ASTRADA ó HIJUELA DE COSTAS CT 5143" }, "geometry": { "type": "Point", "coordinates": [ -64.383910948158615, -34.284682863733792 ] } },
{ "type": "Feature", "properties": { "Name": "FOURCADE CT. 5011" }, "geometry": { "type": "Point", "coordinates": [ -64.419065765682234, -33.557047691730837 ] } },
{ "type": "Feature", "properties": { "Name": "Ord.59 Campana, Edwar - Parc.314-3971" }, "geometry": { "type": "Point", "coordinates": [ -62.630212378178257, -32.58108651038814 ] } },
{ "type": "Feature", "properties": { "Name": "El Quebracho" }, "geometry": { "type": "Point", "coordinates": [ -64.36129125990378, -32.241940622001991 ] } },
{ "type": "Feature", "properties": { "Name": "Moyano" }, "geometry": { "type": "Point", "coordinates": [ -64.389340051761607, -32.234622691848301 ] } },
{ "type": "Feature", "properties": { "Name": "Villa de Soto" }, "geometry": { "type": "Point", "coordinates": [ -64.991186732659997, -30.853412348644301 ] } },
{ "type": "Feature", "properties": { "Name": "Sabroe Yde" }, "geometry": { "type": "Point", "coordinates": [ -64.375729620160257, -34.025189428333832 ] } },
{ "type": "Feature", "properties": { "Name": "MARIN DE MENDEZ ID.3.429.048" }, "geometry": { "type": "Point", "coordinates": [ -64.349245471210693, -33.090474209094033 ] } },
{ "type": "Feature", "properties": { "Name": "ALGAS S.A. ID. 3.429.047" }, "geometry": { "type": "Point", "coordinates": [ -64.352382451194572, -33.089251832256593 ] } },
{ "type": "Feature", "properties": { "Name": "IRIBARNE DE MORELLI CT.5133" }, "geometry": { "type": "Point", "coordinates": [ -64.373729007358889, -34.117593659654993 ] } },
{ "type": "Feature", "properties": { "Name": "Larrañaga de Larrañaga Lete" }, "geometry": { "type": "Point", "coordinates": [ -64.381342541397075, -34.020865165309971 ] } },
{ "type": "Feature", "properties": { "Name": "CREMADEZ DE ODONEZ CT.13269" }, "geometry": { "type": "Point", "coordinates": [ -64.112255041028618, -31.421808449018972 ] } },
{ "type": "Feature", "properties": { "Name": "ATAIDE CT.13196" }, "geometry": { "type": "Point", "coordinates": [ -64.111759746834124, -31.421752540883489 ] } },
{ "type": "Feature", "properties": { "Name": "SALSADELLA CT.13210" }, "geometry": { "type": "Point", "coordinates": [ -64.111595062553207, -31.42186541152391 ] } },
{ "type": "Feature", "properties": { "Name": "RODRIGUEZ DE BOSSOLASCO CT.13199 y 13207" }, "geometry": { "type": "Point", "coordinates": [ -64.111270228936746, -31.422095281813661 ] } },
{ "type": "Feature", "properties": { "Name": "R.DE BOSSOLASCO Idem" }, "geometry": { "type": "Point", "coordinates": [ -64.111129575212146, -31.42214268708754 ] } },
{ "type": "Feature", "properties": { "Name": "BAEZ CT.13198" }, "geometry": { "type": "Point", "coordinates": [ -64.111382418386484, -31.422020494809541 ] } },
{ "type": "Feature", "properties": { "Name": "Bergese idem" }, "geometry": { "type": "Point", "coordinates": [ -64.110572040552825, -31.422439453202369 ] } },
{ "type": "Feature", "properties": { "Name": "CT.1253 DECARLIN" }, "geometry": { "type": "Point", "coordinates": [ -64.419000091956647, -33.197851115317022 ] } },
{ "type": "Feature", "properties": { "Name": "CT.1254 BONELLI" }, "geometry": { "type": "Point", "coordinates": [ -64.419370420183114, -33.197258245611224 ] } },
{ "type": "Feature", "properties": { "Name": "CT.1255 ALCALDE" }, "geometry": { "type": "Point", "coordinates": [ -64.421621751239172, -33.202065930820012 ] } },
{ "type": "Feature", "properties": { "Name": "CT.1252 BUENO HNOS/COMAY" }, "geometry": { "type": "Point", "coordinates": [ -64.41755690452311, -33.194133318772991 ] } },
{ "type": "Feature", "properties": { "Name": "CT. 74 Bosquecillo 57.000 m2 3430267" }, "geometry": { "type": "Point", "coordinates": [ -63.916800197450243, -34.036343317050722 ] } },
{ "type": "Feature", "properties": { "Name": "212.843,20 m2 CT.5139 Bruzone" }, "geometry": { "type": "Point", "coordinates": [ -64.37846241705104, -34.460363904683831 ] } },
{ "type": "Feature", "properties": { "Name": "Lerda" }, "geometry": { "type": "Point", "coordinates": [ -63.093565379846318, -31.434212967971099 ] } },
{ "type": "Feature", "properties": { "Name": "CT. 12673 VIDELA" }, "geometry": { "type": "Point", "coordinates": [ -64.117490465231185, -31.435917504171542 ] } },
{ "type": "Feature", "properties": { "Name": "CT.12674 JORGE ACOSTA OLMOS" }, "geometry": { "type": "Point", "coordinates": [ -64.115955219728477, -31.43458177684845 ] } },
{ "type": "Feature", "properties": { "Name": "JORGE ACOSTA OLMOS CT12674" }, "geometry": { "type": "Point", "coordinates": [ -64.114910001381148, -31.433674098656731 ] } },
{ "type": "Feature", "properties": { "Name": "3355365 CAMPOS CT.11279" }, "geometry": { "type": "Point", "coordinates": [ -64.183381613121014, -31.309343901305141 ] } },
{ "type": "Feature", "properties": { "Name": "2555352" }, "geometry": { "type": "Point", "coordinates": [ -64.183615504333446, -31.313848008994139 ] } },
{ "type": "Feature", "properties": { "Name": "MAMANA CT11272" }, "geometry": { "type": "Point", "coordinates": [ -64.183689259186252, -31.314049639667399 ] } },
{ "type": "Feature", "properties": { "Name": "LAVEZZO 11333" }, "geometry": { "type": "Point", "coordinates": [ -64.183378713536953, -31.31017041235414 ] } },
{ "type": "Feature", "properties": { "Name": "CT.11397- 384 M2-CAMPOS" }, "geometry": { "type": "Point", "coordinates": [ -64.182715009207016, -31.31407986947411 ] } },
{ "type": "Feature", "properties": { "Name": "DOS SANTOS BOTTA CT.11.282" }, "geometry": { "type": "Point", "coordinates": [ -64.183091304522449, -31.309823292112501 ] } },
{ "type": "Feature", "properties": { "Name": "CT.11276 FERNANDEZ SEVERO" }, "geometry": { "type": "Point", "coordinates": [ -64.183183316567224, -31.310631281424161 ] } },
{ "type": "Feature", "properties": { "Name": "CT. 11281 LOPEZ 401 m2" }, "geometry": { "type": "Point", "coordinates": [ -64.182938888888899, -31.30970277777778 ] } },
{ "type": "Feature", "properties": { "Name": "VERON CT 11370" }, "geometry": { "type": "Point", "coordinates": [ -64.183670226033968, -31.312158852295841 ] } },
{ "type": "Feature", "properties": { "Name": "Sardo" }, "geometry": { "type": "Point", "coordinates": [ -64.243476286696435, -32.174149119136921 ] } },
{ "type": "Feature", "properties": { "Name": "CT 11292 GUZMAN 9324 M2" }, "geometry": { "type": "Point", "coordinates": [ -64.18333823819367, -31.30550078972211 ] } },
{ "type": "Feature", "properties": { "Name": "15.000 M2 CT 79 - KM 549" }, "geometry": { "type": "Point", "coordinates": [ -64.015302572669185, -34.036765712692052 ] } },
{ "type": "Feature", "properties": { "Name": "PEAJE GIARDINO" }, "geometry": { "type": "Point", "coordinates": [ -64.504897426961719, -31.028639935443 ] } },
{ "type": "Feature", "properties": { "Name": "PEAJE MOLINARI" }, "geometry": { "type": "Point", "coordinates": [ -64.476308687118234, -31.19263695696532 ] } },
{ "type": "Feature", "properties": { "Name": "COBOS 3.429.632" }, "geometry": { "type": "Point", "coordinates": [ -64.189067978099999, -31.258016353117672 ] } },
{ "type": "Feature", "properties": { "Name": "YAÑEZ 3.429.633" }, "geometry": { "type": "Point", "coordinates": [ -64.189108467504312, -31.251732548724789 ] } },
{ "type": "Feature", "properties": { "Name": "PRUNOTTO 3.429.634" }, "geometry": { "type": "Point", "coordinates": [ -64.188463759327789, -31.254699687043061 ] } },
{ "type": "Feature", "properties": { "Name": "CT 5112 POLICARPIO DIAZ" }, "geometry": { "type": "Point", "coordinates": [ -64.389986622559761, -33.941049627845338 ] } },
{ "type": "Feature", "properties": { "Name": "km. 645 1.482.610 CT 2279" }, "geometry": { "type": "Point", "coordinates": [ -63.788787077508289, -31.7921496249173 ] } },
{ "type": "Feature", "properties": { "Name": "URBANOR SA 11369" }, "geometry": { "type": "Point", "coordinates": [ -64.185481189049199, -31.297598846245851 ] } },
{ "type": "Feature", "properties": { "Name": "CT 5115 NIEVA 1" }, "geometry": { "type": "Point", "coordinates": [ -64.387126747191104, -33.945647924596443 ] } },
{ "type": "Feature", "properties": { "Name": "CT 5115 NIEVA 2" }, "geometry": { "type": "Point", "coordinates": [ -64.385373378292115, -33.945159045783583 ] } },
{ "type": "Feature", "properties": { "Name": "????En zona de camino???" }, "geometry": { "type": "Point", "coordinates": [ -61.844844080026249, -32.733156571346598 ] } },
{ "type": "Feature", "properties": { "Name": "IDHIGORAS" }, "geometry": { "type": "Point", "coordinates": [ -63.024079982826272, -31.418475208655071 ] } },
{ "type": "Feature", "properties": { "Name": "CT 5127 HOFER DE ROULET" }, "geometry": { "type": "Point", "coordinates": [ -64.382940062832674, -33.948672366230483 ] } },
{ "type": "Feature", "properties": { "Name": "ARROYO TEGUA" }, "geometry": { "type": "Point", "coordinates": [ -64.350693283011125, -32.701433349926752 ] } },
{ "type": "Feature", "properties": { "Name": "cAPILLA DEL MONTE 1.483.803" }, "geometry": { "type": "Point", "coordinates": [ -64.530905631481488, -30.85399268897541 ] } },
{ "type": "Feature", "properties": { "Name": "LA CUMBRE KM.66 1.480.863 CASA" }, "geometry": { "type": "Point", "coordinates": [ -64.508647881734404, -30.99837109590095 ] } },
{ "type": "Feature", "properties": { "Name": "LOTE  Q 25a" }, "geometry": { "type": "Point", "coordinates": [ -64.416737651275568, -31.456082052410569 ] } },
{ "type": "Feature", "properties": { "Name": "LOTE Q 24a" }, "geometry": { "type": "Point", "coordinates": [ -64.419756918560211, -31.45518009743439 ] } },
{ "type": "Feature", "properties": { "Name": "LOTE Q 23a" }, "geometry": { "type": "Point", "coordinates": [ -64.421182557924553, -31.454114579245399 ] } },
{ "type": "Feature", "properties": { "Name": "pLAZA pILAR 3399370" }, "geometry": { "type": "Point", "coordinates": [ -63.889869316077167, -31.669583434931589 ] } },
{ "type": "Feature", "properties": { "Name": "BALANZA AUTOPISTA PILAR" }, "geometry": { "type": "Point", "coordinates": [ -63.859928117793253, -31.648089190803521 ] } },
{ "type": "Feature", "properties": { "Name": "LEGUA 121" }, "geometry": { "type": "Point", "coordinates": [ -63.871062667680732, -31.62747219523283 ] } },
{ "type": "Feature", "properties": { "Name": "LEOVINO MEDINA CT.11349  9.732 m2" }, "geometry": { "type": "Point", "coordinates": [ -64.183421293787632, -31.306249209976329 ] } },
{ "type": "Feature", "properties": { "Name": "IRIBARNE DE MORELLI CT.5133" }, "geometry": { "type": "Point", "coordinates": [ -64.373729007358889, -34.117593659654993 ] } },
{ "type": "Feature", "properties": { "Name": "Zamboni II CT. 5146" }, "geometry": { "type": "Point", "coordinates": [ -64.385722245845159, -34.269842690391982 ] } },
{ "type": "Feature", "properties": { "Name": "PASTORIL AGRICOLA EL CONSUELO" }, "geometry": { "type": "Point", "coordinates": [ -64.401743357967078, -33.922551738830137 ] } },
{ "type": "Feature", "properties": { "Name": "ARIAS CT.5091" }, "geometry": { "type": "Point", "coordinates": [ -64.404189209926528, -33.920042758032011 ] } },
{ "type": "Feature", "properties": { "Name": "aRGUELLO CT. 5088" }, "geometry": { "type": "Point", "coordinates": [ -64.405294832031032, -33.918017056420602 ] } },
{ "type": "Feature", "properties": { "Name": "Fermin Rios" }, "geometry": { "type": "Point", "coordinates": [ -64.433628725595398, -30.962426586403971 ] } },
{ "type": "Feature", "properties": { "Name": "SANCHE CT.13208 Y MORENO CT.13209" }, "geometry": { "type": "Point", "coordinates": [ -64.112218451930332, -31.421465422045902 ] } },
{ "type": "Feature", "properties": { "Name": "MARTIN CT.13195" }, "geometry": { "type": "Point", "coordinates": [ -64.112080252241185, -31.421435434053979 ] } },
{ "type": "Feature", "properties": { "Name": "BERGESE CT.13000" }, "geometry": { "type": "Point", "coordinates": [ -64.110047954715256, -31.422386028656 ] } },
{ "type": "Feature", "properties": { "Name": "CASAS 6" }, "geometry": { "type": "Point", "coordinates": [ -64.269062515813559, -31.422749686562192 ] } },
{ "type": "Feature", "properties": { "Name": "CT.13000 BERGESE" }, "geometry": { "type": "Point", "coordinates": [ -64.110222126542496, -31.42246587304486 ] } },
{ "type": "Feature", "properties": { "Name": "CT.1256 LENARDON" }, "geometry": { "type": "Point", "coordinates": [ -64.427355059238607, -33.211063105451117 ] } },
{ "type": "Feature", "properties": { "Name": "CT. 1257 MUNICIPALIDAD" }, "geometry": { "type": "Point", "coordinates": [ -64.42864281095369, -33.212174579084682 ] } },
{ "type": "Feature", "properties": { "Name": "CT.1258 CONTARDI/ABRAHIM" }, "geometry": { "type": "Point", "coordinates": [ -64.431597803883221, -33.213990233001013 ] } },
{ "type": "Feature", "properties": { "Name": "CT.1259 ROJO" }, "geometry": { "type": "Point", "coordinates": [ -64.437304220527793, -33.21591928440094 ] } },
{ "type": "Feature", "properties": { "Name": "CT.1260 GUTIERREZ/BORGES" }, "geometry": { "type": "Point", "coordinates": [ -64.442542217240231, -33.219121446344467 ] } },
{ "type": "Feature", "properties": { "Name": "CT.1261 BOTTERO" }, "geometry": { "type": "Point", "coordinates": [ -64.445245266994959, -33.220558127257348 ] } },
{ "type": "Feature", "properties": { "Name": "CT.1262 FRIGORIFICO MILLAN" }, "geometry": { "type": "Point", "coordinates": [ -64.453218870989318, -33.22293530116383 ] } },
{ "type": "Feature", "properties": { "Name": "CT.1291 MASSARO" }, "geometry": { "type": "Point", "coordinates": [ -64.703040612917491, -33.384417009467271 ] } },
{ "type": "Feature", "properties": { "Name": "CT.1288 GIRARDI" }, "geometry": { "type": "Point", "coordinates": [ -64.699920068418976, -33.382600071702058 ] } },
{ "type": "Feature", "properties": { "Name": "CT.1294 MORENO" }, "geometry": { "type": "Point", "coordinates": [ -64.705738694985669, -33.38637545266824 ] } },
{ "type": "Feature", "properties": { "Name": "CT.1295 ANGELI/COMAY" }, "geometry": { "type": "Point", "coordinates": [ -64.707199534294446, -33.387368442670272 ] } },
{ "type": "Feature", "properties": { "Name": "CT.1293 MURGUTT" }, "geometry": { "type": "Point", "coordinates": [ -64.708629657723023, -33.388399596825678 ] } },
{ "type": "Feature", "properties": { "Name": "CT.1296 SUP.GOB.CORDOBA" }, "geometry": { "type": "Point", "coordinates": [ -64.710913928945686, -33.390035903152061 ] } },
{ "type": "Feature", "properties": { "Name": "CT.1297 CUELLO DE MIAZZO" }, "geometry": { "type": "Point", "coordinates": [ -64.713132471072342, -33.391282025930742 ] } },
{ "type": "Feature", "properties": { "Name": "CT.1296SUP.GOB.PVIA.CORDOBA" }, "geometry": { "type": "Point", "coordinates": [ -64.715896903965046, -33.393341966224327 ] } },
{ "type": "Feature", "properties": { "Name": "CT.1300 BRIÑA" }, "geometry": { "type": "Point", "coordinates": [ -64.717155381831375, -33.393088181090938 ] } },
{ "type": "Feature", "properties": { "Name": "CT.1301 POLLO" }, "geometry": { "type": "Point", "coordinates": [ -64.719392471322053, -33.394494949850063 ] } },
{ "type": "Feature", "properties": { "Name": "CT. 1302 MUNICIPALIDAD" }, "geometry": { "type": "Point", "coordinates": [ -64.721870576130826, -33.39561505661392 ] } },
{ "type": "Feature", "properties": { "Name": "CT.1302 MUNICIPALIDAD 2" }, "geometry": { "type": "Point", "coordinates": [ -64.72403421741636, -33.396398201796814 ] } },
{ "type": "Feature", "properties": { "Name": "CT.1302 MUNICIPALIDAD 3" }, "geometry": { "type": "Point", "coordinates": [ -64.726551754814864, -33.397505816995803 ] } },
{ "type": "Feature", "properties": { "Name": "CT.CT.LLOBEL" }, "geometry": { "type": "Point", "coordinates": [ -64.727346190765729, -33.398524865931407 ] } },
{ "type": "Feature", "properties": { "Name": "CT.1308 PIASCO" }, "geometry": { "type": "Point", "coordinates": [ -64.729323188203125, -33.398307855920201 ] } },
{ "type": "Feature", "properties": { "Name": "CT.1306 AMAYA" }, "geometry": { "type": "Point", "coordinates": [ -64.729157050062071, -33.398865156214093 ] } },
{ "type": "Feature", "properties": { "Name": "CT.1309 GREGORAT" }, "geometry": { "type": "Point", "coordinates": [ -64.739094515405952, -33.402553393259197 ] } },
{ "type": "Feature", "properties": { "Name": "ZUBELZU 11.250 M2?" }, "geometry": { "type": "Point", "coordinates": [ -64.380852940519702, -33.979620793645232 ] } },
{ "type": "Feature", "properties": { "Name": "188 M2??" }, "geometry": { "type": "Point", "coordinates": [ -64.399893832784414, -33.925424686804853 ] } },
{ "type": "Feature", "properties": { "Name": "LLANOS CT.82" }, "geometry": { "type": "Point", "coordinates": [ -64.140048471182453, -34.001987508561541 ] } },
{ "type": "Feature", "properties": { "Name": "CT. 12829 bis" }, "geometry": { "type": "Point", "coordinates": [ -64.254198821585049, -31.411729205739029 ] } },
{ "type": "Feature", "properties": { "Name": "Carreras & Saavedra" }, "geometry": { "type": "Point", "coordinates": [ -64.257291991750691, -31.378079258034109 ] } },
{ "type": "Feature", "properties": { "Name": "Chalet Horacio" }, "geometry": { "type": "Point", "coordinates": [ -64.250022718149197, -31.37548734307909 ] } },
{ "type": "Feature", "properties": { "Name": "13281 ACOSTA PUEYRREDON" }, "geometry": { "type": "Point", "coordinates": [ -64.109888981417612, -31.422833848794721 ] } },
{ "type": "Feature", "properties": { "Name": "CT. 12697" }, "geometry": { "type": "Point", "coordinates": [ -64.11600309119693, -31.436259619158189 ] } },
{ "type": "Feature", "properties": { "Name": "Convenio Club Monte Redondo" }, "geometry": { "type": "Point", "coordinates": [ -62.168795781358057, -31.493051886731951 ] } },
{ "type": "Feature", "properties": { "Name": "Felix Gariglio" }, "geometry": { "type": "Point", "coordinates": [ -62.926979144447202, -31.394981080855199 ] } },
{ "type": "Feature", "properties": { "Name": "El Colono" }, "geometry": { "type": "Point", "coordinates": [ -64.255898693685452, -31.379382044318891 ] } },
{ "type": "Feature", "properties": { "Name": "Rio Turbio" }, "geometry": { "type": "Point", "coordinates": [ -64.22421455880513, -31.464481110598761 ] } },
{ "type": "Feature", "properties": { "Name": "CORNÚ" }, "geometry": { "type": "Point", "coordinates": [ -64.72297400874524, -30.70970796647558 ] } },
{ "type": "Feature", "properties": { "Name": "ULLA 42.400 M2 CT 3223" }, "geometry": { "type": "Point", "coordinates": [ -62.731458516748582, -31.39535313809667 ] } },
{ "type": "Feature", "properties": { "Name": "FRACHE 3.431.004 CT1185" }, "geometry": { "type": "Point", "coordinates": [ -63.859875988573449, -33.197440900600277 ] } },
{ "type": "Feature", "properties": { "Name": "DALMASSO 3.431.003 CT1150" }, "geometry": { "type": "Point", "coordinates": [ -63.860589951991791, -33.197179287405973 ] } },
{ "type": "Feature", "properties": { "Name": "Peaje Villa Giardino CT.7281" }, "geometry": { "type": "Point", "coordinates": [ -64.504438353948771, -31.02848203730057 ] } },
{ "type": "Feature", "properties": { "Name": "Peaje Molinari CT. 7266" }, "geometry": { "type": "Point", "coordinates": [ -64.47593929964178, -31.19218419870899 ] } },
{ "type": "Feature", "properties": { "Name": "KM. 41.5 - CT. 8047" }, "geometry": { "type": "Point", "coordinates": [ -64.284078098860391, -30.477919964894401 ] } },
{ "type": "Feature", "properties": { "Name": "CADAMURO CT.8013" }, "geometry": { "type": "Point", "coordinates": [ -64.137433342965465, -30.712549462721299 ] } },
{ "type": "Feature", "properties": { "Name": "ACUÑA DE VAZQUEZ CT.8163" }, "geometry": { "type": "Point", "coordinates": [ -64.224152065710939, -30.550380339262489 ] } },
{ "type": "Feature", "properties": { "Name": "LOS POZOS ID.1480987 CT.8037" }, "geometry": { "type": "Point", "coordinates": [ -64.249929071053231, -30.520270837019499 ] } },
{ "type": "Feature", "properties": { "Name": "GERVASONI CT.8049??" }, "geometry": { "type": "Point", "coordinates": [ -64.299041257069177, -30.465039140491982 ] } },
{ "type": "Feature", "properties": { "Name": "MARTOREL Y GRAU - CST.8125" }, "geometry": { "type": "Point", "coordinates": [ -64.628827393184039, -30.002645600192249 ] } },
{ "type": "Feature", "properties": { "Name": "MANSILLA - CT. 8122" }, "geometry": { "type": "Point", "coordinates": [ -64.716347763925867, -29.801765364396129 ] } },
{ "type": "Feature", "properties": { "Name": "SAN MIGUEL SOC. CT.13363" }, "geometry": { "type": "Point", "coordinates": [ -64.256737834412164, -31.42015866552638 ] } },
{ "type": "Feature", "properties": { "Name": "ZAMBONI CT.5146" }, "geometry": { "type": "Point", "coordinates": [ -64.385135653651233, -34.218357137910047 ] } },
{ "type": "Feature", "properties": { "Name": "La Dolores (Méndez-Zuberbhuler)" }, "geometry": { "type": "Point", "coordinates": [ -63.604420528490557, -33.304853928118703 ] } },
{ "type": "Feature", "properties": { "Name": "Maldonado CT6276" }, "geometry": { "type": "Point", "coordinates": [ -64.362191278728659, -32.336772231886002 ] } },
{ "type": "Feature", "properties": { "Name": "retro Municipalidad" }, "geometry": { "type": "Point", "coordinates": [ -64.387749827425495, -32.570039328439137 ] } },
{ "type": "Feature", "properties": { "Name": "Espinillo/ Lucero" }, "geometry": { "type": "Point", "coordinates": [ -64.356049901581898, -32.95509367195951 ] } },
{ "type": "Feature", "properties": { "Name": "Canteras Watt/ Melideo" }, "geometry": { "type": "Point", "coordinates": [ -64.330796202203061, -34.898078789240991 ] } },
{ "type": "Feature", "properties": { "Name": "Laboulaye" }, "geometry": { "type": "Point", "coordinates": [ -63.4092053122435, -34.141653009226111 ] } },
{ "type": "Feature", "properties": { "Name": "Villa de María" }, "geometry": { "type": "Point", "coordinates": [ -63.74817923119938, -29.972379626652039 ] } },
{ "type": "Feature", "properties": { "Name": "San Jose de la Dormida" }, "geometry": { "type": "Point", "coordinates": [ -63.938733248743901, -30.351042853167019 ] } },
{ "type": "Feature", "properties": { "Name": "SANTORI CT.11.389" }, "geometry": { "type": "Point", "coordinates": [ -64.182965163832648, -31.317419191725289 ] } },
{ "type": "Feature", "properties": { "Name": "Rubiolo - Id.3.428.564 - 58.152 m2" }, "geometry": { "type": "Point", "coordinates": [ -62.144816001466992, -31.45744543249652 ] } },
{ "type": "Feature", "properties": { "Name": "Usurpación Villa de Soto" }, "geometry": { "type": "Point", "coordinates": [ -64.975951425080225, -30.852164381437579 ] } },
{ "type": "Feature", "properties": { "Name": "Campamentno Sinsacate" }, "geometry": { "type": "Point", "coordinates": [ -64.079601933200351, -30.95516613692228 ] } },
{ "type": "Feature", "properties": { "Name": "Caminero Río Carnero" }, "geometry": { "type": "Point", "coordinates": [ -64.118295009979548, -31.033158725836529 ] } },
{ "type": "Feature", "properties": { "Name": "Río Carnero" }, "geometry": { "type": "Point", "coordinates": [ -64.117300486421641, -31.02922320095065 ] } },
{ "type": "Feature", "properties": { "Name": "Arias" }, "geometry": { "type": "Point", "coordinates": [ -62.510142738267987, -33.598866615462022 ] } },
{ "type": "Feature", "properties": { "Name": "Reducción" }, "geometry": { "type": "Point", "coordinates": [ -63.970804117097153, -33.182032989006778 ] } },
{ "type": "Feature", "properties": { "Name": "Chajan" }, "geometry": { "type": "Point", "coordinates": [ -64.918128155649555, -33.511120407222919 ] } },
{ "type": "Feature", "properties": { "Name": "Campamento Mackenna" }, "geometry": { "type": "Point", "coordinates": [ -64.407526687977736, -33.913915444763887 ] } },
{ "type": "Feature", "properties": { "Name": "Obrador" }, "geometry": { "type": "Point", "coordinates": [ -63.231949210208192, -32.360903173806598 ] } },
{ "type": "Feature", "properties": { "Name": "Boulervares/Spilimbergo" }, "geometry": { "type": "Point", "coordinates": [ -64.226707190245875, -31.35106818027214 ] } },
{ "type": "Feature", "properties": { "Name": "Rancagua" }, "geometry": { "type": "Point", "coordinates": [ -64.147564410189247, -31.36379907392541 ] } },
{ "type": "Feature", "properties": { "Name": "Club Vial 2" }, "geometry": { "type": "Point", "coordinates": [ -64.186547867036296, -31.466738274699502 ] } },
{ "type": "Feature", "properties": { "Name": "Alo de Fourcade CT.12203" }, "geometry": { "type": "Point", "coordinates": [ -64.202805389479451, -31.46322234261201 ] } },
{ "type": "Feature", "properties": { "Name": "Marconetti" }, "geometry": { "type": "Point", "coordinates": [ -64.241598121238795, -31.45965095754687 ] } },
{ "type": "Feature", "properties": { "Name": "Fadea" }, "geometry": { "type": "Point", "coordinates": [ -64.252784225136537, -31.435555126384891 ] } },
{ "type": "Feature", "properties": { "Name": "Colon y Don }Bosco" }, "geometry": { "type": "Point", "coordinates": [ -64.264191049553503, -31.39558816661393 ] } },
{ "type": "Feature", "properties": { "Name": "Bialet Masse (EX kM.820) 1.483.781" }, "geometry": { "type": "Point", "coordinates": [ -64.466259819660635, -31.298404845395989 ] } },
{ "type": "Feature", "properties": { "Name": "Distribuidor Ferreyra" }, "geometry": { "type": "Point", "coordinates": [ -64.061070612287836, -31.457632278473259 ] } },
{ "type": "Feature", "properties": { "Name": "Ord.60 Alladio, Bartolomé - Parc.314-3970" }, "geometry": { "type": "Point", "coordinates": [ -62.635186252004281, -32.58035411491182 ] } },
{ "type": "Feature", "properties": { "Name": "Ord.73 Alladio, Ricardo - Parc.314-3963" }, "geometry": { "type": "Point", "coordinates": [ -62.677303150499903, -32.569810216727362 ] } },
{ "type": "Feature", "properties": { "Name": "Dutruel (Justo Torres)" }, "geometry": { "type": "Point", "coordinates": [ -63.705360683141201, -31.29022228111117 ] } },
{ "type": "Feature", "properties": { "Name": "Genaro 1.482.548" }, "geometry": { "type": "Point", "coordinates": [ -63.685328986323569, -31.299695875656131 ] } },
{ "type": "Feature", "properties": { "Name": "Genaro" }, "geometry": { "type": "Point", "coordinates": [ -63.690029022481149, -31.29822520936845 ] } },
{ "type": "Feature", "properties": { "Name": "Paolasso Id.1.482.297 BAJA" }, "geometry": { "type": "Point", "coordinates": [ -63.803811225213487, -31.31060266313915 ] } },
{ "type": "Feature", "properties": { "Name": "Padres Mercedarios BAJA" }, "geometry": { "type": "Point", "coordinates": [ -63.895006940057293, -31.332447921236149 ] } },
{ "type": "Feature", "properties": { "Name": "Depósito Km.677 - 1.483.048" }, "geometry": { "type": "Point", "coordinates": [ -63.992884464969407, -31.570058023559628 ] } },
{ "type": "Feature", "properties": { "Name": "Km. 481 - 3.428.498" }, "geometry": { "type": "Point", "coordinates": [ -62.482949601609803, -32.620462044595477 ] } },
{ "type": "Feature", "properties": { "Name": "Campamento Km. 553 - 1.483.846" }, "geometry": { "type": "Point", "coordinates": [ -63.18343444710937, -32.432962466786591 ] } },
{ "type": "Feature", "properties": { "Name": "Bosq. Km. 592 - 1.482.955 - CT.2218" }, "geometry": { "type": "Point", "coordinates": [ -63.452175156167151, -32.175994734545696 ] } },
{ "type": "Feature", "properties": { "Name": "Bosq. Km. 599 - 1.482.653" }, "geometry": { "type": "Point", "coordinates": [ -63.495787053368787, -32.126371143909452 ] } },
{ "type": "Feature", "properties": { "Name": "Bosq. Km. 637 - 1.482.742" }, "geometry": { "type": "Point", "coordinates": [ -63.73699670780308, -31.851221985647658 ] } },
{ "type": "Feature", "properties": { "Name": "Bosq. Km. 640 - 1.482.750 - CT.2155" }, "geometry": { "type": "Point", "coordinates": [ -63.75341030199462, -31.832257456730169 ] } },
{ "type": "Feature", "properties": { "Name": "parcela 214-3408 / 1 CT.2255 RUIZ" }, "geometry": { "type": "Point", "coordinates": [ -63.97445898105844, -31.588752939166248 ] } },
{ "type": "Feature", "properties": { "Name": "parcela 214-3408 / 2 SAIGA CT2184" }, "geometry": { "type": "Point", "coordinates": [ -63.966881257574187, -31.595794282181789 ] } },
{ "type": "Feature", "properties": { "Name": "Bosq. Km. 671 - 1.482.904" }, "geometry": { "type": "Point", "coordinates": [ -63.946449844564619, -31.616087116028542 ] } },
{ "type": "Feature", "properties": { "Name": "Bosq. Km.673 - 1.482.920 SAIGA CT 2184" }, "geometry": { "type": "Point", "coordinates": [ -63.961350441397201, -31.60175640602446 ] } },
{ "type": "Feature", "properties": { "Name": "COLONIA EMBALSE Id. 1.483.579" }, "geometry": { "type": "Point", "coordinates": [ -64.415623525040019, -32.184404778385392 ] } },
{ "type": "Feature", "properties": { "Name": "CARLOMAGNO" }, "geometry": { "type": "Point", "coordinates": [ -63.407528055511641, -32.225499172030858 ] } },
{ "type": "Feature", "properties": { "Name": "IRUSTA DE ANGELONI" }, "geometry": { "type": "Point", "coordinates": [ -64.357770530205414, -33.093423615554052 ] } },
{ "type": "Feature", "properties": { "Name": "Clausen Id. 1.418.871 km. 234 - CT.3119" }, "geometry": { "type": "Point", "coordinates": [ -63.160085192350017, -31.429688323312529 ] } },
{ "type": "Feature", "properties": { "Name": "Sub Campamento Devoto - 3.355.357 -km. 152 - CT.3198" }, "geometry": { "type": "Point", "coordinates": [ -62.311209498364022, -31.41327445909598 ] } },
{ "type": "Feature", "properties": { "Name": "Km. 247 - 1.482.505 - CT.3151" }, "geometry": { "type": "Point", "coordinates": [ -63.292974625387657, -31.408415183462381 ] } },
{ "type": "Feature", "properties": { "Name": "Km.245 - 1.482.491 - CT. 3146" }, "geometry": { "type": "Point", "coordinates": [ -63.269876321367207, -31.412307178315931 ] } },
{ "type": "Feature", "properties": { "Name": "Km.243 - 1.482.483 - CT.3135" }, "geometry": { "type": "Point", "coordinates": [ -63.246841227659502, -31.416377211033399 ] } },
{ "type": "Feature", "properties": { "Name": "Km.273 - 1.482.513 - CT.3163" }, "geometry": { "type": "Point", "coordinates": [ -63.555945596780532, -31.363733145201859 ] } },
{ "type": "Feature", "properties": { "Name": "Km.277 - 1.482.521 - CT.3109" }, "geometry": { "type": "Point", "coordinates": [ -63.592303936453732, -31.346544069850989 ] } },
{ "type": "Feature", "properties": { "Name": "Nuevo Banco Italiano (Trobbiani)" }, "geometry": { "type": "Point", "coordinates": [ -63.728855355035499, -31.292467059467199 ] } },
{ "type": "Feature", "properties": { "Name": "BONETTO  84" }, "geometry": { "type": "Point", "coordinates": [ -64.167201640525775, -33.991747830320939 ] } },
{ "type": "Feature", "properties": { "Name": "BONETTO CT 84" }, "geometry": { "type": "Point", "coordinates": [ -64.164356413484001, -33.994353661046077 ] } },
{ "type": "Feature", "properties": { "Name": "CT. 79 - 15000 m2 - KM 549" }, "geometry": { "type": "Point", "coordinates": [ -64.014298358817115, -34.036576805353363 ] } }
]
}
