{
"type": "FeatureCollection",
"name": "VISADOS_PAPEL_2003_2020",
"features": [
{ "type": "Feature", "properties": { "Name": "DP-03-001" }, "geometry": { "type": "Point", "coordinates": [ -64.5001023, -31.0719184 ] } },
{ "type": "Feature", "properties": { "Name": "DP-04-001" }, "geometry": { "type": "Point", "coordinates": [ -62.1504598, -32.6847118 ] } },
{ "type": "Feature", "properties": { "Name": "DP-04-002" }, "geometry": { "type": "Point", "coordinates": [ -64.1902162, -31.464915 ] } },
{ "type": "Feature", "properties": { "Name": "DP-04-003" }, "geometry": { "type": "Point", "coordinates": [ -64.4648136, -31.2655683 ] } },
{ "type": "Feature", "properties": { "Name": "DP-10-001" }, "geometry": { "type": "Point", "coordinates": [ -64.2081833, -31.4642252 ] } },
{ "type": "Feature", "properties": { "Name": "DP-17-001" }, "geometry": { "type": "Point", "coordinates": [ -62.9103524, -32.0114161 ] } },
{ "type": "Feature", "properties": { "Name": "DP-17-002" }, "geometry": { "type": "Point", "coordinates": [ -63.8740846, -31.6296106 ] } },
{ "type": "Feature", "properties": { "Name": "DP-17-003" }, "geometry": { "type": "Point", "coordinates": [ -63.306595, -32.4228482 ] } },
{ "type": "Feature", "properties": { "Name": "DP-17-004" }, "geometry": { "type": "Point", "coordinates": [ -63.8058357, -31.7731458 ] } },
{ "type": "Feature", "properties": { "Name": "DP-17-005" }, "geometry": { "type": "Point", "coordinates": [ -63.9985567, -34.0474267 ] } },
{ "type": "Feature", "properties": { "Name": "DP-17-006" }, "geometry": { "type": "Point", "coordinates": [ -63.7845356, -31.7862175 ] } },
{ "type": "Feature", "properties": { "Name": "DP-17-007" }, "geometry": { "type": "Point", "coordinates": [ -64.4241319, -33.4877347 ] } },
{ "type": "Feature", "properties": { "Name": "DP-17-008" }, "geometry": { "type": "Point", "coordinates": [ -63.8813806, -31.6795425 ] } },
{ "type": "Feature", "properties": { "Name": "DP-17-009" }, "geometry": { "type": "Point", "coordinates": [ -64.0120212, -31.5503838 ] } },
{ "type": "Feature", "properties": { "Name": "DP-17-010" }, "geometry": { "type": "Point", "coordinates": [ -63.5647926, -31.9807723 ] } },
{ "type": "Feature", "properties": { "Name": "DP-17-011" }, "geometry": { "type": "Point", "coordinates": [ -62.9118446, -32.0141732 ] } },
{ "type": "Feature", "properties": { "Name": "DP-17-012" }, "geometry": { "type": "Point", "coordinates": [ -63.1328785, -32.4653915 ] } },
{ "type": "Feature", "properties": { "Name": "DP-17-013" }, "geometry": { "type": "Point", "coordinates": [ -63.6786265, -31.9187898 ] } },
{ "type": "Feature", "properties": { "Name": "DP-17-014" }, "geometry": { "type": "Point", "coordinates": [ -63.3404994, -32.2993435 ] } },
{ "type": "Feature", "properties": { "Name": "DP-17-015" }, "geometry": { "type": "Point", "coordinates": [ -62.1962621, -32.6489494 ] } },
{ "type": "Feature", "properties": { "Name": "DP-17-016" }, "geometry": { "type": "Point", "coordinates": [ -63.6846195, -31.8655317 ] } },
{ "type": "Feature", "properties": { "Name": "DP-17-017" }, "geometry": { "type": "Point", "coordinates": [ -63.7161292, -31.8102268 ] } },
{ "type": "Feature", "properties": { "Name": "DP-17-018" }, "geometry": { "type": "Point", "coordinates": [ -63.4612089, -32.1664626 ] } },
{ "type": "Feature", "properties": { "Name": "DP-17-019" }, "geometry": { "type": "Point", "coordinates": [ -63.3463905, -32.468033 ] } },
{ "type": "Feature", "properties": { "Name": "DP-17-020" }, "geometry": { "type": "Point", "coordinates": [ -63.6388391, -33.3221843 ] } },
{ "type": "Feature", "properties": { "Name": "DP-17-021" }, "geometry": { "type": "Point", "coordinates": [ -62.58463, -33.5873755 ] } },
{ "type": "Feature", "properties": { "Name": "DP-17-022" }, "geometry": { "type": "Point", "coordinates": [ -64.2052821, -31.4888871 ] } },
{ "type": "Feature", "properties": { "Name": "DP-17-023" }, "geometry": { "type": "Point", "coordinates": [ -64.2113076, -31.4961309 ] } },
{ "type": "Feature", "properties": { "Name": "DP-17-024" }, "geometry": { "type": "Point", "coordinates": [ -64.225702, -31.4613755 ] } },
{ "type": "Feature", "properties": { "Name": "DP-17-025" }, "geometry": { "type": "Point", "coordinates": [ -64.1272, -31.3870703 ] } },
{ "type": "Feature", "properties": { "Name": "DP-17-026" }, "geometry": { "type": "Point", "coordinates": [ -64.1159805, -31.45206 ] } },
{ "type": "Feature", "properties": { "Name": "DP-17-027" }, "geometry": { "type": "Point", "coordinates": [ -63.2785609, -32.373007 ] } },
{ "type": "Feature", "properties": { "Name": "DP-17-028" }, "geometry": { "type": "Point", "coordinates": [ -62.6599018, -32.5676294 ] } },
{ "type": "Feature", "properties": { "Name": "DP-17-029" }, "geometry": { "type": "Point", "coordinates": [ -63.2495205, -32.3534837 ] } },
{ "type": "Feature", "properties": { "Name": "DP-17-030" }, "geometry": { "type": "Point", "coordinates": [ -64.0180214, -32.90798 ] } },
{ "type": "Feature", "properties": { "Name": "DP-17-031" }, "geometry": { "type": "Point", "coordinates": [ -63.3400937, -32.4497519 ] } },
{ "type": "Feature", "properties": { "Name": "DP-17-032" }, "geometry": { "type": "Point", "coordinates": [ -63.1580581, -33.4495277 ] } },
{ "type": "Feature", "properties": { "Name": "DP-17-033" }, "geometry": { "type": "Point", "coordinates": [ -63.1452739, -33.4560642 ] } },
{ "type": "Feature", "properties": { "Name": "DP-17-034" }, "geometry": { "type": "Point", "coordinates": [ -64.1536737, -31.1962766 ] } },
{ "type": "Feature", "properties": { "Name": "DP-17-035" }, "geometry": { "type": "Point", "coordinates": [ -64.5145778, -31.3815568 ] } },
{ "type": "Feature", "properties": { "Name": "DP-17-036" }, "geometry": { "type": "Point", "coordinates": [ -63.2638794, -32.4107122 ] } },
{ "type": "Feature", "properties": { "Name": "DP-17-037" }, "geometry": { "type": "Point", "coordinates": [ -64.1127556, -31.0193002 ] } },
{ "type": "Feature", "properties": { "Name": "DP-17-038" }, "geometry": { "type": "Point", "coordinates": [ -63.5205027, -32.5861386 ] } },
{ "type": "Feature", "properties": { "Name": "DP-17-039" }, "geometry": { "type": "Point", "coordinates": [ -63.3368158, -32.2603936 ] } },
{ "type": "Feature", "properties": { "Name": "DP-17-040" }, "geometry": { "type": "Point", "coordinates": [ -64.1036184, -31.4201989 ] } },
{ "type": "Feature", "properties": { "Name": "DP-17-041" }, "geometry": { "type": "Point", "coordinates": [ -64.2403316, -31.3595101 ] } },
{ "type": "Feature", "properties": { "Name": "DP-17-042" }, "geometry": { "type": "Point", "coordinates": [ -63.1760481, -32.4140214 ] } },
{ "type": "Feature", "properties": { "Name": "DP-17-043" }, "geometry": { "type": "Point", "coordinates": [ -64.7913768, -29.6778782 ] } },
{ "type": "Feature", "properties": { "Name": "DP-17-044" }, "geometry": { "type": "Point", "coordinates": [ -65.0322876, -31.746879 ] } },
{ "type": "Feature", "properties": { "Name": "DP-17-045" }, "geometry": { "type": "Point", "coordinates": [ -65.0240823, -31.7461679 ] } },
{ "type": "Feature", "properties": { "Name": "DP-17-046" }, "geometry": { "type": "Point", "coordinates": [ -63.6983129, -31.8864141 ] } },
{ "type": "Feature", "properties": { "Name": "DP-17-047" }, "geometry": { "type": "Point", "coordinates": [ -63.7055856, -31.8766496 ] } },
{ "type": "Feature", "properties": { "Name": "DP-17-048" }, "geometry": { "type": "Point", "coordinates": [ -64.1875868, -31.3330786 ] } },
{ "type": "Feature", "properties": { "Name": "DP-17-049" }, "geometry": { "type": "Point", "coordinates": [ -63.3028522, -32.3899893 ] } },
{ "type": "Feature", "properties": { "Name": "DP-17-050" }, "geometry": { "type": "Point", "coordinates": [ -63.0581462, -32.5076162 ] } },
{ "type": "Feature", "properties": { "Name": "DP-17-051" }, "geometry": { "type": "Point", "coordinates": [ -63.6109748, -31.9845715 ] } },
{ "type": "Feature", "properties": { "Name": "DP-17-052" }, "geometry": { "type": "Point", "coordinates": [ -63.1136113, -31.4347545 ] } },
{ "type": "Feature", "properties": { "Name": "DP-17-053" }, "geometry": { "type": "Point", "coordinates": [ -64.1160008, -31.3963006 ] } },
{ "type": "Feature", "properties": { "Name": "DP-17-054" }, "geometry": { "type": "Point", "coordinates": [ -64.0387476, -31.3794024 ] } },
{ "type": "Feature", "properties": { "Name": "DP-17-055" }, "geometry": { "type": "Point", "coordinates": [ -63.2746353, -32.369633 ] } },
{ "type": "Feature", "properties": { "Name": "DP-18-001" }, "geometry": { "type": "Point", "coordinates": [ -62.8882002, -33.5336858 ] } },
{ "type": "Feature", "properties": { "Name": "DP-18-002" }, "geometry": { "type": "Point", "coordinates": [ -61.8687187, -32.7612933 ] } },
{ "type": "Feature", "properties": { "Name": "DP-18-003" }, "geometry": { "type": "Point", "coordinates": [ -63.5231663, -32.0856917 ] } },
{ "type": "Feature", "properties": { "Name": "DP-18-004" }, "geometry": { "type": "Point", "coordinates": [ -62.8913502, -33.5244703 ] } },
{ "type": "Feature", "properties": { "Name": "DP-18-005" }, "geometry": { "type": "Point", "coordinates": [ -63.6910132, -31.8549719 ] } },
{ "type": "Feature", "properties": { "Name": "DP-18-006" }, "geometry": { "type": "Point", "coordinates": [ -63.7148155, -31.8250765 ] } },
{ "type": "Feature", "properties": { "Name": "DP-18-007" }, "geometry": { "type": "Point", "coordinates": [ -63.7390839, -32.7242208 ] } },
{ "type": "Feature", "properties": { "Name": "DP-18-008" }, "geometry": { "type": "Point", "coordinates": [ -64.0361922, -32.9207028 ] } },
{ "type": "Feature", "properties": { "Name": "DP-18-009" }, "geometry": { "type": "Point", "coordinates": [ -63.8838686, -31.6768822 ] } },
{ "type": "Feature", "properties": { "Name": "DP-18-010" }, "geometry": { "type": "Point", "coordinates": [ -64.0704571, -31.3853822 ] } },
{ "type": "Feature", "properties": { "Name": "DP-18-011" }, "geometry": { "type": "Point", "coordinates": [ -64.1256677, -31.4005853 ] } },
{ "type": "Feature", "properties": { "Name": "DP-18-012" }, "geometry": { "type": "Point", "coordinates": [ -62.9151309, -31.3983587 ] } },
{ "type": "Feature", "properties": { "Name": "DP-18-013" }, "geometry": { "type": "Point", "coordinates": [ -64.2389657, -31.3574895 ] } },
{ "type": "Feature", "properties": { "Name": "DP-18-014" }, "geometry": { "type": "Point", "coordinates": [ -64.2516341, -31.4584615 ] } },
{ "type": "Feature", "properties": { "Name": "DP-18-015" }, "geometry": { "type": "Point", "coordinates": [ -63.2004213, -31.4217559 ] } },
{ "type": "Feature", "properties": { "Name": "DP-18-016" }, "geometry": { "type": "Point", "coordinates": [ -62.9281834, -32.5335286 ] } },
{ "type": "Feature", "properties": { "Name": "DP-18-017" }, "geometry": { "type": "Point", "coordinates": [ -63.1602528, -31.4385048 ] } },
{ "type": "Feature", "properties": { "Name": "DP-18-018" }, "geometry": { "type": "Point", "coordinates": [ -64.0846571, -31.3900682 ] } },
{ "type": "Feature", "properties": { "Name": "DP-18-019" }, "geometry": { "type": "Point", "coordinates": [ -64.0840811, -31.3897406 ] } },
{ "type": "Feature", "properties": { "Name": "DP-18-020" }, "geometry": { "type": "Point", "coordinates": [ -62.8033222, -32.5630311 ] } },
{ "type": "Feature", "properties": { "Name": "DP-18-021" }, "geometry": { "type": "Point", "coordinates": [ -63.4704852, -32.1071903 ] } },
{ "type": "Feature", "properties": { "Name": "DP-18-022" }, "geometry": { "type": "Point", "coordinates": [ -63.3513466, -32.2272416 ] } },
{ "type": "Feature", "properties": { "Name": "DP-18-023" }, "geometry": { "type": "Point", "coordinates": [ -63.3617204, -32.2333878 ] } },
{ "type": "Feature", "properties": { "Name": "DP-18-024" }, "geometry": { "type": "Point", "coordinates": [ -62.7038554, -31.8479144 ] } },
{ "type": "Feature", "properties": { "Name": "DP-18-025" }, "geometry": { "type": "Point", "coordinates": [ -63.1473353, -32.1861604 ] } },
{ "type": "Feature", "properties": { "Name": "DP-18-026" }, "geometry": { "type": "Point", "coordinates": [ -63.1432266, -32.1845551 ] } },
{ "type": "Feature", "properties": { "Name": "DP-18-027" }, "geometry": { "type": "Point", "coordinates": [ -64.1148689, -31.4355589 ] } },
{ "type": "Feature", "properties": { "Name": "DP-18-028" }, "geometry": { "type": "Point", "coordinates": [ -62.106617, -32.6670697 ] } },
{ "type": "Feature", "properties": { "Name": "DP-18-029" }, "geometry": { "type": "Point", "coordinates": [ -63.3665169, -31.4106702 ] } },
{ "type": "Feature", "properties": { "Name": "DP-18-030" }, "geometry": { "type": "Point", "coordinates": [ -62.2282653, -32.6701403 ] } },
{ "type": "Feature", "properties": { "Name": "DP-18-031" }, "geometry": { "type": "Point", "coordinates": [ -62.2313869, -32.6697811 ] } },
{ "type": "Feature", "properties": { "Name": "DP-18-032" }, "geometry": { "type": "Point", "coordinates": [ -64.150948, -31.4597617 ] } },
{ "type": "Feature", "properties": { "Name": "DP-18-033" }, "geometry": { "type": "Point", "coordinates": [ -62.243778, -31.5540728 ] } },
{ "type": "Feature", "properties": { "Name": "DP-18-034" }, "geometry": { "type": "Point", "coordinates": [ -62.4008641, -33.6257486 ] } },
{ "type": "Feature", "properties": { "Name": "DP-18-035" }, "geometry": { "type": "Point", "coordinates": [ -63.9953106, -30.5940832 ] } },
{ "type": "Feature", "properties": { "Name": "DP-19-001" }, "geometry": { "type": "Point", "coordinates": [ -64.2690074, -33.1234644 ] } },
{ "type": "Feature", "properties": { "Name": "DP-19-002" }, "geometry": { "type": "Point", "coordinates": [ -64.1751832, -31.3273399 ] } },
{ "type": "Feature", "properties": { "Name": "DP-19-003" }, "geometry": { "type": "Point", "coordinates": [ -64.0945155, -30.8051569 ] } },
{ "type": "Feature", "properties": { "Name": "DP-19-004" }, "geometry": { "type": "Point", "coordinates": [ -64.3711879, -32.4042472 ] } },
{ "type": "Feature", "properties": { "Name": "DP-19-005" }, "geometry": { "type": "Point", "coordinates": [ -65.0025844, -30.8575641 ] } },
{ "type": "Feature", "properties": { "Name": "DP-19-006" }, "geometry": { "type": "Point", "coordinates": [ -63.5793231, -32.0274533 ] } },
{ "type": "Feature", "properties": { "Name": "DP-19-007" }, "geometry": { "type": "Point", "coordinates": [ -64.1449603, -31.1508881 ] } },
{ "type": "Feature", "properties": { "Name": "DP-19-008" }, "geometry": { "type": "Point", "coordinates": [ -64.3330496, -31.9609336 ] } },
{ "type": "Feature", "properties": { "Name": "DP-19-009" }, "geometry": { "type": "Point", "coordinates": [ -63.0890721, -31.4283134 ] } },
{ "type": "Feature", "properties": { "Name": "DP-19-010" }, "geometry": { "type": "Point", "coordinates": [ -63.2935788, -32.3740715 ] } },
{ "type": "Feature", "properties": { "Name": "DP-19-011" }, "geometry": { "type": "Point", "coordinates": [ -64.3867124, -33.9981815 ] } },
{ "type": "Feature", "properties": { "Name": "DP-19-012" }, "geometry": { "type": "Point", "coordinates": [ -64.3913631, -33.9745706 ] } },
{ "type": "Feature", "properties": { "Name": "DP-19-013" }, "geometry": { "type": "Point", "coordinates": [ -64.2009841, -31.4647651 ] } },
{ "type": "Feature", "properties": { "Name": "DP-19-014" }, "geometry": { "type": "Point", "coordinates": [ -64.010778, -31.549412 ] } },
{ "type": "Feature", "properties": { "Name": "DP-19-015" }, "geometry": { "type": "Point", "coordinates": [ -63.1874841, -31.4248679 ] } },
{ "type": "Feature", "properties": { "Name": "DP-19-016" }, "geometry": { "type": "Point", "coordinates": [ -64.0466614, -30.6976394 ] } },
{ "type": "Feature", "properties": { "Name": "DP-19-017" }, "geometry": { "type": "Point", "coordinates": [ -64.2693721, -33.1313747 ] } },
{ "type": "Feature", "properties": { "Name": "DP-19-018" }, "geometry": { "type": "Point", "coordinates": [ -64.2686914, -33.1397662 ] } },
{ "type": "Feature", "properties": { "Name": "DP-19-019" }, "geometry": { "type": "Point", "coordinates": [ -63.2051226, -31.4381474 ] } },
{ "type": "Feature", "properties": { "Name": "DP-19-020" }, "geometry": { "type": "Point", "coordinates": [ -63.8713522, -30.2071184 ] } },
{ "type": "Feature", "properties": { "Name": "DP-19-021" }, "geometry": { "type": "Point", "coordinates": [ -63.3053821, -32.3760809 ] } },
{ "type": "Feature", "properties": { "Name": "DP-19-022" }, "geometry": { "type": "Point", "coordinates": [ -62.7541449, -31.3956802 ] } },
{ "type": "Feature", "properties": { "Name": "DP-19-023" }, "geometry": { "type": "Point", "coordinates": [ -62.2577981, -32.6416969 ] } },
{ "type": "Feature", "properties": { "Name": "DP-19-024" }, "geometry": { "type": "Point", "coordinates": [ -62.4271201, -32.6030499 ] } },
{ "type": "Feature", "properties": { "Name": "DP-19-025" }, "geometry": { "type": "Point", "coordinates": [ -64.2889976, -32.1527248 ] } },
{ "type": "Feature", "properties": { "Name": "DP-20-001" }, "geometry": { "type": "Point", "coordinates": [ -64.4399965, -33.2108887 ] } },
{ "type": "Feature", "properties": { "Name": "DP-20-002" }, "geometry": { "type": "Point", "coordinates": [ -62.6144616, -32.5792286 ] } },
{ "type": "Feature", "properties": { "Name": "DP-20-003" }, "geometry": { "type": "Point", "coordinates": [ -64.1025388, -31.4643521 ] } },
{ "type": "Feature", "properties": { "Name": "DP-20-004" }, "geometry": { "type": "Point", "coordinates": [ -63.851555, -31.322026 ] } },
{ "type": "Feature", "properties": { "Name": "DP-20-005" }, "geometry": { "type": "Point", "coordinates": [ -63.8512331, -31.3219837 ] } },
{ "type": "Feature", "properties": { "Name": "DP-20-006" }, "geometry": { "type": "Point", "coordinates": [ -63.852082, -31.3221108 ] } },
{ "type": "Feature", "properties": { "Name": "DP-20-007" }, "geometry": { "type": "Point", "coordinates": [ -64.2649983, -33.1246821 ] } },
{ "type": "Feature", "properties": { "Name": "DP-20-008" }, "geometry": { "type": "Point", "coordinates": [ -64.2628993, -33.1271474 ] } },
{ "type": "Feature", "properties": { "Name": "DP-20-009" }, "geometry": { "type": "Point", "coordinates": [ -64.3247049, -32.7550758 ] } },
{ "type": "Feature", "properties": { "Name": "DP-20-010" }, "geometry": { "type": "Point", "coordinates": [ -64.3463528, -33.0163568 ] } },
{ "type": "Feature", "properties": { "Name": "DP-20-011" }, "geometry": { "type": "Point", "coordinates": [ -63.0455314, -32.1092514 ] } },
{ "type": "Feature", "properties": { "Name": "DP-20-012" }, "geometry": { "type": "Point", "coordinates": [ -63.0439958, -32.1081458 ] } },
{ "type": "Feature", "properties": { "Name": "DP-20-013" }, "geometry": { "type": "Point", "coordinates": [ -62.6154695, -32.578966 ] } },
{ "type": "Feature", "properties": { "Name": "DP-20-014" }, "geometry": { "type": "Point", "coordinates": [ -62.3777095, -31.6419858 ] } },
{ "type": "Feature", "properties": { "Name": "DP-20-015" }, "geometry": { "type": "Point", "coordinates": [ -62.3702354, -31.6407591 ] } },
{ "type": "Feature", "properties": { "Name": "DP-20-016" }, "geometry": { "type": "Point", "coordinates": [ -62.3822538, -31.6478428 ] } },
{ "type": "Feature", "properties": { "Name": "DP-20-017" }, "geometry": { "type": "Point", "coordinates": [ -61.9713029, -32.7082188 ] } },
{ "type": "Feature", "properties": { "Name": "DP-20-018" }, "geometry": { "type": "Point", "coordinates": [ -64.4129877, -33.6217993 ] } },
{ "type": "Feature", "properties": { "Name": "DP-20-019" }, "geometry": { "type": "Point", "coordinates": [ -64.2018215, -31.4802363 ] } },
{ "type": "Feature", "properties": { "Name": "DP-20-020" }, "geometry": { "type": "Point", "coordinates": [ -64.8019174, -30.7385065 ] } },
{ "type": "Feature", "properties": { "Name": "DP-20-021" }, "geometry": { "type": "Point", "coordinates": [ -64.4045578, -33.9284185 ] } },
{ "type": "Feature", "properties": { "Name": "DP-20-022" }, "geometry": { "type": "Point", "coordinates": [ -64.3898982, -33.938753 ] } },
{ "type": "Feature", "properties": { "Name": "DP-20-023" }, "geometry": { "type": "Point", "coordinates": [ -64.3627519, -34.4721257 ] } },
{ "type": "Feature", "properties": { "Name": "DP-20-024" }, "geometry": { "type": "Point", "coordinates": [ -64.2490714, -31.456715 ] } },
{ "type": "Feature", "properties": { "Name": "DP-20-025" }, "geometry": { "type": "Point", "coordinates": [ -62.5929725, -31.4552052 ] } },
{ "type": "Feature", "properties": { "Name": "DP-20-026" }, "geometry": { "type": "Point", "coordinates": [ -62.6030522, -31.4530397 ] } },
{ "type": "Feature", "properties": { "Name": "DP-20-027" }, "geometry": { "type": "Point", "coordinates": [ -64.5081547, -31.3681823 ] } },
{ "type": "Feature", "properties": { "Name": "DP-20-028" }, "geometry": { "type": "Point", "coordinates": [ -63.1807175, -31.4339131 ] } },
{ "type": "Feature", "properties": { "Name": "DP-20-029" }, "geometry": { "type": "Point", "coordinates": [ -63.1635654, -31.4356872 ] } },
{ "type": "Feature", "properties": { "Name": "DP-20-030" }, "geometry": { "type": "Point", "coordinates": [ -63.6566213, -31.305325 ] } },
{ "type": "Feature", "properties": { "Name": "DP-20-031" }, "geometry": { "type": "Point", "coordinates": [ -63.815311, -31.3065858 ] } },
{ "type": "Feature", "properties": { "Name": "DP-20-032" }, "geometry": { "type": "Point", "coordinates": [ -63.1583367, -33.4772443 ] } },
{ "type": "Feature", "properties": { "Name": "DP-20-033" }, "geometry": { "type": "Point", "coordinates": [ -63.9850347, -31.3599224 ] } },
{ "type": "Feature", "properties": { "Name": "DP-20-034" }, "geometry": { "type": "Point", "coordinates": [ -64.3514267, -31.9568973 ] } },
{ "type": "Feature", "properties": { "Name": "DP-20-035" }, "geometry": { "type": "Point", "coordinates": [ -63.5067066, -31.3984623 ] } },
{ "type": "Feature", "properties": { "Name": "DP-20-036" }, "geometry": { "type": "Point", "coordinates": [ -64.3024297, -31.6999265 ] } },
{ "type": "Feature", "properties": { "Name": "DP-20-037" }, "geometry": { "type": "Point", "coordinates": [ -64.3111089, -31.661605 ] } },
{ "type": "Feature", "properties": { "Name": "DP-20-038" }, "geometry": { "type": "Point", "coordinates": [ -64.3112828, -31.6608848 ] } },
{ "type": "Feature", "properties": { "Name": "DP-20-039" }, "geometry": { "type": "Point", "coordinates": [ -64.3578343, -31.9802445 ] } },
{ "type": "Feature", "properties": { "Name": "DP-20-040" }, "geometry": { "type": "Point", "coordinates": [ -62.1834555, -31.4563597 ] } },
{ "type": "Feature", "properties": { "Name": "DP-20-041" }, "geometry": { "type": "Point", "coordinates": [ -62.7318819, -31.8836338 ] } },
{ "type": "Feature", "properties": { "Name": "DP-20-042" }, "geometry": { "type": "Point", "coordinates": [ -64.0351899, -30.7041722 ] } },
{ "type": "Feature", "properties": { "Name": "DP-20-043" }, "geometry": { "type": "Point", "coordinates": [ -64.0389712, -30.6990942 ] } },
{ "type": "Feature", "properties": { "Name": "DP-20-044" }, "geometry": { "type": "Point", "coordinates": [ -63.8265427, -30.0802735 ] } },
{ "type": "Feature", "properties": { "Name": "DP-20-045" }, "geometry": { "type": "Point", "coordinates": [ -63.8403573, -30.1351667 ] } },
{ "type": "Feature", "properties": { "Name": "DP-20-046" }, "geometry": { "type": "Point", "coordinates": [ -63.2594267, -33.4113584 ] } },
{ "type": "Feature", "properties": { "Name": "DP-20-047" }, "geometry": { "type": "Point", "coordinates": [ -62.5511465, -32.6070858 ] } },
{ "type": "Feature", "properties": { "Name": "DP-20-048" }, "geometry": { "type": "Point", "coordinates": [ -62.5576878, -32.6059169 ] } },
{ "type": "Feature", "properties": { "Name": "DP-20-049" }, "geometry": { "type": "Point", "coordinates": [ -64.3554959, -31.9812961 ] } },
{ "type": "Feature", "properties": { "Name": "DP-05-001" }, "geometry": { "type": "Point", "coordinates": [ -65.0856034, -30.8292738 ] } },
{ "type": "Feature", "properties": { "Name": "DP-17-056" }, "geometry": { "type": "Point", "coordinates": [ -63.2783901, -33.3921526 ] } }
]
}
