{
"type": "FeatureCollection",
"name": "VISADOS_2025",
"crs": { "type": "name", "properties": { "name": "urn:ogc:def:crs:OGC:1.3:CRS84" } },
"bbox": [ -65.235057615, -34.84209107, -61.867223216, -29.89550017 ],                                                              
"features": [
{ "type": "Feature", "properties": { "Name": "D-25-001" }, "bbox": [ -64.801313251, -30.737402904, -64.801313251, -30.737402904 ], "geometry": { "type": "Point", "coordinates": [ -64.801313251, -30.737402904 ] } },
{ "type": "Feature", "properties": { "Name": "D-25-002" }, "bbox": [ -62.711346185, -31.871552768, -62.711346185, -31.871552768 ], "geometry": { "type": "Point", "coordinates": [ -62.711346185, -31.871552768 ] } },
{ "type": "Feature", "properties": { "Name": "D-25-003" }, "bbox": [ -63.591747339, -32.618012107, -63.591747339, -32.618012107 ], "geometry": { "type": "Point", "coordinates": [ -63.591747339, -32.618012107 ] } },
{ "type": "Feature", "properties": { "Name": "D-25-004" }, "bbox": [ -64.354347768, -33.156978442, -64.354347768, -33.156978442 ], "geometry": { "type": "Point", "coordinates": [ -64.354347768, -33.156978442 ] } },
{ "type": "Feature", "properties": { "Name": "D-25-005" }, "bbox": [ -63.708442733, -31.294569312, -63.708442733, -31.294569312 ], "geometry": { "type": "Point", "coordinates": [ -63.708442733, -31.294569312 ] } },
{ "type": "Feature", "properties": { "Name": "D-25-083" }, "bbox": [ -63.380205815, -34.148312407, -63.380205815, -34.148312407 ], "geometry": { "type": "Point", "coordinates": [ -63.380205815, -34.148312407 ] } },
{ "type": "Feature", "properties": { "Name": "D-25-013" }, "bbox": [ -64.433750956, -33.206683037, -64.433750956, -33.206683037 ], "geometry": { "type": "Point", "coordinates": [ -64.433750956, -33.206683037 ] } },
{ "type": "Feature", "properties": { "Name": "D-25-012" }, "bbox": [ -64.432475548, -33.205791626, -64.432475548, -33.205791626 ], "geometry": { "type": "Point", "coordinates": [ -64.432475548, -33.205791626 ] } },
{ "type": "Feature", "properties": { "Name": "D-25-007" }, "bbox": [ -63.908866432, -32.838225053, -63.908866432, -32.838225053 ], "geometry": { "type": "Point", "coordinates": [ -63.908866432, -32.838225053 ] } },
{ "type": "Feature", "properties": { "Name": "D-25-008" }, "bbox": [ -63.823007628, -31.306794119, -63.823007628, -31.306794119 ], "geometry": { "type": "Point", "coordinates": [ -63.823007628, -31.306794119 ] } },
{ "type": "Feature", "properties": { "Name": "D-25-009" }, "bbox": [ -64.130742208, -31.363601267, -64.130742208, -31.363601267 ], "geometry": { "type": "Point", "coordinates": [ -64.130742208, -31.363601267 ] } },
{ "type": "Feature", "properties": { "Name": "D-25-010" }, "bbox": [ -62.215935722, -32.64769821, -62.215935722, -32.64769821 ], "geometry": { "type": "Point", "coordinates": [ -62.215935722, -32.64769821 ] } },
{ "type": "Feature", "properties": { "Name": "D-25-011" }, "bbox": [ -64.038720328, -31.379814517, -64.038720328, -31.379814517 ], "geometry": { "type": "Point", "coordinates": [ -64.038720328, -31.379814517 ] } },
{ "type": "Feature", "properties": { "Name": "D-25-014" }, "bbox": [ -64.707661509, -33.381056347, -64.707661509, -33.381056347 ], "geometry": { "type": "Point", "coordinates": [ -64.707661509, -33.381056347 ] } },
{ "type": "Feature", "properties": { "Name": "D-25-015" }, "bbox": [ -62.22275078, -31.547646653, -62.22275078, -31.547646653 ], "geometry": { "type": "Point", "coordinates": [ -62.22275078, -31.547646653 ] } },
{ "type": "Feature", "properties": { "Name": "D-25-016" }, "bbox": [ -62.222402869, -31.546301541, -62.222402869, -31.546301541 ], "geometry": { "type": "Point", "coordinates": [ -62.222402869, -31.546301541 ] } },
{ "type": "Feature", "properties": { "Name": "D-25-017" }, "bbox": [ -63.232372008, -34.159370874, -63.232372008, -34.159370874 ], "geometry": { "type": "Point", "coordinates": [ -63.232372008, -34.159370874 ] } },
{ "type": "Feature", "properties": { "Name": "D-25-018" }, "bbox": [ -64.322394092, -33.093457836, -64.322394092, -33.093457836 ], "geometry": { "type": "Point", "coordinates": [ -64.322394092, -33.093457836 ] } },
{ "type": "Feature", "properties": { "Name": "D-25-019" }, "bbox": [ -64.311443242, -31.742544595, -64.311443242, -31.742544595 ], "geometry": { "type": "Point", "coordinates": [ -64.311443242, -31.742544595 ] } },
{ "type": "Feature", "properties": { "Name": "D-25-020" }, "bbox": [ -64.295942106, -31.746242342, -64.295942106, -31.746242342 ], "geometry": { "type": "Point", "coordinates": [ -64.295942106, -31.746242342 ] } },
{ "type": "Feature", "properties": { "Name": "D-25-021" }, "bbox": [ -64.249459002, -31.43316195, -64.249459002, -31.43316195 ], "geometry": { "type": "Point", "coordinates": [ -64.249459002, -31.43316195 ] } },
{ "type": "Feature", "properties": { "Name": "D-25-022" }, "bbox": [ -64.340678607, -31.969493234, -64.340678607, -31.969493234 ], "geometry": { "type": "Point", "coordinates": [ -64.340678607, -31.969493234 ] } },
{ "type": "Feature", "properties": { "Name": "D-25-023" }, "bbox": [ -64.106205183, -31.004240264, -64.106205183, -31.004240264 ], "geometry": { "type": "Point", "coordinates": [ -64.106205183, -31.004240264 ] } },
{ "type": "Feature", "properties": { "Name": "D-25-024" }, "bbox": [ -64.178023084, -31.321684966, -64.178023084, -31.321684966 ], "geometry": { "type": "Point", "coordinates": [ -64.178023084, -31.321684966 ] } },
{ "type": "Feature", "properties": { "Name": "D-25-025" }, "bbox": [ -64.346943953, -34.84209107, -64.346943953, -34.84209107 ], "geometry": { "type": "Point", "coordinates": [ -64.346943953, -34.84209107 ] } },
{ "type": "Feature", "properties": { "Name": "D-25-026" }, "bbox": [ -64.322925341, -33.094029303, -64.322925341, -33.094029303 ], "geometry": { "type": "Point", "coordinates": [ -64.322925341, -33.094029303 ] } },
{ "type": "Feature", "properties": { "Name": "D-25-027" }, "bbox": [ -64.405357856, -32.457583704, -64.405357856, -32.457583704 ], "geometry": { "type": "Point", "coordinates": [ -64.405357856, -32.457583704 ] } },
{ "type": "Feature", "properties": { "Name": "D-25-028" }, "bbox": [ -63.758134874, -32.733750663, -63.758134874, -32.733750663 ], "geometry": { "type": "Point", "coordinates": [ -63.758134874, -32.733750663 ] } },
{ "type": "Feature", "properties": { "Name": "D-25-031" }, "bbox": [ -62.087326287, -32.690331805, -62.087326287, -32.690331805 ], "geometry": { "type": "Point", "coordinates": [ -62.087326287, -32.690331805 ] } },
{ "type": "Feature", "properties": { "Name": "D-25-029" }, "bbox": [ -62.31790635, -31.431585521, -62.31790635, -31.431585521 ], "geometry": { "type": "Point", "coordinates": [ -62.31790635, -31.431585521 ] } },
{ "type": "Feature", "properties": { "Name": "D-25-030" }, "bbox": [ -64.539336262, -30.880509542, -64.539336262, -30.880509542 ], "geometry": { "type": "Point", "coordinates": [ -64.539336262, -30.880509542 ] } },
{ "type": "Feature", "properties": { "Name": "D-25-032" }, "bbox": [ -64.311265671, -31.72304074, -64.311265671, -31.72304074 ], "geometry": { "type": "Point", "coordinates": [ -64.311265671, -31.72304074 ] } },
{ "type": "Feature", "properties": { "Name": "D-25-035" }, "bbox": [ -63.859725527, -31.648377017, -63.859725527, -31.648377017 ], "geometry": { "type": "Point", "coordinates": [ -63.859725527, -31.648377017 ] } },
{ "type": "Feature", "properties": { "Name": "D-25-034" }, "bbox": [ -64.100621418, -31.474665227, -64.100621418, -31.474665227 ], "geometry": { "type": "Point", "coordinates": [ -64.100621418, -31.474665227 ] } },
{ "type": "Feature", "properties": { "Name": "D-25-033" }, "bbox": [ -64.100196454, -31.475610829, -64.100196454, -31.475610829 ], "geometry": { "type": "Point", "coordinates": [ -64.100196454, -31.475610829 ] } },
{ "type": "Feature", "properties": { "Name": "D-25-035-B" }, "bbox": [ -62.12710247, -31.425797275, -62.12710247, -31.425797275 ], "geometry": { "type": "Point", "coordinates": [ -62.12710247, -31.425797275 ] } },
{ "type": "Feature", "properties": { "Name": "D-25-036" }, "bbox": [ -64.37079074, -31.978446771, -64.37079074, -31.978446771 ], "geometry": { "type": "Point", "coordinates": [ -64.37079074, -31.978446771 ] } },
{ "type": "Feature", "properties": { "Name": "D-25-038" }, "bbox": [ -63.888084413, -31.640968619, -63.888084413, -31.640968619 ], "geometry": { "type": "Point", "coordinates": [ -63.888084413, -31.640968619 ] } },
{ "type": "Feature", "properties": { "Name": "D-25-039" }, "bbox": [ -61.986609836, -32.700961916, -61.986609836, -32.700961916 ], "geometry": { "type": "Point", "coordinates": [ -61.986609836, -32.700961916 ] } },
{ "type": "Feature", "properties": { "Name": "D-25-040" }, "bbox": [ -64.323734148, -31.896592779, -64.323734148, -31.896592779 ], "geometry": { "type": "Point", "coordinates": [ -64.323734148, -31.896592779 ] } },
{ "type": "Feature", "properties": { "Name": "D-25-037" }, "bbox": [ -63.391689349, -34.146881023, -63.391689349, -34.146881023 ], "geometry": { "type": "Point", "coordinates": [ -63.391689349, -34.146881023 ] } },
{ "type": "Feature", "properties": { "Name": "D-25-041" }, "bbox": [ -61.96857164, -32.696791079, -61.96857164, -32.696791079 ], "geometry": { "type": "Point", "coordinates": [ -61.96857164, -32.696791079 ] } },
{ "type": "Feature", "properties": { "Name": "D-25-042" }, "bbox": [ -61.95914755, -32.69902174, -61.95914755, -32.69902174 ], "geometry": { "type": "Point", "coordinates": [ -61.95914755, -32.69902174 ] } },
{ "type": "Feature", "properties": { "Name": "D-25-046" }, "bbox": [ -64.094856575, -31.469667161, -64.094856575, -31.469667161 ], "geometry": { "type": "Point", "coordinates": [ -64.094856575, -31.469667161 ] } },
{ "type": "Feature", "properties": { "Name": "D-25-047" }, "bbox": [ -63.84911649, -30.122045922, -63.84911649, -30.122045922 ], "geometry": { "type": "Point", "coordinates": [ -63.84911649, -30.122045922 ] } },
{ "type": "Feature", "properties": { "Name": "D-25-048" }, "bbox": [ -64.399268887, -33.926017532, -64.399268887, -33.926017532 ], "geometry": { "type": "Point", "coordinates": [ -64.399268887, -33.926017532 ] } },
{ "type": "Feature", "properties": { "Name": "D-25-043" }, "bbox": [ -62.694688286, -32.581894967, -62.694688286, -32.581894967 ], "geometry": { "type": "Point", "coordinates": [ -62.694688286, -32.581894967 ] } },
{ "type": "Feature", "properties": { "Name": "D-25-044" }, "bbox": [ -64.535897323, -30.826243692, -64.535897323, -30.826243692 ], "geometry": { "type": "Point", "coordinates": [ -64.535897323, -30.826243692 ] } },
{ "type": "Feature", "properties": { "Name": "D-25-045" }, "bbox": [ -64.535838872, -30.82350928, -64.535838872, -30.82350928 ], "geometry": { "type": "Point", "coordinates": [ -64.535838872, -30.82350928 ] } },
{ "type": "Feature", "properties": { "Name": "D-25-049" }, "bbox": [ -64.054730737, -32.936612441, -64.054730737, -32.936612441 ], "geometry": { "type": "Point", "coordinates": [ -64.054730737, -32.936612441 ] } },
{ "type": "Feature", "properties": { "Name": "D-25-050" }, "bbox": [ -64.081265568, -32.953315278, -64.081265568, -32.953315278 ], "geometry": { "type": "Point", "coordinates": [ -64.081265568, -32.953315278 ] } },
{ "type": "Feature", "properties": { "Name": "D-25-052" }, "bbox": [ -63.225942148, -32.36388985, -63.225942148, -32.36388985 ], "geometry": { "type": "Point", "coordinates": [ -63.225942148, -32.36388985 ] } },
{ "type": "Feature", "properties": { "Name": "D-25-051" }, "bbox": [ -64.375986167, -33.166166821, -64.375986167, -33.166166821 ], "geometry": { "type": "Point", "coordinates": [ -64.375986167, -33.166166821 ] } },
{ "type": "Feature", "properties": { "Name": "D-25-054" }, "bbox": [ -63.04067481, -32.108596513, -63.04067481, -32.108596513 ], "geometry": { "type": "Point", "coordinates": [ -63.04067481, -32.108596513 ] } },
{ "type": "Feature", "properties": { "Name": "D-25-055" }, "bbox": [ -64.354747125, -32.375182394, -64.354747125, -32.375182394 ], "geometry": { "type": "Point", "coordinates": [ -64.354747125, -32.375182394 ] } },
{ "type": "Feature", "properties": { "Name": "D-25-056" }, "bbox": [ -64.18678837, -31.342169084, -64.18678837, -31.342169084 ], "geometry": { "type": "Point", "coordinates": [ -64.18678837, -31.342169084 ] } },
{ "type": "Feature", "properties": { "Name": "D-25-053" }, "bbox": [ -64.203547311, -30.582840069, -64.203547311, -30.582840069 ], "geometry": { "type": "Point", "coordinates": [ -64.203547311, -30.582840069 ] } },
{ "type": "Feature", "properties": { "Name": "D-25-062" }, "bbox": [ -64.241115061, -31.35860588, -64.241115061, -31.35860588 ], "geometry": { "type": "Point", "coordinates": [ -64.241115061, -31.35860588 ] } },
{ "type": "Feature", "properties": { "Name": "D-25-064" }, "bbox": [ -65.235057615, -31.974763225, -65.235057615, -31.974763225 ], "geometry": { "type": "Point", "coordinates": [ -65.235057615, -31.974763225 ] } },
{ "type": "Feature", "properties": { "Name": "D-25-057" }, "bbox": [ -64.300475983, -32.195604976, -64.300475983, -32.195604976 ], "geometry": { "type": "Point", "coordinates": [ -64.300475983, -32.195604976 ] } },
{ "type": "Feature", "properties": { "Name": "D-25-058" }, "bbox": [ -64.300573277, -32.196579693, -64.300573277, -32.196579693 ], "geometry": { "type": "Point", "coordinates": [ -64.300573277, -32.196579693 ] } },
{ "type": "Feature", "properties": { "Name": "D-25-059" }, "bbox": [ -64.300049087, -32.197422364, -64.300049087, -32.197422364 ], "geometry": { "type": "Point", "coordinates": [ -64.300049087, -32.197422364 ] } },
{ "type": "Feature", "properties": { "Name": "D-25-060" }, "bbox": [ -64.299552468, -32.198165496, -64.299552468, -32.198165496 ], "geometry": { "type": "Point", "coordinates": [ -64.299552468, -32.198165496 ] } },
{ "type": "Feature", "properties": { "Name": "D-25-061" }, "bbox": [ -64.300977688, -32.199205592, -64.300977688, -32.199205592 ], "geometry": { "type": "Point", "coordinates": [ -64.300977688, -32.199205592 ] } },
{ "type": "Feature", "properties": { "Name": "D-25-066" }, "bbox": [ -64.711500734, -33.389315857, -64.711500734, -33.389315857 ], "geometry": { "type": "Point", "coordinates": [ -64.711500734, -33.389315857 ] } },
{ "type": "Feature", "properties": { "Name": "D-25-067" }, "bbox": [ -64.208929558, -31.353436388, -64.208929558, -31.353436388 ], "geometry": { "type": "Point", "coordinates": [ -64.208929558, -31.353436388 ] } },
{ "type": "Feature", "properties": { "Name": "D-25-063" }, "bbox": [ -64.244603314, -31.524534973, -64.244603314, -31.524534973 ], "geometry": { "type": "Point", "coordinates": [ -64.244603314, -31.524534973 ] } },
{ "type": "Feature", "properties": { "Name": "D-25-065" }, "bbox": [ -62.291862165, -32.653249951, -62.291862165, -32.653249951 ], "geometry": { "type": "Point", "coordinates": [ -62.291862165, -32.653249951 ] } },
{ "type": "Feature", "properties": { "Name": "D-25-068" }, "bbox": [ -65.126623051, -30.805938136, -65.126623051, -30.805938136 ], "geometry": { "type": "Point", "coordinates": [ -65.126623051, -30.805938136 ] } },
{ "type": "Feature", "properties": { "Name": "D-25-074" }, "bbox": [ -63.942929311, -30.442393, -63.942929311, -30.442393 ], "geometry": { "type": "Point", "coordinates": [ -63.942929311, -30.442393 ] } },
{ "type": "Feature", "properties": { "Name": "D-25-070" }, "bbox": [ -64.487801802, -31.413868955, -64.487801802, -31.413868955 ], "geometry": { "type": "Point", "coordinates": [ -64.487801802, -31.413868955 ] } },
{ "type": "Feature", "properties": { "Name": "D-25-071" }, "bbox": [ -64.47282636, -31.403878783, -64.47282636, -31.403878783 ], "geometry": { "type": "Point", "coordinates": [ -64.47282636, -31.403878783 ] } },
{ "type": "Feature", "properties": { "Name": "D-25-072" }, "bbox": [ -64.486374201, -31.348515748, -64.486374201, -31.348515748 ], "geometry": { "type": "Point", "coordinates": [ -64.486374201, -31.348515748 ] } },
{ "type": "Feature", "properties": { "Name": "D-25-069" }, "bbox": [ -64.141215572, -31.132791739, -64.141215572, -31.132791739 ], "geometry": { "type": "Point", "coordinates": [ -64.141215572, -31.132791739 ] } },
{ "type": "Feature", "properties": { "Name": "D-25-073" }, "bbox": [ -62.351861598, -32.624790834, -62.351861598, -32.624790834 ], "geometry": { "type": "Point", "coordinates": [ -62.351861598, -32.624790834 ] } },
{ "type": "Feature", "properties": { "Name": "D-25-075" }, "bbox": [ -64.388589688, -34.539412021, -64.388589688, -34.539412021 ], "geometry": { "type": "Point", "coordinates": [ -64.388589688, -34.539412021 ] } },
{ "type": "Feature", "properties": { "Name": "D-25-076" }, "bbox": [ -62.082266489, -32.668612189, -62.082266489, -32.668612189 ], "geometry": { "type": "Point", "coordinates": [ -62.082266489, -32.668612189 ] } },
{ "type": "Feature", "properties": { "Name": "D-25-077" }, "bbox": [ -63.215479979, -32.422420805, -63.215479979, -32.422420805 ], "geometry": { "type": "Point", "coordinates": [ -63.215479979, -32.422420805 ] } },
{ "type": "Feature", "properties": { "Name": "D-25-078" }, "bbox": [ -63.986261079, -30.479456085, -63.986261079, -30.479456085 ], "geometry": { "type": "Point", "coordinates": [ -63.986261079, -30.479456085 ] } },
{ "type": "Feature", "properties": { "Name": "D-25-079" }, "bbox": [ -63.986367541, -30.479784801, -63.986367541, -30.479784801 ], "geometry": { "type": "Point", "coordinates": [ -63.986367541, -30.479784801 ] } },
{ "type": "Feature", "properties": { "Name": "D-25-080" }, "bbox": [ -63.135414102, -31.439464816, -63.135414102, -31.439464816 ], "geometry": { "type": "Point", "coordinates": [ -63.135414102, -31.439464816 ] } },
{ "type": "Feature", "properties": { "Name": "D-25-082" }, "bbox": [ -63.254631511, -32.407199689, -63.254631511, -32.407199689 ], "geometry": { "type": "Point", "coordinates": [ -63.254631511, -32.407199689 ] } },
{ "type": "Feature", "properties": { "Name": "D-25-006" }, "bbox": [ -63.380294361, -34.1484886, -63.380294361, -34.1484886 ], "geometry": { "type": "Point", "coordinates": [ -63.380294361, -34.1484886 ] } },
{ "type": "Feature", "properties": { "Name": "D-25-084" }, "bbox": [ -63.17203294, -32.443859951, -63.17203294, -32.443859951 ], "geometry": { "type": "Point", "coordinates": [ -63.17203294, -32.443859951 ] } },
{ "type": "Feature", "properties": { "Name": "D-25-085" }, "bbox": [ -63.918928576, -30.263328232, -63.918928576, -30.263328232 ], "geometry": { "type": "Point", "coordinates": [ -63.918928576, -30.263328232 ] } },
{ "type": "Feature", "properties": { "Name": "D-25-088" }, "bbox": [ -64.473431096, -31.163237652, -64.473431096, -31.163237652 ], "geometry": { "type": "Point", "coordinates": [ -64.473431096, -31.163237652 ] } },
{ "type": "Feature", "properties": { "Name": "D-25-086" }, "bbox": [ -63.553865277, -31.392944772, -63.553865277, -31.392944772 ], "geometry": { "type": "Point", "coordinates": [ -63.553865277, -31.392944772 ] } },
{ "type": "Feature", "properties": { "Name": "D-25-087" }, "bbox": [ -64.347860177, -33.036242992, -64.347860177, -33.036242992 ], "geometry": { "type": "Point", "coordinates": [ -64.347860177, -33.036242992 ] } },
{ "type": "Feature", "properties": { "Name": "D-25-081" }, "bbox": [ -63.203440406, -31.422964115, -63.203440406, -31.422964115 ], "geometry": { "type": "Point", "coordinates": [ -63.203440406, -31.422964115 ] } },
{ "type": "Feature", "properties": { "Name": "D-25-089" }, "bbox": [ -64.481824797, -31.101995788, -64.481824797, -31.101995788 ], "geometry": { "type": "Point", "coordinates": [ -64.481824797, -31.101995788 ] } },
{ "type": "Feature", "properties": { "Name": "D-25-090" }, "bbox": [ -62.25401924, -31.434540397, -62.25401924, -31.434540397 ], "geometry": { "type": "Point", "coordinates": [ -62.25401924, -31.434540397 ] } },
{ "type": "Feature", "properties": { "Name": "D-25-090BIS" }, "bbox": [ -62.754353276, -31.394109969, -62.754353276, -31.394109969 ], "geometry": { "type": "Point", "coordinates": [ -62.754353276, -31.394109969 ] } },
{ "type": "Feature", "properties": { "Name": "D-25-091" }, "bbox": [ -62.789293972, -31.389561553, -62.789293972, -31.389561553 ], "geometry": { "type": "Point", "coordinates": [ -62.789293972, -31.389561553 ] } },
{ "type": "Feature", "properties": { "Name": "D-25-092" }, "bbox": [ -63.968568433, -30.430784456, -63.968568433, -30.430784456 ], "geometry": { "type": "Point", "coordinates": [ -63.968568433, -30.430784456 ] } },
{ "type": "Feature", "properties": { "Name": "D-25-095" }, "bbox": [ -63.943405475, -30.445294109, -63.943405475, -30.445294109 ], "geometry": { "type": "Point", "coordinates": [ -63.943405475, -30.445294109 ] } },
{ "type": "Feature", "properties": { "Name": "D-25-093" }, "bbox": [ -62.694270144, -32.609982269, -62.694270144, -32.609982269 ], "geometry": { "type": "Point", "coordinates": [ -62.694270144, -32.609982269 ] } },
{ "type": "Feature", "properties": { "Name": "D-25-096" }, "bbox": [ -63.86649897, -31.693820288, -63.86649897, -31.693820288 ], "geometry": { "type": "Point", "coordinates": [ -63.86649897, -31.693820288 ] } },
{ "type": "Feature", "properties": { "Name": "D-25-098" }, "bbox": [ -63.253462651, -32.406584072, -63.253462651, -32.406584072 ], "geometry": { "type": "Point", "coordinates": [ -63.253462651, -32.406584072 ] } },
{ "type": "Feature", "properties": { "Name": "D-25-099" }, "bbox": [ -64.077891343, -31.435605987, -64.077891343, -31.435605987 ], "geometry": { "type": "Point", "coordinates": [ -64.077891343, -31.435605987 ] } },
{ "type": "Feature", "properties": { "Name": "D-25-097" }, "bbox": [ -62.29334269, -32.64928666, -62.29334269, -32.64928666 ], "geometry": { "type": "Point", "coordinates": [ -62.29334269, -32.64928666 ] } },
{ "type": "Feature", "properties": { "Name": "D-25-094" }, "bbox": [ -62.35643063, -31.63264586, -62.35643063, -31.63264586 ], "geometry": { "type": "Point", "coordinates": [ -62.35643063, -31.63264586 ] } },
{ "type": "Feature", "properties": { "Name": "D-25-102" }, "bbox": [ -64.369996914, -31.975905305, -64.369996914, -31.975905305 ], "geometry": { "type": "Point", "coordinates": [ -64.369996914, -31.975905305 ] } },
{ "type": "Feature", "properties": { "Name": "D-25-100" }, "bbox": [ -64.062909583, -30.860870033, -64.062909583, -30.860870033 ], "geometry": { "type": "Point", "coordinates": [ -64.062909583, -30.860870033 ] } },
{ "type": "Feature", "properties": { "Name": "D-25-101" }, "bbox": [ -64.082872611, -30.974892389, -64.082872611, -30.974892389 ], "geometry": { "type": "Point", "coordinates": [ -64.082872611, -30.974892389 ] } },
{ "type": "Feature", "properties": { "Name": "D-25-103" }, "bbox": [ -62.631222473, -31.80978398, -62.631222473, -31.80978398 ], "geometry": { "type": "Point", "coordinates": [ -62.631222473, -31.80978398 ] } },
{ "type": "Feature", "properties": { "Name": "D-25-104" }, "bbox": [ -63.32877225, -33.389182894, -63.32877225, -33.389182894 ], "geometry": { "type": "Point", "coordinates": [ -63.32877225, -33.389182894 ] } },
{ "type": "Feature", "properties": { "Name": "D-25-111" }, "bbox": [ -64.334974489, -33.083555738, -64.334974489, -33.083555738 ], "geometry": { "type": "Point", "coordinates": [ -64.334974489, -33.083555738 ] } },
{ "type": "Feature", "properties": { "Name": "D-25-110" }, "bbox": [ -62.949321349, -32.040011166, -62.949321349, -32.040011166 ], "geometry": { "type": "Point", "coordinates": [ -62.949321349, -32.040011166 ] } },
{ "type": "Feature", "properties": { "Name": "D-25-112" }, "bbox": [ -64.311868939, -31.726075309, -64.311868939, -31.726075309 ], "geometry": { "type": "Point", "coordinates": [ -64.311868939, -31.726075309 ] } },
{ "type": "Feature", "properties": { "Name": "D-25-117" }, "bbox": [ -64.35371302, -32.851531712, -64.35371302, -32.851531712 ], "geometry": { "type": "Point", "coordinates": [ -64.35371302, -32.851531712 ] } },
{ "type": "Feature", "properties": { "Name": "D-25-105" }, "bbox": [ -63.351247366, -32.291494788, -63.351247366, -32.291494788 ], "geometry": { "type": "Point", "coordinates": [ -63.351247366, -32.291494788 ] } },
{ "type": "Feature", "properties": { "Name": "D-25-106" }, "bbox": [ -64.36083756, -34.826926702, -64.36083756, -34.826926702 ], "geometry": { "type": "Point", "coordinates": [ -64.36083756, -34.826926702 ] } },
{ "type": "Feature", "properties": { "Name": "D-25-107" }, "bbox": [ -64.495003145, -31.07802558, -64.495003145, -31.07802558 ], "geometry": { "type": "Point", "coordinates": [ -64.495003145, -31.07802558 ] } },
{ "type": "Feature", "properties": { "Name": "D-25-108" }, "bbox": [ -64.411178824, -32.561775342, -64.411178824, -32.561775342 ], "geometry": { "type": "Point", "coordinates": [ -64.411178824, -32.561775342 ] } },
{ "type": "Feature", "properties": { "Name": "D-25-109" }, "bbox": [ -62.518863597, -31.417858905, -62.518863597, -31.417858905 ], "geometry": { "type": "Point", "coordinates": [ -62.518863597, -31.417858905 ] } },
{ "type": "Feature", "properties": { "Name": "D-25-113" }, "bbox": [ -62.494361383, -32.588059221, -62.494361383, -32.588059221 ], "geometry": { "type": "Point", "coordinates": [ -62.494361383, -32.588059221 ] } },
{ "type": "Feature", "properties": { "Name": "D-25-114" }, "bbox": [ -63.966490256, -31.356471209, -63.966490256, -31.356471209 ], "geometry": { "type": "Point", "coordinates": [ -63.966490256, -31.356471209 ] } },
{ "type": "Feature", "properties": { "Name": "D-25-115" }, "bbox": [ -62.239044522, -31.558121327, -62.239044522, -31.558121327 ], "geometry": { "type": "Point", "coordinates": [ -62.239044522, -31.558121327 ] } },
{ "type": "Feature", "properties": { "Name": "D-25-116" }, "bbox": [ -64.857523618, -33.472456678, -64.857523618, -33.472456678 ], "geometry": { "type": "Point", "coordinates": [ -64.857523618, -33.472456678 ] } },
{ "type": "Feature", "properties": { "Name": "D-25-118" }, "bbox": [ -64.237518633, -31.460512952, -64.237518633, -31.460512952 ], "geometry": { "type": "Point", "coordinates": [ -64.237518633, -31.460512952 ] } },
{ "type": "Feature", "properties": { "Name": "D-25-119" }, "bbox": [ -63.196167124, -33.427893064, -63.196167124, -33.427893064 ], "geometry": { "type": "Point", "coordinates": [ -63.196167124, -33.427893064 ] } },
{ "type": "Feature", "properties": { "Name": "D-25-120" }, "bbox": [ -63.197245448, -33.432323031, -63.197245448, -33.432323031 ], "geometry": { "type": "Point", "coordinates": [ -63.197245448, -33.432323031 ] } },
{ "type": "Feature", "properties": { "Name": "D-25-121" }, "bbox": [ -63.037058648, -31.42281662, -63.037058648, -31.42281662 ], "geometry": { "type": "Point", "coordinates": [ -63.037058648, -31.42281662 ] } },
{ "type": "Feature", "properties": { "Name": "D-25-122" }, "bbox": [ -63.987067814, -31.54653938, -63.987067814, -31.54653938 ], "geometry": { "type": "Point", "coordinates": [ -63.987067814, -31.54653938 ] } },
{ "type": "Feature", "properties": { "Name": "D-25-123" }, "bbox": [ -64.772461948, -33.876717072, -64.772461948, -33.876717072 ], "geometry": { "type": "Point", "coordinates": [ -64.772461948, -33.876717072 ] } },
{ "type": "Feature", "properties": { "Name": "D-25-124" }, "bbox": [ -64.402140716, -33.926784296, -64.402140716, -33.926784296 ], "geometry": { "type": "Point", "coordinates": [ -64.402140716, -33.926784296 ] } },
{ "type": "Feature", "properties": { "Name": "D-25-125" }, "bbox": [ -63.232168781, -32.335553234, -63.232168781, -32.335553234 ], "geometry": { "type": "Point", "coordinates": [ -63.232168781, -32.335553234 ] } },
{ "type": "Feature", "properties": { "Name": "D-25-126" }, "bbox": [ -64.732912728, -33.398306305, -64.732912728, -33.398306305 ], "geometry": { "type": "Point", "coordinates": [ -64.732912728, -33.398306305 ] } },
{ "type": "Feature", "properties": { "Name": "D-25-128" }, "bbox": [ -63.746121589, -32.728355447, -63.746121589, -32.728355447 ], "geometry": { "type": "Point", "coordinates": [ -63.746121589, -32.728355447 ] } },
{ "type": "Feature", "properties": { "Name": "D-25-129" }, "bbox": [ -64.465495426, -31.301506929, -64.465495426, -31.301506929 ], "geometry": { "type": "Point", "coordinates": [ -64.465495426, -31.301506929 ] } },
{ "type": "Feature", "properties": { "Name": "D-25-127" }, "bbox": [ -63.247606112, -34.192422207, -63.247606112, -34.192422207 ], "geometry": { "type": "Point", "coordinates": [ -63.247606112, -34.192422207 ] } },
{ "type": "Feature", "properties": { "Name": "D-25-130" }, "bbox": [ -62.038784504, -32.677425406, -62.038784504, -32.677425406 ], "geometry": { "type": "Point", "coordinates": [ -62.038784504, -32.677425406 ] } },
{ "type": "Feature", "properties": { "Name": "D-25-131" }, "bbox": [ -64.23865275, -31.431715232, -64.23865275, -31.431715232 ], "geometry": { "type": "Point", "coordinates": [ -64.23865275, -31.431715232 ] } },
{ "type": "Feature", "properties": { "Name": "D-25-133" }, "bbox": [ -63.207279874, -32.388786864, -63.207279874, -32.388786864 ], "geometry": { "type": "Point", "coordinates": [ -63.207279874, -32.388786864 ] } },
{ "type": "Feature", "properties": { "Name": "D-25-132" }, "bbox": [ -62.108295772, -32.686101977, -62.108295772, -32.686101977 ], "geometry": { "type": "Point", "coordinates": [ -62.108295772, -32.686101977 ] } },
{ "type": "Feature", "properties": { "Name": "D-25-134" }, "bbox": [ -63.692247293, -31.293863413, -63.692247293, -31.293863413 ], "geometry": { "type": "Point", "coordinates": [ -63.692247293, -31.293863413 ] } },
{ "type": "Feature", "properties": { "Name": "D-25-135" }, "bbox": [ -64.238455349, -31.431588588, -64.238455349, -31.431588588 ], "geometry": { "type": "Point", "coordinates": [ -64.238455349, -31.431588588 ] } },
{ "type": "Feature", "properties": { "Name": "D-25-137" }, "bbox": [ -64.200332516, -33.992805092, -64.200332516, -33.992805092 ], "geometry": { "type": "Point", "coordinates": [ -64.200332516, -33.992805092 ] } },
{ "type": "Feature", "properties": { "Name": "D-25-136" }, "bbox": [ -64.206854293, -31.491585354, -64.206854293, -31.491585354 ], "geometry": { "type": "Point", "coordinates": [ -64.206854293, -31.491585354 ] } },
{ "type": "Feature", "properties": { "Name": "D-25-138" }, "bbox": [ -63.891563179, -32.826149759, -63.891563179, -32.826149759 ], "geometry": { "type": "Point", "coordinates": [ -63.891563179, -32.826149759 ] } },
{ "type": "Feature", "properties": { "Name": "D-25-139" }, "bbox": [ -64.168204948, -33.009190052, -64.168204948, -33.009190052 ], "geometry": { "type": "Point", "coordinates": [ -64.168204948, -33.009190052 ] } },
{ "type": "Feature", "properties": { "Name": "D-25-140" }, "bbox": [ -63.939981351, -30.358008356, -63.939981351, -30.358008356 ], "geometry": { "type": "Point", "coordinates": [ -63.939981351, -30.358008356 ] } },
{ "type": "Feature", "properties": { "Name": "D-25-141" }, "bbox": [ -64.401449604, -31.456681331, -64.401449604, -31.456681331 ], "geometry": { "type": "Point", "coordinates": [ -64.401449604, -31.456681331 ] } },
{ "type": "Feature", "properties": { "Name": "D-25-142" }, "bbox": [ -62.315552462, -32.655119954, -62.315552462, -32.655119954 ], "geometry": { "type": "Point", "coordinates": [ -62.315552462, -32.655119954 ] } },
{ "type": "Feature", "properties": { "Name": "D-25-143" }, "bbox": [ -64.483971269, -31.133478206, -64.483971269, -31.133478206 ], "geometry": { "type": "Point", "coordinates": [ -64.483971269, -31.133478206 ] } },
{ "type": "Feature", "properties": { "Name": "D-25-144" }, "bbox": [ -63.93942027, -30.348165778, -63.93942027, -30.348165778 ], "geometry": { "type": "Point", "coordinates": [ -63.93942027, -30.348165778 ] } },
{ "type": "Feature", "properties": { "Name": "D-25-149" }, "bbox": [ -64.176423094, -31.313093286, -64.176423094, -31.313093286 ], "geometry": { "type": "Point", "coordinates": [ -64.176423094, -31.313093286 ] } },
{ "type": "Feature", "properties": { "Name": "D-25-145" }, "bbox": [ -62.133203981, -32.679301355, -62.133203981, -32.679301355 ], "geometry": { "type": "Point", "coordinates": [ -62.133203981, -32.679301355 ] } },
{ "type": "Feature", "properties": { "Name": "D-25-151" }, "bbox": [ -62.09531557, -31.421620872, -62.09531557, -31.421620872 ], "geometry": { "type": "Point", "coordinates": [ -62.09531557, -31.421620872 ] } },
{ "type": "Feature", "properties": { "Name": "D-25-146" }, "bbox": [ -63.35867602, -32.232081609, -63.35867602, -32.232081609 ], "geometry": { "type": "Point", "coordinates": [ -63.35867602, -32.232081609 ] } },
{ "type": "Feature", "properties": { "Name": "D-25-147" }, "bbox": [ -64.104618715, -30.771261761, -64.104618715, -30.771261761 ], "geometry": { "type": "Point", "coordinates": [ -64.104618715, -30.771261761 ] } },
{ "type": "Feature", "properties": { "Name": "D-25-148" }, "bbox": [ -64.105669991, -30.768979104, -64.105669991, -30.768979104 ], "geometry": { "type": "Point", "coordinates": [ -64.105669991, -30.768979104 ] } },
{ "type": "Feature", "properties": { "Name": "D-25-150" }, "bbox": [ -64.255799586, -33.133024774, -64.255799586, -33.133024774 ], "geometry": { "type": "Point", "coordinates": [ -64.255799586, -33.133024774 ] } },
{ "type": "Feature", "properties": { "Name": "D-25-154" }, "bbox": [ -64.267672891, -31.614012767, -64.267672891, -31.614012767 ], "geometry": { "type": "Point", "coordinates": [ -64.267672891, -31.614012767 ] } },
{ "type": "Feature", "properties": { "Name": "D-25-152" }, "bbox": [ -63.231490703, -32.345666816, -63.231490703, -32.345666816 ], "geometry": { "type": "Point", "coordinates": [ -63.231490703, -32.345666816 ] } },
{ "type": "Feature", "properties": { "Name": "D-25-157" }, "bbox": [ -63.962752514, -31.363487782, -63.962752514, -31.363487782 ], "geometry": { "type": "Point", "coordinates": [ -63.962752514, -31.363487782 ] } },
{ "type": "Feature", "properties": { "Name": "D-25-158" }, "bbox": [ -63.271193774, -33.401033346, -63.271193774, -33.401033346 ], "geometry": { "type": "Point", "coordinates": [ -63.271193774, -33.401033346 ] } },
{ "type": "Feature", "properties": { "Name": "D-25-153" }, "bbox": [ -63.465042343, -32.148464313, -63.465042343, -32.148464313 ], "geometry": { "type": "Point", "coordinates": [ -63.465042343, -32.148464313 ] } },
{ "type": "Feature", "properties": { "Name": "D-25-155" }, "bbox": [ -61.867223216, -32.750233357, -61.867223216, -32.750233357 ], "geometry": { "type": "Point", "coordinates": [ -61.867223216, -32.750233357 ] } },
{ "type": "Feature", "properties": { "Name": "D-25-156" }, "bbox": [ -63.689402946, -31.906381611, -63.689402946, -31.906381611 ], "geometry": { "type": "Point", "coordinates": [ -63.689402946, -31.906381611 ] } },
{ "type": "Feature", "properties": { "Name": "D-25-161" }, "bbox": [ -64.122727543, -31.404032632, -64.122727543, -31.404032632 ], "geometry": { "type": "Point", "coordinates": [ -64.122727543, -31.404032632 ] } },
{ "type": "Feature", "properties": { "Name": "D-25-159" }, "bbox": [ -63.176965503, -31.447428578, -63.176965503, -31.447428578 ], "geometry": { "type": "Point", "coordinates": [ -63.176965503, -31.447428578 ] } },
{ "type": "Feature", "properties": { "Name": "D-25-160" }, "bbox": [ -64.295703923, -32.201942787, -64.295703923, -32.201942787 ], "geometry": { "type": "Point", "coordinates": [ -64.295703923, -32.201942787 ] } },
{ "type": "Feature", "properties": { "Name": "D-25-162" }, "bbox": [ -64.137168193, -31.12777377, -64.137168193, -31.12777377 ], "geometry": { "type": "Point", "coordinates": [ -64.137168193, -31.12777377 ] } },
{ "type": "Feature", "properties": { "Name": "D-25-163" }, "bbox": [ -64.174810375, -31.300864487, -64.174810375, -31.300864487 ], "geometry": { "type": "Point", "coordinates": [ -64.174810375, -31.300864487 ] } },
{ "type": "Feature", "properties": { "Name": "D-25-166" }, "bbox": [ -64.353196441, -31.954203004, -64.353196441, -31.954203004 ], "geometry": { "type": "Point", "coordinates": [ -64.353196441, -31.954203004 ] } },
{ "type": "Feature", "properties": { "Name": "D-25-164" }, "bbox": [ -64.131841388, -31.450412635, -64.131841388, -31.450412635 ], "geometry": { "type": "Point", "coordinates": [ -64.131841388, -31.450412635 ] } },
{ "type": "Feature", "properties": { "Name": "D-25-168" }, "bbox": [ -63.407308233, -31.387561715, -63.407308233, -31.387561715 ], "geometry": { "type": "Point", "coordinates": [ -63.407308233, -31.387561715 ] } },
{ "type": "Feature", "properties": { "Name": "D-25-165" }, "bbox": [ -63.916016823, -34.044635464, -63.916016823, -34.044635464 ], "geometry": { "type": "Point", "coordinates": [ -63.916016823, -34.044635464 ] } },
{ "type": "Feature", "properties": { "Name": "D-25-169" }, "bbox": [ -63.394934808, -31.433768941, -63.394934808, -31.433768941 ], "geometry": { "type": "Point", "coordinates": [ -63.394934808, -31.433768941 ] } },
{ "type": "Feature", "properties": { "Name": "D-25-170" }, "bbox": [ -64.30190524, -33.092245856, -64.30190524, -33.092245856 ], "geometry": { "type": "Point", "coordinates": [ -64.30190524, -33.092245856 ] } },
{ "type": "Feature", "properties": { "Name": "D-25-171" }, "bbox": [ -63.681747713, -31.914281808, -63.681747713, -31.914281808 ], "geometry": { "type": "Point", "coordinates": [ -63.681747713, -31.914281808 ] } },
{ "type": "Feature", "properties": { "Name": "D-25-172" }, "bbox": [ -62.463351058, -31.693672541, -62.463351058, -31.693672541 ], "geometry": { "type": "Point", "coordinates": [ -62.463351058, -31.693672541 ] } },
{ "type": "Feature", "properties": { "Name": "D-25-174" }, "bbox": [ -63.591937258, -32.013093271, -63.591937258, -32.013093271 ], "geometry": { "type": "Point", "coordinates": [ -63.591937258, -32.013093271 ] } },
{ "type": "Feature", "properties": { "Name": "D-25-167" }, "bbox": [ -64.393041143, -32.567360094, -64.393041143, -32.567360094 ], "geometry": { "type": "Point", "coordinates": [ -64.393041143, -32.567360094 ] } },
{ "type": "Feature", "properties": { "Name": "D-25-173" }, "bbox": [ -65.161738888, -32.018764519, -65.161738888, -32.018764519 ], "geometry": { "type": "Point", "coordinates": [ -65.161738888, -32.018764519 ] } },
{ "type": "Feature", "properties": { "Name": "D-25-175" }, "bbox": [ -62.472317434, -31.700107211, -62.472317434, -31.700107211 ], "geometry": { "type": "Point", "coordinates": [ -62.472317434, -31.700107211 ] } },
{ "type": "Feature", "properties": { "Name": "D-25-176" }, "bbox": [ -62.778921112, -32.596131082, -62.778921112, -32.596131082 ], "geometry": { "type": "Point", "coordinates": [ -62.778921112, -32.596131082 ] } },
{ "type": "Feature", "properties": { "Name": "TAD-25-177" }, "bbox": [ -65.107562074, -33.868942296, -65.107562074, -33.868942296 ], "geometry": { "type": "Point", "coordinates": [ -65.107562074, -33.868942296 ] } },
{ "type": "Feature", "properties": { "Name": "TAD-25-178" }, "bbox": [ -64.324896204, -32.756530113, -64.324896204, -32.756530113 ], "geometry": { "type": "Point", "coordinates": [ -64.324896204, -32.756530113 ] } },
{ "type": "Feature", "properties": { "Name": "TAD-25-179" }, "bbox": [ -64.466933261, -31.30393131, -64.466933261, -31.30393131 ], "geometry": { "type": "Point", "coordinates": [ -64.466933261, -31.30393131 ] } },
{ "type": "Feature", "properties": { "Name": "TAD-25-180" }, "bbox": [ -64.461734522, -31.23032903, -64.461734522, -31.23032903 ], "geometry": { "type": "Point", "coordinates": [ -64.461734522, -31.23032903 ] } },
{ "type": "Feature", "properties": { "Name": "TAD-25-181" }, "bbox": [ -64.11818908, -31.438272123, -64.11818908, -31.438272123 ], "geometry": { "type": "Point", "coordinates": [ -64.11818908, -31.438272123 ] } },
{ "type": "Feature", "properties": { "Name": "TAD-25-182" }, "bbox": [ -63.86499742, -31.699162954, -63.86499742, -31.699162954 ], "geometry": { "type": "Point", "coordinates": [ -63.86499742, -31.699162954 ] } },
{ "type": "Feature", "properties": { "Name": "TAD-25-183" }, "bbox": [ -62.864159787, -33.539705786, -62.864159787, -33.539705786 ], "geometry": { "type": "Point", "coordinates": [ -62.864159787, -33.539705786 ] } },
{ "type": "Feature", "properties": { "Name": "TAD-25-184" }, "bbox": [ -63.339410764, -31.436905524, -63.339410764, -31.436905524 ], "geometry": { "type": "Point", "coordinates": [ -63.339410764, -31.436905524 ] } },
{ "type": "Feature", "properties": { "Name": "TAD-25-185" }, "bbox": [ -64.188028982, -31.353575964, -64.188028982, -31.353575964 ], "geometry": { "type": "Point", "coordinates": [ -64.188028982, -31.353575964 ] } },
{ "type": "Feature", "properties": { "Name": "TAD-25-186" }, "bbox": [ -64.407110088, -33.921623993, -64.407110088, -33.921623993 ], "geometry": { "type": "Point", "coordinates": [ -64.407110088, -33.921623993 ] } },
{ "type": "Feature", "properties": { "Name": "TAD-25-187" }, "bbox": [ -64.584216511, -31.994315813, -64.584216511, -31.994315813 ], "geometry": { "type": "Point", "coordinates": [ -64.584216511, -31.994315813 ] } },
{ "type": "Feature", "properties": { "Name": "TAD-25-188" }, "bbox": [ -64.465469011, -31.301362066, -64.465469011, -31.301362066 ], "geometry": { "type": "Point", "coordinates": [ -64.465469011, -31.301362066 ] } },
{ "type": "Feature", "properties": { "Name": "TAD-25-189" }, "bbox": [ -64.205309427, -31.470938298, -64.205309427, -31.470938298 ], "geometry": { "type": "Point", "coordinates": [ -64.205309427, -31.470938298 ] } },
{ "type": "Feature", "properties": { "Name": "TAD-25-190" }, "bbox": [ -64.374097752, -34.322379618, -64.374097752, -34.322379618 ], "geometry": { "type": "Point", "coordinates": [ -64.374097752, -34.322379618 ] } },
{ "type": "Feature", "properties": { "Name": "TAD-25-191" }, "bbox": [ -64.112660866, -31.420587405, -64.112660866, -31.420587405 ], "geometry": { "type": "Point", "coordinates": [ -64.112660866, -31.420587405 ] } },
{ "type": "Feature", "properties": { "Name": "TAD-25-192" }, "bbox": [ -64.113144318, -31.41849661, -64.113144318, -31.41849661 ], "geometry": { "type": "Point", "coordinates": [ -64.113144318, -31.41849661 ] } },
{ "type": "Feature", "properties": { "Name": "TAD-25-193" }, "bbox": [ -64.114308712, -31.418195589, -64.114308712, -31.418195589 ], "geometry": { "type": "Point", "coordinates": [ -64.114308712, -31.418195589 ] } },
{ "type": "Feature", "properties": { "Name": "TAD-25-194" }, "bbox": [ -64.114467709, -31.417678816, -64.114467709, -31.417678816 ], "geometry": { "type": "Point", "coordinates": [ -64.114467709, -31.417678816 ] } },
{ "type": "Feature", "properties": { "Name": "TAD-25-195" }, "bbox": [ -64.114593336, -31.417216952, -64.114593336, -31.417216952 ], "geometry": { "type": "Point", "coordinates": [ -64.114593336, -31.417216952 ] } },
{ "type": "Feature", "properties": { "Name": "TAD-25-196" }, "bbox": [ -64.203678559, -31.471234114, -64.203678559, -31.471234114 ], "geometry": { "type": "Point", "coordinates": [ -64.203678559, -31.471234114 ] } },
{ "type": "Feature", "properties": { "Name": "TAD-25-197" }, "bbox": [ -64.059991381, -30.709136164, -64.059991381, -30.709136164 ], "geometry": { "type": "Point", "coordinates": [ -64.059991381, -30.709136164 ] } },
{ "type": "Feature", "properties": { "Name": "TAD-25-198" }, "bbox": [ -64.203820693, -31.472614423, -64.203820693, -31.472614423 ], "geometry": { "type": "Point", "coordinates": [ -64.203820693, -31.472614423 ] } },
{ "type": "Feature", "properties": { "Name": "TAD-25-203" }, "bbox": [ -64.205346117, -31.471643364, -64.205346117, -31.471643364 ], "geometry": { "type": "Point", "coordinates": [ -64.205346117, -31.471643364 ] } },
{ "type": "Feature", "properties": { "Name": "TAD-25-199" }, "bbox": [ -64.40560316, -33.91605062, -64.40560316, -33.91605062 ], "geometry": { "type": "Point", "coordinates": [ -64.40560316, -33.91605062 ] } },
{ "type": "Feature", "properties": { "Name": "TAD-25-200" }, "bbox": [ -64.34365459, -31.942212523, -64.34365459, -31.942212523 ], "geometry": { "type": "Point", "coordinates": [ -64.34365459, -31.942212523 ] } },
{ "type": "Feature", "properties": { "Name": "TAD-25-201" }, "bbox": [ -64.252470354, -31.342054197, -64.252470354, -31.342054197 ], "geometry": { "type": "Point", "coordinates": [ -64.252470354, -31.342054197 ] } },
{ "type": "Feature", "properties": { "Name": "TAD-25-202" }, "bbox": [ -64.204096026, -31.471977225, -64.204096026, -31.471977225 ], "geometry": { "type": "Point", "coordinates": [ -64.204096026, -31.471977225 ] } },
{ "type": "Feature", "properties": { "Name": "TAD-25-204" }, "bbox": [ -64.20543274, -31.472866407, -64.20543274, -31.472866407 ], "geometry": { "type": "Point", "coordinates": [ -64.20543274, -31.472866407 ] } },
{ "type": "Feature", "properties": { "Name": "TAD-25-205" }, "bbox": [ -64.204216514, -31.473715022, -64.204216514, -31.473715022 ], "geometry": { "type": "Point", "coordinates": [ -64.204216514, -31.473715022 ] } },
{ "type": "Feature", "properties": { "Name": "TAD-25-206" }, "bbox": [ -64.202782039, -31.473515618, -64.202782039, -31.473515618 ], "geometry": { "type": "Point", "coordinates": [ -64.202782039, -31.473515618 ] } },
{ "type": "Feature", "properties": { "Name": "TAD-25-207" }, "bbox": [ -64.205486671, -31.47425941, -64.205486671, -31.47425941 ], "geometry": { "type": "Point", "coordinates": [ -64.205486671, -31.47425941 ] } },
{ "type": "Feature", "properties": { "Name": "TAD-25-208" }, "bbox": [ -64.202857317, -31.472800997, -64.202857317, -31.472800997 ], "geometry": { "type": "Point", "coordinates": [ -64.202857317, -31.472800997 ] } },
{ "type": "Feature", "properties": { "Name": "TAD-25-209" }, "bbox": [ -64.203335954, -31.473053709, -64.203335954, -31.473053709 ], "geometry": { "type": "Point", "coordinates": [ -64.203335954, -31.473053709 ] } },
{ "type": "Feature", "properties": { "Name": "TAD-25-210" }, "bbox": [ -65.174390796, -32.043305515, -65.174390796, -32.043305515 ], "geometry": { "type": "Point", "coordinates": [ -65.174390796, -32.043305515 ] } },
{ "type": "Feature", "properties": { "Name": "TAD-25-211" }, "bbox": [ -65.190454166, -31.948580041, -65.190454166, -31.948580041 ], "geometry": { "type": "Point", "coordinates": [ -65.190454166, -31.948580041 ] } },
{ "type": "Feature", "properties": { "Name": "TAD-25-212" }, "bbox": [ -63.46499624, -31.410582153, -63.46499624, -31.410582153 ], "geometry": { "type": "Point", "coordinates": [ -63.46499624, -31.410582153 ] } },
{ "type": "Feature", "properties": { "Name": "TAD-25-213" }, "bbox": [ -64.721487385, -33.397292548, -64.721487385, -33.397292548 ], "geometry": { "type": "Point", "coordinates": [ -64.721487385, -33.397292548 ] } },
{ "type": "Feature", "properties": { "Name": "TAD-25-214" }, "bbox": [ -64.101900046, -30.768043182, -64.101900046, -30.768043182 ], "geometry": { "type": "Point", "coordinates": [ -64.101900046, -30.768043182 ] } },
{ "type": "Feature", "properties": { "Name": "TAD-25-215" }, "bbox": [ -62.268070253, -31.432088963, -62.268070253, -31.432088963 ], "geometry": { "type": "Point", "coordinates": [ -62.268070253, -31.432088963 ] } },
{ "type": "Feature", "properties": { "Name": "TAD-25-216" }, "bbox": [ -64.10074686, -30.770391639, -64.10074686, -30.770391639 ], "geometry": { "type": "Point", "coordinates": [ -64.10074686, -30.770391639 ] } },
{ "type": "Feature", "properties": { "Name": "TAD-25-217" }, "bbox": [ -63.465193745, -31.412417564, -63.465193745, -31.412417564 ], "geometry": { "type": "Point", "coordinates": [ -63.465193745, -31.412417564 ] } },
{ "type": "Feature", "properties": { "Name": "TAD-25-218" }, "bbox": [ -63.211715501, -31.440094532, -63.211715501, -31.440094532 ], "geometry": { "type": "Point", "coordinates": [ -63.211715501, -31.440094532 ] } },
{ "type": "Feature", "properties": { "Name": "TAD-25-219" }, "bbox": [ -65.046670342, -33.925161835, -65.046670342, -33.925161835 ], "geometry": { "type": "Point", "coordinates": [ -65.046670342, -33.925161835 ] } },
{ "type": "Feature", "properties": { "Name": "TAD-25-220" }, "bbox": [ -64.528452416, -30.913199038, -64.528452416, -30.913199038 ], "geometry": { "type": "Point", "coordinates": [ -64.528452416, -30.913199038 ] } },
{ "type": "Feature", "properties": { "Name": "TAD-25-221" }, "bbox": [ -63.723958143, -29.89550017, -63.723958143, -29.89550017 ], "geometry": { "type": "Point", "coordinates": [ -63.723958143, -29.89550017 ] } },
{ "type": "Feature", "properties": { "Name": "TAD-25-222" }, "bbox": [ -64.082346078, -30.969921617, -64.082346078, -30.969921617 ], "geometry": { "type": "Point", "coordinates": [ -64.082346078, -30.969921617 ] } },
{ "type": "Feature", "properties": { "Name": "TAD-25-223" }, "bbox": [ -64.334380222, -33.083962493, -64.334380222, -33.083962493 ], "geometry": { "type": "Point", "coordinates": [ -64.334380222, -33.083962493 ] } },
{ "type": "Feature", "properties": { "Name": "TAD-25-224" }, "bbox": [ -64.337111786, -33.081912595, -64.337111786, -33.081912595 ], "geometry": { "type": "Point", "coordinates": [ -64.337111786, -33.081912595 ] } },
{ "type": "Feature", "properties": { "Name": "TAD-25-225" }, "bbox": [ -64.336820981, -33.082123614, -64.336820981, -33.082123614 ], "geometry": { "type": "Point", "coordinates": [ -64.336820981, -33.082123614 ] } },
{ "type": "Feature", "properties": { "Name": "TAD-25-226" }, "bbox": [ -64.336541506, -33.082328701, -64.336541506, -33.082328701 ], "geometry": { "type": "Point", "coordinates": [ -64.336541506, -33.082328701 ] } },
{ "type": "Feature", "properties": { "Name": "TAD-25-227" }, "bbox": [ -64.336257132, -33.082547793, -64.336257132, -33.082547793 ], "geometry": { "type": "Point", "coordinates": [ -64.336257132, -33.082547793 ] } },
{ "type": "Feature", "properties": { "Name": "TAD-25-228" }, "bbox": [ -64.335959937, -33.082765566, -64.335959937, -33.082765566 ], "geometry": { "type": "Point", "coordinates": [ -64.335959937, -33.082765566 ] } },
{ "type": "Feature", "properties": { "Name": "TAD-25-229" }, "bbox": [ -64.33571118, -33.083003845, -64.33571118, -33.083003845 ], "geometry": { "type": "Point", "coordinates": [ -64.33571118, -33.083003845 ] } },
{ "type": "Feature", "properties": { "Name": "TAD-25-230" }, "bbox": [ -64.335443946, -33.083192917, -64.335443946, -33.083192917 ], "geometry": { "type": "Point", "coordinates": [ -64.335443946, -33.083192917 ] } },
{ "type": "Feature", "properties": { "Name": "TAD-25-231" }, "bbox": [ -64.334725204, -33.083759746, -64.334725204, -33.083759746 ], "geometry": { "type": "Point", "coordinates": [ -64.334725204, -33.083759746 ] } },
{ "type": "Feature", "properties": { "Name": "TAD-25-232" }, "bbox": [ -64.334451176, -33.084011272, -64.334451176, -33.084011272 ], "geometry": { "type": "Point", "coordinates": [ -64.334451176, -33.084011272 ] } },
{ "type": "Feature", "properties": { "Name": "TAD-25-233" }, "bbox": [ -64.333947665, -33.084353669, -64.333947665, -33.084353669 ], "geometry": { "type": "Point", "coordinates": [ -64.333947665, -33.084353669 ] } },
{ "type": "Feature", "properties": { "Name": "TAD-25-234" }, "bbox": [ -64.333674306, -33.084546681, -64.333674306, -33.084546681 ], "geometry": { "type": "Point", "coordinates": [ -64.333674306, -33.084546681 ] } },
{ "type": "Feature", "properties": { "Name": "TAD-25-235" }, "bbox": [ -64.333384854, -33.084776311, -64.333384854, -33.084776311 ], "geometry": { "type": "Point", "coordinates": [ -64.333384854, -33.084776311 ] } },
{ "type": "Feature", "properties": { "Name": "TAD-25-236" }, "bbox": [ -64.33282086, -33.085206348, -64.33282086, -33.085206348 ], "geometry": { "type": "Point", "coordinates": [ -64.33282086, -33.085206348 ] } },
{ "type": "Feature", "properties": { "Name": "TAD-25-237" }, "bbox": [ -64.333051286, -33.084945181, -64.333051286, -33.084945181 ], "geometry": { "type": "Point", "coordinates": [ -64.333051286, -33.084945181 ] } },
{ "type": "Feature", "properties": { "Name": "TAD-25-239" }, "bbox": [ -64.337987694, -33.081094107, -64.337987694, -33.081094107 ], "geometry": { "type": "Point", "coordinates": [ -64.337987694, -33.081094107 ] } },
{ "type": "Feature", "properties": { "Name": "TAD-25-240" }, "bbox": [ -64.383342959, -33.167484379, -64.383342959, -33.167484379 ], "geometry": { "type": "Point", "coordinates": [ -64.383342959, -33.167484379 ] } },
{ "type": "Feature", "properties": { "Name": "TAD-25-241" }, "bbox": [ -64.395783869, -32.588663588, -64.395783869, -32.588663588 ], "geometry": { "type": "Point", "coordinates": [ -64.395783869, -32.588663588 ] } },
{ "type": "Feature", "properties": { "Name": "TAD-25-242" }, "bbox": [ -64.395516864, -32.581946163, -64.395516864, -32.581946163 ], "geometry": { "type": "Point", "coordinates": [ -64.395516864, -32.581946163 ] } },
{ "type": "Feature", "properties": { "Name": "TAD-25-243" }, "bbox": [ -64.333133191, -33.084993635, -64.333133191, -33.084993635 ], "geometry": { "type": "Point", "coordinates": [ -64.333133191, -33.084993635 ] } },
{ "type": "Feature", "properties": { "Name": "TAD-25-244" }, "bbox": [ -62.313735458, -33.636832307, -62.313735458, -33.636832307 ], "geometry": { "type": "Point", "coordinates": [ -62.313735458, -33.636832307 ] } },
{ "type": "Feature", "properties": { "Name": "TAD-25-245" }, "bbox": [ -62.305080749, -31.407926914, -62.305080749, -31.407926914 ], "geometry": { "type": "Point", "coordinates": [ -62.305080749, -31.407926914 ] } },
{ "type": "Feature", "properties": { "Name": "TAD-25-246" }, "bbox": [ -62.674320529, -32.603074755, -62.674320529, -32.603074755 ], "geometry": { "type": "Point", "coordinates": [ -62.674320529, -32.603074755 ] } },
{ "type": "Feature", "properties": { "Name": "TAD-25-247" }, "bbox": [ -63.759141719, -33.259525068, -63.759141719, -33.259525068 ], "geometry": { "type": "Point", "coordinates": [ -63.759141719, -33.259525068 ] } },
{ "type": "Feature", "properties": { "Name": "TAD-25-248" }, "bbox": [ -62.315248814, -32.647715593, -62.315248814, -32.647715593 ], "geometry": { "type": "Point", "coordinates": [ -62.315248814, -32.647715593 ] } },
{ "type": "Feature", "properties": { "Name": "TAD-25-249" }, "bbox": [ -63.760740769, -33.267618434, -63.760740769, -33.267618434 ], "geometry": { "type": "Point", "coordinates": [ -63.760740769, -33.267618434 ] } },
{ "type": "Feature", "properties": { "Name": "TAD-25-238" }, "bbox": [ -64.168355451, -31.285305946, -64.168355451, -31.285305946 ], "geometry": { "type": "Point", "coordinates": [ -64.168355451, -31.285305946 ] } },
{ "type": "Feature", "properties": { "Name": "TAD-25-250" }, "bbox": [ -65.193961428, -32.115569259, -65.193961428, -32.115569259 ], "geometry": { "type": "Point", "coordinates": [ -65.193961428, -32.115569259 ] } },
{ "type": "Feature", "properties": { "Name": "TAD-25-251" }, "bbox": [ -65.155787091, -32.045610227, -65.155787091, -32.045610227 ], "geometry": { "type": "Point", "coordinates": [ -65.155787091, -32.045610227 ] } },
{ "type": "Feature", "properties": { "Name": "TAD-25-252" }, "bbox": [ -65.193990426, -32.112058368, -65.193990426, -32.112058368 ], "geometry": { "type": "Point", "coordinates": [ -65.193990426, -32.112058368 ] } },
{ "type": "Feature", "properties": { "Name": "TAD-25-253" }, "bbox": [ -65.15737498, -32.093123102, -65.15737498, -32.093123102 ], "geometry": { "type": "Point", "coordinates": [ -65.15737498, -32.093123102 ] } },
{ "type": "Feature", "properties": { "Name": "TAD-25-254" }, "bbox": [ -62.912784056, -31.422618334, -62.912784056, -31.422618334 ], "geometry": { "type": "Point", "coordinates": [ -62.912784056, -31.422618334 ] } },
{ "type": "Feature", "properties": { "Name": "TAD-25-255" }, "bbox": [ -63.641346105, -31.356026052, -63.641346105, -31.356026052 ], "geometry": { "type": "Point", "coordinates": [ -63.641346105, -31.356026052 ] } },
{ "type": "Feature", "properties": { "Name": "TAD-25-256" }, "bbox": [ -63.5981553, -31.375013099, -63.5981553, -31.375013099 ], "geometry": { "type": "Point", "coordinates": [ -63.5981553, -31.375013099 ] } },
{ "type": "Feature", "properties": { "Name": "TAD-25-257" }, "bbox": [ -63.125786017, -31.436061186, -63.125786017, -31.436061186 ], "geometry": { "type": "Point", "coordinates": [ -63.125786017, -31.436061186 ] } },
{ "type": "Feature", "properties": { "Name": "TAD-25-258" }, "bbox": [ -61.90755456, -32.712779932, -61.90755456, -32.712779932 ], "geometry": { "type": "Point", "coordinates": [ -61.90755456, -32.712779932 ] } },
{ "type": "Feature", "properties": { "Name": "TAD-25-259" }, "bbox": [ -64.200435792, -31.468818977, -64.200435792, -31.468818977 ], "geometry": { "type": "Point", "coordinates": [ -64.200435792, -31.468818977 ] } },
{ "type": "Feature", "properties": { "Name": "TAD-25-260" }, "bbox": [ -63.384837464, -33.388009518, -63.384837464, -33.388009518 ], "geometry": { "type": "Point", "coordinates": [ -63.384837464, -33.388009518 ] } },
{ "type": "Feature", "properties": { "Name": "TAD-25-261" }, "bbox": [ -63.39723063, -33.387768876, -63.39723063, -33.387768876 ], "geometry": { "type": "Point", "coordinates": [ -63.39723063, -33.387768876 ] } },
{ "type": "Feature", "properties": { "Name": "TAD-25-262" }, "bbox": [ -62.101405744, -32.687875956, -62.101405744, -32.687875956 ], "geometry": { "type": "Point", "coordinates": [ -62.101405744, -32.687875956 ] } },
{ "type": "Feature", "properties": { "Name": "TAD-25-263" }, "bbox": [ -64.330648571, -33.086610528, -64.330648571, -33.086610528 ], "geometry": { "type": "Point", "coordinates": [ -64.330648571, -33.086610528 ] } },
{ "type": "Feature", "properties": { "Name": "TAD-25-264" }, "bbox": [ -63.842132098, -31.68050114, -63.842132098, -31.68050114 ], "geometry": { "type": "Point", "coordinates": [ -63.842132098, -31.68050114 ] } },
{ "type": "Feature", "properties": { "Name": "TAD-25-265" }, "bbox": [ -62.312897939, -31.407305379, -62.312897939, -31.407305379 ], "geometry": { "type": "Point", "coordinates": [ -62.312897939, -31.407305379 ] } },
{ "type": "Feature", "properties": { "Name": "TAD-25-266" }, "bbox": [ -63.749653569, -34.06674572, -63.749653569, -34.06674572 ], "geometry": { "type": "Point", "coordinates": [ -63.749653569, -34.06674572 ] } },
{ "type": "Feature", "properties": { "Name": "TAD-25-267" }, "bbox": [ -62.685896696, -32.606411105, -62.685896696, -32.606411105 ], "geometry": { "type": "Point", "coordinates": [ -62.685896696, -32.606411105 ] } },
{ "type": "Feature", "properties": { "Name": "TAD-25-268" }, "bbox": [ -63.694182643, -31.899755288, -63.694182643, -31.899755288 ], "geometry": { "type": "Point", "coordinates": [ -63.694182643, -31.899755288 ] } },
{ "type": "Feature", "properties": { "Name": "TAD-25-269" }, "bbox": [ -64.48419859, -31.120051126, -64.48419859, -31.120051126 ], "geometry": { "type": "Point", "coordinates": [ -64.48419859, -31.120051126 ] } },
{ "type": "Feature", "properties": { "Name": "TAD-25-270" }, "bbox": [ -64.718114289, -33.389063232, -64.718114289, -33.389063232 ], "geometry": { "type": "Point", "coordinates": [ -64.718114289, -33.389063232 ] } },
{ "type": "Feature", "properties": { "Name": "TAD-25-271" }, "bbox": [ -64.408902884, -31.457508194, -64.408902884, -31.457508194 ], "geometry": { "type": "Point", "coordinates": [ -64.408902884, -31.457508194 ] } },
{ "type": "Feature", "properties": { "Name": "TAD-25-272" }, "bbox": [ -62.289088537, -32.65400174, -62.289088537, -32.65400174 ], "geometry": { "type": "Point", "coordinates": [ -62.289088537, -32.65400174 ] } },
{ "type": "Feature", "properties": { "Name": "TAD-25-273" }, "bbox": [ -64.130754959, -31.364133282, -64.130754959, -31.364133282 ], "geometry": { "type": "Point", "coordinates": [ -64.130754959, -31.364133282 ] } },
{ "type": "Feature", "properties": { "Name": "TAD-25-274" }, "bbox": [ -63.177433262, -31.44936231, -63.177433262, -31.44936231 ], "geometry": { "type": "Point", "coordinates": [ -63.177433262, -31.44936231 ] } },
{ "type": "Feature", "properties": { "Name": "TAD-25-275" }, "bbox": [ -63.637702837, -31.323968938, -63.637702837, -31.323968938 ], "geometry": { "type": "Point", "coordinates": [ -63.637702837, -31.323968938 ] } },
{ "type": "Feature", "properties": { "Name": "TAD-25-276" }, "bbox": [ -64.116362677, -31.025894623, -64.116362677, -31.025894623 ], "geometry": { "type": "Point", "coordinates": [ -64.116362677, -31.025894623 ] } },
{ "type": "Feature", "properties": { "Name": "TAD-25-277" }, "bbox": [ -64.465574012, -31.265598151, -64.465574012, -31.265598151 ], "geometry": { "type": "Point", "coordinates": [ -64.465574012, -31.265598151 ] } },
{ "type": "Feature", "properties": { "Name": "TAD-25-278" }, "bbox": [ -64.471272258, -31.402690766, -64.471272258, -31.402690766 ], "geometry": { "type": "Point", "coordinates": [ -64.471272258, -31.402690766 ] } },
{ "type": "Feature", "properties": { "Name": "TAD-25-279" }, "bbox": [ -64.483757045, -31.100711674, -64.483757045, -31.100711674 ], "geometry": { "type": "Point", "coordinates": [ -64.483757045, -31.100711674 ] } },
{ "type": "Feature", "properties": { "Name": "TAD-25-280" }, "bbox": [ -64.348164643, -33.090898251, -64.348164643, -33.090898251 ], "geometry": { "type": "Point", "coordinates": [ -64.348164643, -33.090898251 ] } },
{ "type": "Feature", "properties": { "Name": "TAD-25-281" }, "bbox": [ -64.355160271, -32.85650345, -64.355160271, -32.85650345 ], "geometry": { "type": "Point", "coordinates": [ -64.355160271, -32.85650345 ] } },
{ "type": "Feature", "properties": { "Name": "TAD-25-282" }, "bbox": [ -64.379228185, -32.391420887, -64.379228185, -32.391420887 ], "geometry": { "type": "Point", "coordinates": [ -64.379228185, -32.391420887 ] } },
{ "type": "Feature", "properties": { "Name": "TAD-25-283" }, "bbox": [ -64.047158737, -30.57632759, -64.047158737, -30.57632759 ], "geometry": { "type": "Point", "coordinates": [ -64.047158737, -30.57632759 ] } }
]
}
