{
"type": "FeatureCollection",
"name": "VISADOS PAPEL 2003-2020",
"crs": { "type": "name", "properties": { "name": "urn:ogc:def:crs:OGC:1.3:CRS84" } },
"features": [
{ "type": "Feature", "properties": { "Name": "DP-03-001" }, "geometry": { "type": "Point", "coordinates": [ -64.50086236, -31.073813553, 0.0 ] } },
{ "type": "Feature", "properties": { "Name": "DP-04-001" }, "geometry": { "type": "Point", "coordinates": [ -62.151191858, -32.686616006, 0.0 ] } },
{ "type": "Feature", "properties": { "Name": "DP-04-002" }, "geometry": { "type": "Point", "coordinates": [ -64.190974564, -31.466810846, 0.0 ] } },
{ "type": "Feature", "properties": { "Name": "DP-04-003" }, "geometry": { "type": "Point", "coordinates": [ -64.465574786, -31.267462938, 0.0 ] } },
{ "type": "Feature", "properties": { "Name": "DP-10-001" }, "geometry": { "type": "Point", "coordinates": [ -64.208941945, -31.466120876, 0.0 ] } },
{ "type": "Feature", "properties": { "Name": "DP-17-001" }, "geometry": { "type": "Point", "coordinates": [ -62.911093038, -32.0133181, 0.0 ] } },
{ "type": "Feature", "properties": { "Name": "DP-17-002" }, "geometry": { "type": "Point", "coordinates": [ -63.874838965, -31.631507929, 0.0 ] } },
{ "type": "Feature", "properties": { "Name": "DP-17-003" }, "geometry": { "type": "Point", "coordinates": [ -63.307346173, -32.424746545, 0.0 ] } },
{ "type": "Feature", "properties": { "Name": "DP-17-004" }, "geometry": { "type": "Point", "coordinates": [ -63.806590155, -31.775043108, 0.0 ] } },
{ "type": "Feature", "properties": { "Name": "DP-17-005" }, "geometry": { "type": "Point", "coordinates": [ -63.999335882, -34.049315611, 0.0 ] } },
{ "type": "Feature", "properties": { "Name": "DP-17-006" }, "geometry": { "type": "Point", "coordinates": [ -63.785289833, -31.788114821, 0.0 ] } },
{ "type": "Feature", "properties": { "Name": "DP-17-007" }, "geometry": { "type": "Point", "coordinates": [ -64.424913629, -33.489622383, 0.0 ] } },
{ "type": "Feature", "properties": { "Name": "DP-17-008" }, "geometry": { "type": "Point", "coordinates": [ -63.882135607, -31.681439631, 0.0 ] } },
{ "type": "Feature", "properties": { "Name": "DP-17-009" }, "geometry": { "type": "Point", "coordinates": [ -64.012777288, -31.552280447, 0.0 ] } },
{ "type": "Feature", "properties": { "Name": "DP-17-010" }, "geometry": { "type": "Point", "coordinates": [ -63.565544643, -31.982670451, 0.0 ] } },
{ "type": "Feature", "properties": { "Name": "DP-17-011" }, "geometry": { "type": "Point", "coordinates": [ -62.9125853, -32.016075172, 0.0 ] } },
{ "type": "Feature", "properties": { "Name": "DP-17-012" }, "geometry": { "type": "Point", "coordinates": [ -63.133626917, -32.467290737, 0.0 ] } },
{ "type": "Feature", "properties": { "Name": "DP-17-013" }, "geometry": { "type": "Point", "coordinates": [ -63.67938004, -31.920687432, 0.0 ] } },
{ "type": "Feature", "properties": { "Name": "DP-17-014" }, "geometry": { "type": "Point", "coordinates": [ -63.341250108, -32.301242036, 0.0 ] } },
{ "type": "Feature", "properties": { "Name": "DP-17-015" }, "geometry": { "type": "Point", "coordinates": [ -62.196994672, -32.650853394, 0.0 ] } },
{ "type": "Feature", "properties": { "Name": "DP-17-016" }, "geometry": { "type": "Point", "coordinates": [ -63.68537262, -31.867429397, 0.0 ] } },
{ "type": "Feature", "properties": { "Name": "DP-17-017" }, "geometry": { "type": "Point", "coordinates": [ -63.716882446, -31.812124486, 0.0 ] } },
{ "type": "Feature", "properties": { "Name": "DP-17-018" }, "geometry": { "type": "Point", "coordinates": [ -63.461960701, -32.168360801, 0.0 ] } },
{ "type": "Feature", "properties": { "Name": "DP-17-019" }, "geometry": { "type": "Point", "coordinates": [ -63.34714278, -32.469930894, 0.0 ] } },
{ "type": "Feature", "properties": { "Name": "DP-17-020" }, "geometry": { "type": "Point", "coordinates": [ -63.639604456, -33.324077736, 0.0 ] } },
{ "type": "Feature", "properties": { "Name": "DP-17-021" }, "geometry": { "type": "Point", "coordinates": [ -62.585377407, -33.589274721, 0.0 ] } },
{ "type": "Feature", "properties": { "Name": "DP-17-022" }, "geometry": { "type": "Point", "coordinates": [ -64.206040953, -31.4907827, 0.0 ] } },
{ "type": "Feature", "properties": { "Name": "DP-17-023" }, "geometry": { "type": "Point", "coordinates": [ -64.212066584, -31.498026467, 0.0 ] } },
{ "type": "Feature", "properties": { "Name": "DP-17-024" }, "geometry": { "type": "Point", "coordinates": [ -64.226460969, -31.46327108, 0.0 ] } },
{ "type": "Feature", "properties": { "Name": "DP-17-025" }, "geometry": { "type": "Point", "coordinates": [ -64.127956574, -31.388966812, 0.0 ] } },
{ "type": "Feature", "properties": { "Name": "DP-17-026" }, "geometry": { "type": "Point", "coordinates": [ -64.116737509, -31.45395637, 0.0 ] } },
{ "type": "Feature", "properties": { "Name": "DP-17-027" }, "geometry": { "type": "Point", "coordinates": [ -63.279311178, -32.374905628, 0.0 ] } },
{ "type": "Feature", "properties": { "Name": "DP-17-028" }, "geometry": { "type": "Point", "coordinates": [ -62.660642369, -32.569531067, 0.0 ] } },
{ "type": "Feature", "properties": { "Name": "DP-17-029" }, "geometry": { "type": "Point", "coordinates": [ -63.250270059, -32.355382553, 0.0 ] } },
{ "type": "Feature", "properties": { "Name": "DP-17-030" }, "geometry": { "type": "Point", "coordinates": [ -64.018789904, -32.909872275, 0.0 ] } },
{ "type": "Feature", "properties": { "Name": "DP-17-031" }, "geometry": { "type": "Point", "coordinates": [ -63.340845759, -32.451649917, 0.0 ] } },
{ "type": "Feature", "properties": { "Name": "DP-17-032" }, "geometry": { "type": "Point", "coordinates": [ -63.158815358, -33.451423826, 0.0 ] } },
{ "type": "Feature", "properties": { "Name": "DP-17-033" }, "geometry": { "type": "Point", "coordinates": [ -63.146030998, -33.457960431, 0.0 ] } },
{ "type": "Feature", "properties": { "Name": "DP-17-034" }, "geometry": { "type": "Point", "coordinates": [ -64.154429034, -31.198173628, 0.0 ] } },
{ "type": "Feature", "properties": { "Name": "DP-17-035" }, "geometry": { "type": "Point", "coordinates": [ -64.515340917, -31.38345071, 0.0 ] } },
{ "type": "Feature", "properties": { "Name": "DP-17-036" }, "geometry": { "type": "Point", "coordinates": [ -63.2646297, -32.412610856, 0.0 ] } },
{ "type": "Feature", "properties": { "Name": "DP-17-037" }, "geometry": { "type": "Point", "coordinates": [ -64.113508703, -31.021198073, 0.0 ] } },
{ "type": "Feature", "properties": { "Name": "DP-17-038" }, "geometry": { "type": "Point", "coordinates": [ -63.521259224, -32.588035065, 0.0 ] } },
{ "type": "Feature", "properties": { "Name": "DP-17-039" }, "geometry": { "type": "Point", "coordinates": [ -63.337566155, -32.262292266, 0.0 ] } },
{ "type": "Feature", "properties": { "Name": "DP-17-040" }, "geometry": { "type": "Point", "coordinates": [ -64.104374876, -31.422095415, 0.0 ] } },
{ "type": "Feature", "properties": { "Name": "DP-17-041" }, "geometry": { "type": "Point", "coordinates": [ -64.241089908, -31.36140598, 0.0 ] } },
{ "type": "Feature", "properties": { "Name": "DP-17-042" }, "geometry": { "type": "Point", "coordinates": [ -63.176796822, -32.415920547, 0.0 ] } },
{ "type": "Feature", "properties": { "Name": "DP-17-043" }, "geometry": { "type": "Point", "coordinates": [ -64.792129114, -29.679776422, 0.0 ] } },
{ "type": "Feature", "properties": { "Name": "DP-17-044" }, "geometry": { "type": "Point", "coordinates": [ -65.033062993, -31.748768035, 0.0 ] } },
{ "type": "Feature", "properties": { "Name": "DP-17-045" }, "geometry": { "type": "Point", "coordinates": [ -65.024857534, -31.748057038, 0.0 ] } },
{ "type": "Feature", "properties": { "Name": "DP-17-046" }, "geometry": { "type": "Point", "coordinates": [ -63.699066433, -31.88831165, 0.0 ] } },
{ "type": "Feature", "properties": { "Name": "DP-17-047" }, "geometry": { "type": "Point", "coordinates": [ -63.706339265, -31.878547137, 0.0 ] } },
{ "type": "Feature", "properties": { "Name": "DP-17-048" }, "geometry": { "type": "Point", "coordinates": [ -64.188343935, -31.334974915, 0.0 ] } },
{ "type": "Feature", "properties": { "Name": "DP-17-049" }, "geometry": { "type": "Point", "coordinates": [ -63.303603075, -32.391887722, 0.0 ] } },
{ "type": "Feature", "properties": { "Name": "DP-17-050" }, "geometry": { "type": "Point", "coordinates": [ -63.058893562, -32.509515712, 0.0 ] } },
{ "type": "Feature", "properties": { "Name": "DP-17-051" }, "geometry": { "type": "Point", "coordinates": [ -63.61172771, -31.986469353, 0.0 ] } },
{ "type": "Feature", "properties": { "Name": "DP-17-052" }, "geometry": { "type": "Point", "coordinates": [ -63.114350934, -31.436657066, 0.0 ] } },
{ "type": "Feature", "properties": { "Name": "DP-17-053" }, "geometry": { "type": "Point", "coordinates": [ -64.116491845, -31.39825236, 0.0 ] } },
{ "type": "Feature", "properties": { "Name": "DP-17-054" }, "geometry": { "type": "Point", "coordinates": [ -64.039502628, -31.381299487, 0.0 ] } },
{ "type": "Feature", "properties": { "Name": "DP-17-055" }, "geometry": { "type": "Point", "coordinates": [ -63.275385449, -32.371531675, 0.0 ] } },
{ "type": "Feature", "properties": { "Name": "DP-18-001" }, "geometry": { "type": "Point", "coordinates": [ -62.88895302, -33.535583328, 0.0 ] } },
{ "type": "Feature", "properties": { "Name": "DP-18-002" }, "geometry": { "type": "Point", "coordinates": [ -61.869445965, -32.763198755, 0.0 ] } },
{ "type": "Feature", "properties": { "Name": "DP-18-003" }, "geometry": { "type": "Point", "coordinates": [ -63.523918548, -32.087589709, 0.0 ] } },
{ "type": "Feature", "properties": { "Name": "DP-18-004" }, "geometry": { "type": "Point", "coordinates": [ -62.89210301, -33.526367814, 0.0 ] } },
{ "type": "Feature", "properties": { "Name": "DP-18-005" }, "geometry": { "type": "Point", "coordinates": [ -63.691766388, -31.85686968, 0.0 ] } },
{ "type": "Feature", "properties": { "Name": "DP-18-006" }, "geometry": { "type": "Point", "coordinates": [ -63.715568843, -31.826974217, 0.0 ] } },
{ "type": "Feature", "properties": { "Name": "DP-18-007" }, "geometry": { "type": "Point", "coordinates": [ -63.739845626, -32.726115497, 0.0 ] } },
{ "type": "Feature", "properties": { "Name": "DP-18-008" }, "geometry": { "type": "Point", "coordinates": [ -64.036961152, -32.92259486, 0.0 ] } },
{ "type": "Feature", "properties": { "Name": "DP-18-009" }, "geometry": { "type": "Point", "coordinates": [ -63.884623616, -31.678779292, 0.0 ] } },
{ "type": "Feature", "properties": { "Name": "DP-18-010" }, "geometry": { "type": "Point", "coordinates": [ -64.071212753, -31.387279027, 0.0 ] } },
{ "type": "Feature", "properties": { "Name": "DP-18-011" }, "geometry": { "type": "Point", "coordinates": [ -64.126424428, -31.40248176, 0.0 ] } },
{ "type": "Feature", "properties": { "Name": "DP-18-012" }, "geometry": { "type": "Point", "coordinates": [ -62.915866837, -31.40026261, 0.0 ] } },
{ "type": "Feature", "properties": { "Name": "DP-18-013" }, "geometry": { "type": "Point", "coordinates": [ -64.239723958, -31.359385374, 0.0 ] } },
{ "type": "Feature", "properties": { "Name": "DP-18-014" }, "geometry": { "type": "Point", "coordinates": [ -64.252393451, -31.460356988, 0.0 ] } },
{ "type": "Feature", "properties": { "Name": "DP-18-015" }, "geometry": { "type": "Point", "coordinates": [ -63.201162296, -31.423658017, 0.0 ] } },
{ "type": "Feature", "properties": { "Name": "DP-18-016" }, "geometry": { "type": "Point", "coordinates": [ -62.928928593, -32.535428893, 0.0 ] } },
{ "type": "Feature", "properties": { "Name": "DP-18-017" }, "geometry": { "type": "Point", "coordinates": [ -63.160993263, -31.440407144, 0.0 ] } },
{ "type": "Feature", "properties": { "Name": "DP-18-018" }, "geometry": { "type": "Point", "coordinates": [ -64.085413023, -31.391964936, 0.0 ] } },
{ "type": "Feature", "properties": { "Name": "DP-18-019" }, "geometry": { "type": "Point", "coordinates": [ -64.084837036, -31.391637355, 0.0 ] } },
{ "type": "Feature", "properties": { "Name": "DP-18-020" }, "geometry": { "type": "Point", "coordinates": [ -62.804065372, -32.564931963, 0.0 ] } },
{ "type": "Feature", "properties": { "Name": "DP-18-021" }, "geometry": { "type": "Point", "coordinates": [ -63.471236597, -32.109088631, 0.0 ] } },
{ "type": "Feature", "properties": { "Name": "DP-18-022" }, "geometry": { "type": "Point", "coordinates": [ -63.352096905, -32.229140216, 0.0 ] } },
{ "type": "Feature", "properties": { "Name": "DP-18-023" }, "geometry": { "type": "Point", "coordinates": [ -63.362470942, -32.235286326, 0.0 ] } },
{ "type": "Feature", "properties": { "Name": "DP-18-024" }, "geometry": { "type": "Point", "coordinates": [ -62.704591101, -31.849818019, 0.0 ] } },
{ "type": "Feature", "properties": { "Name": "DP-18-025" }, "geometry": { "type": "Point", "coordinates": [ -63.148081596, -32.188060405, 0.0 ] } },
{ "type": "Feature", "properties": { "Name": "DP-18-026" }, "geometry": { "type": "Point", "coordinates": [ -63.143972845, -32.186455185, 0.0 ] } },
{ "type": "Feature", "properties": { "Name": "DP-18-027" }, "geometry": { "type": "Point", "coordinates": [ -64.115625724, -31.437455318, 0.0 ] } },
{ "type": "Feature", "properties": { "Name": "DP-18-028" }, "geometry": { "type": "Point", "coordinates": [ -62.107348104, -32.668974217, 0.0 ] } },
{ "type": "Feature", "properties": { "Name": "DP-18-029" }, "geometry": { "type": "Point", "coordinates": [ -63.367260732, -31.412571434, 0.0 ] } },
{ "type": "Feature", "properties": { "Name": "DP-18-030" }, "geometry": { "type": "Point", "coordinates": [ -62.228998608, -32.672044062, 0.0 ] } },
{ "type": "Feature", "properties": { "Name": "DP-18-031" }, "geometry": { "type": "Point", "coordinates": [ -62.23212029, -32.671684861, 0.0 ] } },
{ "type": "Feature", "properties": { "Name": "DP-18-032" }, "geometry": { "type": "Point", "coordinates": [ -64.151705649, -31.461657759, 0.0 ] } },
{ "type": "Feature", "properties": { "Name": "DP-18-033" }, "geometry": { "type": "Point", "coordinates": [ -62.244503399, -31.555979816, 0.0 ] } },
{ "type": "Feature", "properties": { "Name": "DP-18-034" }, "geometry": { "type": "Point", "coordinates": [ -62.40160829, -33.627648697, 0.0 ] } },
{ "type": "Feature", "properties": { "Name": "DP-18-035" }, "geometry": { "type": "Point", "coordinates": [ -63.996058168, -30.595983315, 0.0 ] } },
{ "type": "Feature", "properties": { "Name": "DP-19-001" }, "geometry": { "type": "Point", "coordinates": [ -64.269782628, -33.125354239, 0.0 ] } },
{ "type": "Feature", "properties": { "Name": "DP-19-002" }, "geometry": { "type": "Point", "coordinates": [ -64.175940101, -31.329236295, 0.0 ] } },
{ "type": "Feature", "properties": { "Name": "DP-19-003" }, "geometry": { "type": "Point", "coordinates": [ -64.095266517, -30.807055606, 0.0 ] } },
{ "type": "Feature", "properties": { "Name": "DP-19-004" }, "geometry": { "type": "Point", "coordinates": [ -64.371958117, -32.40613863, 0.0 ] } },
{ "type": "Feature", "properties": { "Name": "DP-19-005" }, "geometry": { "type": "Point", "coordinates": [ -65.003350744, -30.859456505, 0.0 ] } },
{ "type": "Feature", "properties": { "Name": "DP-19-006" }, "geometry": { "type": "Point", "coordinates": [ -63.580075767, -32.029351132, 0.0 ] } },
{ "type": "Feature", "properties": { "Name": "DP-19-007" }, "geometry": { "type": "Point", "coordinates": [ -64.145715105, -31.152785331, 0.0 ] } },
{ "type": "Feature", "properties": { "Name": "DP-19-008" }, "geometry": { "type": "Point", "coordinates": [ -64.333815003, -31.962826798, 0.0 ] } },
{ "type": "Feature", "properties": { "Name": "DP-19-009" }, "geometry": { "type": "Point", "coordinates": [ -63.089811298, -31.430216158, 0.0 ] } },
{ "type": "Feature", "properties": { "Name": "DP-19-010" }, "geometry": { "type": "Point", "coordinates": [ -63.294329385, -32.375970075, 0.0 ] } },
{ "type": "Feature", "properties": { "Name": "DP-19-011" }, "geometry": { "type": "Point", "coordinates": [ -64.387498574, -34.000067834, 0.0 ] } },
{ "type": "Feature", "properties": { "Name": "DP-19-012" }, "geometry": { "type": "Point", "coordinates": [ -64.392149182, -33.976456938, 0.0 ] } },
{ "type": "Feature", "properties": { "Name": "DP-19-013" }, "geometry": { "type": "Point", "coordinates": [ -64.201742634, -31.46666085, 0.0 ] } },
{ "type": "Feature", "properties": { "Name": "DP-19-014" }, "geometry": { "type": "Point", "coordinates": [ -64.011534052, -31.551308679, 0.0 ] } },
{ "type": "Feature", "properties": { "Name": "DP-19-015" }, "geometry": { "type": "Point", "coordinates": [ -63.188224897, -31.426770081, 0.0 ] } },
{ "type": "Feature", "properties": { "Name": "DP-19-016" }, "geometry": { "type": "Point", "coordinates": [ -64.047410691, -30.699538794, 0.0 ] } },
{ "type": "Feature", "properties": { "Name": "DP-19-017" }, "geometry": { "type": "Point", "coordinates": [ -64.270147456, -33.133264523, 0.0 ] } },
{ "type": "Feature", "properties": { "Name": "DP-19-018" }, "geometry": { "type": "Point", "coordinates": [ -64.269466784, -33.14165606, 0.0 ] } },
{ "type": "Feature", "properties": { "Name": "DP-19-019" }, "geometry": { "type": "Point", "coordinates": [ -63.205863845, -31.440049414, 0.0 ] } },
{ "type": "Feature", "properties": { "Name": "DP-19-020" }, "geometry": { "type": "Point", "coordinates": [ -63.872094559, -30.209020641, 0.0 ] } },
{ "type": "Feature", "properties": { "Name": "DP-19-021" }, "geometry": { "type": "Point", "coordinates": [ -63.306132908, -32.377979337, 0.0 ] } },
{ "type": "Feature", "properties": { "Name": "DP-19-022" }, "geometry": { "type": "Point", "coordinates": [ -62.75487803, -31.397584982, 0.0 ] } },
{ "type": "Feature", "properties": { "Name": "DP-19-023" }, "geometry": { "type": "Point", "coordinates": [ -62.258531806, -32.643600605, 0.0 ] } },
{ "type": "Feature", "properties": { "Name": "DP-19-024" }, "geometry": { "type": "Point", "coordinates": [ -62.42785667, -32.604952789, 0.0 ] } },
{ "type": "Feature", "properties": { "Name": "DP-19-025" }, "geometry": { "type": "Point", "coordinates": [ -64.28976397, -32.154617633, 0.0 ] } },
{ "type": "Feature", "properties": { "Name": "DP-20-001" }, "geometry": { "type": "Point", "coordinates": [ -64.440775781, -33.21277711, 0.0 ] } },
{ "type": "Feature", "properties": { "Name": "DP-20-002" }, "geometry": { "type": "Point", "coordinates": [ -62.615201421, -32.581130531, 0.0 ] } },
{ "type": "Feature", "properties": { "Name": "DP-20-003" }, "geometry": { "type": "Point", "coordinates": [ -64.103295682, -31.46624853, 0.0 ] } },
{ "type": "Feature", "properties": { "Name": "DP-20-004" }, "geometry": { "type": "Point", "coordinates": [ -63.852306397, -31.323924495, 0.0 ] } },
{ "type": "Feature", "properties": { "Name": "DP-20-005" }, "geometry": { "type": "Point", "coordinates": [ -63.851984496, -31.32388221, 0.0 ] } },
{ "type": "Feature", "properties": { "Name": "DP-20-006" }, "geometry": { "type": "Point", "coordinates": [ -63.852833414, -31.324009287, 0.0 ] } },
{ "type": "Feature", "properties": { "Name": "DP-20-007" }, "geometry": { "type": "Point", "coordinates": [ -64.265773492, -33.126572014, 0.0 ] } },
{ "type": "Feature", "properties": { "Name": "DP-20-008" }, "geometry": { "type": "Point", "coordinates": [ -64.263674478, -33.129037277, 0.0 ] } },
{ "type": "Feature", "properties": { "Name": "DP-20-009" }, "geometry": { "type": "Point", "coordinates": [ -64.325477629, -32.756966494, 0.0 ] } },
{ "type": "Feature", "properties": { "Name": "DP-20-010" }, "geometry": { "type": "Point", "coordinates": [ -64.347128415, -33.018246491, 0.0 ] } },
{ "type": "Feature", "properties": { "Name": "DP-20-011" }, "geometry": { "type": "Point", "coordinates": [ -63.046275283, -32.111152272, 0.0 ] } },
{ "type": "Feature", "properties": { "Name": "DP-20-012" }, "geometry": { "type": "Point", "coordinates": [ -63.044739658, -32.110046629, 0.0 ] } },
{ "type": "Feature", "properties": { "Name": "DP-20-013" }, "geometry": { "type": "Point", "coordinates": [ -62.616209368, -32.580867883, 0.0 ] } },
{ "type": "Feature", "properties": { "Name": "DP-20-014" }, "geometry": { "type": "Point", "coordinates": [ -62.37843787, -31.64389191, 0.0 ] } },
{ "type": "Feature", "properties": { "Name": "DP-20-015" }, "geometry": { "type": "Point", "coordinates": [ -62.370963626, -31.642665245, 0.0 ] } },
{ "type": "Feature", "properties": { "Name": "DP-20-016" }, "geometry": { "type": "Point", "coordinates": [ -62.382982345, -31.649748798, 0.0 ] } },
{ "type": "Feature", "properties": { "Name": "DP-20-017" }, "geometry": { "type": "Point", "coordinates": [ -61.972031705, -32.710123887, 0.0 ] } },
{ "type": "Feature", "properties": { "Name": "DP-20-018" }, "geometry": { "type": "Point", "coordinates": [ -64.413770594, -33.623686614, 0.0 ] } },
{ "type": "Feature", "properties": { "Name": "DP-20-019" }, "geometry": { "type": "Point", "coordinates": [ -64.20258022, -31.482131959, 0.0 ] } },
{ "type": "Feature", "properties": { "Name": "DP-20-020" }, "geometry": { "type": "Point", "coordinates": [ -64.802679348, -30.740400797, 0.0 ] } },
{ "type": "Feature", "properties": { "Name": "DP-20-021" }, "geometry": { "type": "Point", "coordinates": [ -64.405343589, -33.930304883, 0.0 ] } },
{ "type": "Feature", "properties": { "Name": "DP-20-022" }, "geometry": { "type": "Point", "coordinates": [ -64.3906839, -33.940639445, 0.0 ] } },
{ "type": "Feature", "properties": { "Name": "DP-20-023" }, "geometry": { "type": "Point", "coordinates": [ -64.363542503, -34.474010813, 0.0 ] } },
{ "type": "Feature", "properties": { "Name": "DP-20-024" }, "geometry": { "type": "Point", "coordinates": [ -64.249830665, -31.458610427, 0.0 ] } },
{ "type": "Feature", "properties": { "Name": "DP-20-025" }, "geometry": { "type": "Point", "coordinates": [ -62.593703227, -31.457110714, 0.0 ] } },
{ "type": "Feature", "properties": { "Name": "DP-20-026" }, "geometry": { "type": "Point", "coordinates": [ -62.60378317, -31.454945157, 0.0 ] } },
{ "type": "Feature", "properties": { "Name": "DP-20-027" }, "geometry": { "type": "Point", "coordinates": [ -64.508917582, -31.370076304, 0.0 ] } },
{ "type": "Feature", "properties": { "Name": "DP-20-028" }, "geometry": { "type": "Point", "coordinates": [ -63.181458272, -31.435815297, 0.0 ] } },
{ "type": "Feature", "properties": { "Name": "DP-20-029" }, "geometry": { "type": "Point", "coordinates": [ -63.164305918, -31.437589485, 0.0 ] } },
{ "type": "Feature", "properties": { "Name": "DP-20-030" }, "geometry": { "type": "Point", "coordinates": [ -63.657369243, -31.307224775, 0.0 ] } },
{ "type": "Feature", "properties": { "Name": "DP-20-031" }, "geometry": { "type": "Point", "coordinates": [ -63.816061587, -31.308484526, 0.0 ] } },
{ "type": "Feature", "properties": { "Name": "DP-20-032" }, "geometry": { "type": "Point", "coordinates": [ -63.159094215, -33.479140347, 0.0 ] } },
{ "type": "Feature", "properties": { "Name": "DP-20-033" }, "geometry": { "type": "Point", "coordinates": [ -63.985788637, -31.361819903, 0.0 ] } },
{ "type": "Feature", "properties": { "Name": "DP-20-034" }, "geometry": { "type": "Point", "coordinates": [ -64.352192352, -31.958790362, 0.0 ] } },
{ "type": "Feature", "properties": { "Name": "DP-20-035" }, "geometry": { "type": "Point", "coordinates": [ -63.507452746, -31.400362627, 0.0 ] } },
{ "type": "Feature", "properties": { "Name": "DP-20-036" }, "geometry": { "type": "Point", "coordinates": [ -64.303192091, -31.701820818, 0.0 ] } },
{ "type": "Feature", "properties": { "Name": "DP-20-037" }, "geometry": { "type": "Point", "coordinates": [ -64.311871145, -31.663499344, 0.0 ] } },
{ "type": "Feature", "properties": { "Name": "DP-20-038" }, "geometry": { "type": "Point", "coordinates": [ -64.312045069, -31.662779129, 0.0 ] } },
{ "type": "Feature", "properties": { "Name": "DP-20-039" }, "geometry": { "type": "Point", "coordinates": [ -64.358600275, -31.982137481, 0.0 ] } },
{ "type": "Feature", "properties": { "Name": "DP-20-040" }, "geometry": { "type": "Point", "coordinates": [ -62.184179142, -31.458267363, 0.0 ] } },
{ "type": "Feature", "properties": { "Name": "DP-20-041" }, "geometry": { "type": "Point", "coordinates": [ -62.732618335, -31.885537189, 0.0 ] } },
{ "type": "Feature", "properties": { "Name": "DP-20-042" }, "geometry": { "type": "Point", "coordinates": [ -64.035939039, -30.706071642, 0.0 ] } },
{ "type": "Feature", "properties": { "Name": "DP-20-043" }, "geometry": { "type": "Point", "coordinates": [ -64.039720334, -30.700993692, 0.0 ] } },
{ "type": "Feature", "properties": { "Name": "DP-20-044" }, "geometry": { "type": "Point", "coordinates": [ -63.82728337, -30.082176472, 0.0 ] } },
{ "type": "Feature", "properties": { "Name": "DP-20-045" }, "geometry": { "type": "Point", "coordinates": [ -63.841098587, -30.137069413, 0.0 ] } },
{ "type": "Feature", "properties": { "Name": "DP-20-046" }, "geometry": { "type": "Point", "coordinates": [ -63.260185612, -33.41325405, 0.0 ] } },
{ "type": "Feature", "properties": { "Name": "DP-20-047" }, "geometry": { "type": "Point", "coordinates": [ -62.551885336, -32.608987994, 0.0 ] } },
{ "type": "Feature", "properties": { "Name": "DP-20-048" }, "geometry": { "type": "Point", "coordinates": [ -62.558426722, -32.607819104, 0.0 ] } },
{ "type": "Feature", "properties": { "Name": "DP-20-049" }, "geometry": { "type": "Point", "coordinates": [ -64.356261897, -31.98318905, 0.0 ] } },
{ "type": "Feature", "properties": { "Name": "DP-05-001" }, "geometry": { "type": "Point", "coordinates": [ -65.086370829, -30.831165774, 0.0 ] } }
]
}
