{
"type": "FeatureCollection",
"name": "VISADOS_2025",
"xy_coordinate_resolution": 1e-18,
"features": [
{ "type": "Feature", "properties": { "Name": "D-25-001" }, "geometry": { "type": "Point", "coordinates": [ -64.801313250999996285, -30.737402903999999637 ] } },
{ "type": "Feature", "properties": { "Name": "D-25-002" }, "geometry": { "type": "Point", "coordinates": [ -62.711346184999996467, -31.87155276800000081 ] } },
{ "type": "Feature", "properties": { "Name": "D-25-003" }, "geometry": { "type": "Point", "coordinates": [ -63.591747339000001205, -32.618012106999998423 ] } },
{ "type": "Feature", "properties": { "Name": "D-25-004" }, "geometry": { "type": "Point", "coordinates": [ -64.354347767999996677, -33.156978442000003326 ] } },
{ "type": "Feature", "properties": { "Name": "D-25-005" }, "geometry": { "type": "Point", "coordinates": [ -63.70844273299999827, -31.294569312000000139 ] } },
{ "type": "Feature", "properties": { "Name": "D-25-083" }, "geometry": { "type": "Point", "coordinates": [ -63.380205814999996505, -34.148312406999998814 ] } },
{ "type": "Feature", "properties": { "Name": "D-25-013" }, "geometry": { "type": "Point", "coordinates": [ -64.433750955999997245, -33.206683036999997682 ] } },
{ "type": "Feature", "properties": { "Name": "D-25-012" }, "geometry": { "type": "Point", "coordinates": [ -64.432475547999999321, -33.205791625999999894 ] } },
{ "type": "Feature", "properties": { "Name": "D-25-007" }, "geometry": { "type": "Point", "coordinates": [ -63.908866432000003499, -32.838225053000002163 ] } },
{ "type": "Feature", "properties": { "Name": "D-25-008" }, "geometry": { "type": "Point", "coordinates": [ -63.823007627999999158, -31.306794118999999199 ] } },
{ "type": "Feature", "properties": { "Name": "D-25-009" }, "geometry": { "type": "Point", "coordinates": [ -64.130742208000000915, -31.363601267 ] } },
{ "type": "Feature", "properties": { "Name": "D-25-010" }, "geometry": { "type": "Point", "coordinates": [ -62.215935721999997554, -32.647698210000001495 ] } },
{ "type": "Feature", "properties": { "Name": "D-25-011" }, "geometry": { "type": "Point", "coordinates": [ -64.038720327999996584, -31.379814516999999796 ] } },
{ "type": "Feature", "properties": { "Name": "D-25-014" }, "geometry": { "type": "Point", "coordinates": [ -64.707661509000004685, -33.381056346999997686 ] } },
{ "type": "Feature", "properties": { "Name": "D-25-015" }, "geometry": { "type": "Point", "coordinates": [ -62.222750779999998372, -31.547646653000001038 ] } },
{ "type": "Feature", "properties": { "Name": "D-25-016" }, "geometry": { "type": "Point", "coordinates": [ -62.222402868999999725, -31.546301540999998281 ] } },
{ "type": "Feature", "properties": { "Name": "D-25-017" }, "geometry": { "type": "Point", "coordinates": [ -63.232372007999998687, -34.159370873999996832 ] } },
{ "type": "Feature", "properties": { "Name": "D-25-018" }, "geometry": { "type": "Point", "coordinates": [ -64.322394091999996135, -33.093457835999998906 ] } },
{ "type": "Feature", "properties": { "Name": "D-25-019" }, "geometry": { "type": "Point", "coordinates": [ -64.311443241999995735, -31.742544594999998253 ] } },
{ "type": "Feature", "properties": { "Name": "D-25-020" }, "geometry": { "type": "Point", "coordinates": [ -64.295942105999998262, -31.746242341999998615 ] } },
{ "type": "Feature", "properties": { "Name": "D-25-021" }, "geometry": { "type": "Point", "coordinates": [ -64.249459001999994712, -31.433161949999998797 ] } },
{ "type": "Feature", "properties": { "Name": "D-25-022" }, "geometry": { "type": "Point", "coordinates": [ -64.340678607000000966, -31.969493234000001536 ] } },
{ "type": "Feature", "properties": { "Name": "D-25-023" }, "geometry": { "type": "Point", "coordinates": [ -64.106205183000000147, -31.004240263999999883 ] } },
{ "type": "Feature", "properties": { "Name": "D-25-024" }, "geometry": { "type": "Point", "coordinates": [ -64.178023084000002996, -31.321684965999999406 ] } },
{ "type": "Feature", "properties": { "Name": "D-25-025" }, "geometry": { "type": "Point", "coordinates": [ -64.346943952999993144, -34.842091070000002162 ] } },
{ "type": "Feature", "properties": { "Name": "D-25-026" }, "geometry": { "type": "Point", "coordinates": [ -64.322925341000001254, -33.094029302999999231 ] } },
{ "type": "Feature", "properties": { "Name": "D-25-027" }, "geometry": { "type": "Point", "coordinates": [ -64.405357855999994854, -32.457583704000001035 ] } },
{ "type": "Feature", "properties": { "Name": "D-25-028" }, "geometry": { "type": "Point", "coordinates": [ -63.75813487399999957, -32.733750663000002135 ] } },
{ "type": "Feature", "properties": { "Name": "D-25-031" }, "geometry": { "type": "Point", "coordinates": [ -62.087326287000003333, -32.690331804999999576 ] } },
{ "type": "Feature", "properties": { "Name": "D-25-029" }, "geometry": { "type": "Point", "coordinates": [ -62.317906350000001225, -31.431585520999998806 ] } },
{ "type": "Feature", "properties": { "Name": "D-25-030" }, "geometry": { "type": "Point", "coordinates": [ -64.539336262000006172, -30.880509541999998646 ] } },
{ "type": "Feature", "properties": { "Name": "D-25-032" }, "geometry": { "type": "Point", "coordinates": [ -64.311265671000001021, -31.723040739999998294 ] } },
{ "type": "Feature", "properties": { "Name": "D-25-035" }, "geometry": { "type": "Point", "coordinates": [ -63.859725527000001932, -31.648377017000001388 ] } },
{ "type": "Feature", "properties": { "Name": "D-25-034" }, "geometry": { "type": "Point", "coordinates": [ -64.100621418000002905, -31.474665226999999135 ] } },
{ "type": "Feature", "properties": { "Name": "D-25-033" }, "geometry": { "type": "Point", "coordinates": [ -64.10019645399999888, -31.475610829000000734 ] } },
{ "type": "Feature", "properties": { "Name": "D-25-035-B" }, "geometry": { "type": "Point", "coordinates": [ -62.12710246999999697, -31.425797275000000752 ] } },
{ "type": "Feature", "properties": { "Name": "D-25-036" }, "geometry": { "type": "Point", "coordinates": [ -64.370790740000003893, -31.978446771000001547 ] } },
{ "type": "Feature", "properties": { "Name": "D-25-038" }, "geometry": { "type": "Point", "coordinates": [ -63.888084413000001405, -31.640968618999998796 ] } },
{ "type": "Feature", "properties": { "Name": "D-25-039" }, "geometry": { "type": "Point", "coordinates": [ -61.986609835999999518, -32.700961915999997132 ] } },
{ "type": "Feature", "properties": { "Name": "D-25-040" }, "geometry": { "type": "Point", "coordinates": [ -64.323734147999999777, -31.896592778999998785 ] } },
{ "type": "Feature", "properties": { "Name": "D-25-037" }, "geometry": { "type": "Point", "coordinates": [ -63.391689349000003517, -34.146881022999998834 ] } },
{ "type": "Feature", "properties": { "Name": "D-25-041" }, "geometry": { "type": "Point", "coordinates": [ -61.9685716400000004, -32.696791079000000479 ] } },
{ "type": "Feature", "properties": { "Name": "D-25-042" }, "geometry": { "type": "Point", "coordinates": [ -61.959147549999997295, -32.69902173999999917 ] } },
{ "type": "Feature", "properties": { "Name": "D-25-046" }, "geometry": { "type": "Point", "coordinates": [ -64.094856574999994336, -31.469667161000000277 ] } },
{ "type": "Feature", "properties": { "Name": "D-25-047" }, "geometry": { "type": "Point", "coordinates": [ -63.849116490000000113, -30.122045922000001639 ] } },
{ "type": "Feature", "properties": { "Name": "D-25-048" }, "geometry": { "type": "Point", "coordinates": [ -64.399268887000005179, -33.92601753200000303 ] } },
{ "type": "Feature", "properties": { "Name": "D-25-043" }, "geometry": { "type": "Point", "coordinates": [ -62.694688286000001654, -32.581894966999996655 ] } },
{ "type": "Feature", "properties": { "Name": "D-25-044" }, "geometry": { "type": "Point", "coordinates": [ -64.53589732300000037, -30.826243691999998475 ] } },
{ "type": "Feature", "properties": { "Name": "D-25-045" }, "geometry": { "type": "Point", "coordinates": [ -64.535838871999999355, -30.823509279999999677 ] } },
{ "type": "Feature", "properties": { "Name": "D-25-049" }, "geometry": { "type": "Point", "coordinates": [ -64.054730736999999863, -32.936612441000001184 ] } },
{ "type": "Feature", "properties": { "Name": "D-25-050" }, "geometry": { "type": "Point", "coordinates": [ -64.081265568000006283, -32.953315277999998045 ] } },
{ "type": "Feature", "properties": { "Name": "D-25-052" }, "geometry": { "type": "Point", "coordinates": [ -63.225942148000001453, -32.363889849999999626 ] } },
{ "type": "Feature", "properties": { "Name": "D-25-051" }, "geometry": { "type": "Point", "coordinates": [ -64.375986166999993543, -33.166166820999997356 ] } },
{ "type": "Feature", "properties": { "Name": "D-25-054" }, "geometry": { "type": "Point", "coordinates": [ -63.040674809999998729, -32.108596513000001949 ] } },
{ "type": "Feature", "properties": { "Name": "D-25-055" }, "geometry": { "type": "Point", "coordinates": [ -64.354747125000002939, -32.37518239399999942 ] } },
{ "type": "Feature", "properties": { "Name": "D-25-056" }, "geometry": { "type": "Point", "coordinates": [ -64.186788370000002146, -31.342169083999998236 ] } },
{ "type": "Feature", "properties": { "Name": "D-25-053" }, "geometry": { "type": "Point", "coordinates": [ -64.203547310999994124, -30.582840068999999517 ] } },
{ "type": "Feature", "properties": { "Name": "D-25-062" }, "geometry": { "type": "Point", "coordinates": [ -64.241115061000002129, -31.358605879999998933 ] } },
{ "type": "Feature", "properties": { "Name": "D-25-064" }, "geometry": { "type": "Point", "coordinates": [ -65.235057615000002329, -31.974763225000000233 ] } },
{ "type": "Feature", "properties": { "Name": "D-25-057" }, "geometry": { "type": "Point", "coordinates": [ -64.300475982999998337, -32.195604975999998487 ] } },
{ "type": "Feature", "properties": { "Name": "D-25-058" }, "geometry": { "type": "Point", "coordinates": [ -64.300573276999998029, -32.19657969299999678 ] } },
{ "type": "Feature", "properties": { "Name": "D-25-059" }, "geometry": { "type": "Point", "coordinates": [ -64.300049087000004988, -32.197422363999997685 ] } },
{ "type": "Feature", "properties": { "Name": "D-25-060" }, "geometry": { "type": "Point", "coordinates": [ -64.299552468000001682, -32.19816549600000144 ] } },
{ "type": "Feature", "properties": { "Name": "D-25-061" }, "geometry": { "type": "Point", "coordinates": [ -64.300977688000003241, -32.199205591999998433 ] } },
{ "type": "Feature", "properties": { "Name": "D-25-066" }, "geometry": { "type": "Point", "coordinates": [ -64.711500733999997692, -33.38931585699999971 ] } },
{ "type": "Feature", "properties": { "Name": "D-25-067" }, "geometry": { "type": "Point", "coordinates": [ -64.208929557999994131, -31.353436387999998658 ] } },
{ "type": "Feature", "properties": { "Name": "D-25-063" }, "geometry": { "type": "Point", "coordinates": [ -64.24460331400000257, -31.524534973000001514 ] } },
{ "type": "Feature", "properties": { "Name": "D-25-065" }, "geometry": { "type": "Point", "coordinates": [ -62.291862164999997731, -32.653249950999999385 ] } },
{ "type": "Feature", "properties": { "Name": "D-25-068" }, "geometry": { "type": "Point", "coordinates": [ -65.126623050999995712, -30.805938136000001748 ] } },
{ "type": "Feature", "properties": { "Name": "D-25-074" }, "geometry": { "type": "Point", "coordinates": [ -63.942929311000000325, -30.442392999999999148 ] } },
{ "type": "Feature", "properties": { "Name": "D-25-070" }, "geometry": { "type": "Point", "coordinates": [ -64.487801802000007001, -31.413868955000001648 ] } },
{ "type": "Feature", "properties": { "Name": "D-25-071" }, "geometry": { "type": "Point", "coordinates": [ -64.472826359999999113, -31.403878782999999686 ] } },
{ "type": "Feature", "properties": { "Name": "D-25-072" }, "geometry": { "type": "Point", "coordinates": [ -64.486374201000003836, -31.348515748000000514 ] } },
{ "type": "Feature", "properties": { "Name": "D-25-069" }, "geometry": { "type": "Point", "coordinates": [ -64.141215571999993017, -31.132791739000001741 ] } },
{ "type": "Feature", "properties": { "Name": "D-25-073" }, "geometry": { "type": "Point", "coordinates": [ -62.351861597999999276, -32.624790834000002349 ] } },
{ "type": "Feature", "properties": { "Name": "D-25-075" }, "geometry": { "type": "Point", "coordinates": [ -64.388589687999996158, -34.539412020999996855 ] } },
{ "type": "Feature", "properties": { "Name": "D-25-076" }, "geometry": { "type": "Point", "coordinates": [ -62.082266488999998444, -32.668612189000000967 ] } },
{ "type": "Feature", "properties": { "Name": "D-25-077" }, "geometry": { "type": "Point", "coordinates": [ -63.215479979000001265, -32.422420805000001565 ] } },
{ "type": "Feature", "properties": { "Name": "D-25-078" }, "geometry": { "type": "Point", "coordinates": [ -63.986261079000001928, -30.479456084999998922 ] } },
{ "type": "Feature", "properties": { "Name": "D-25-079" }, "geometry": { "type": "Point", "coordinates": [ -63.986367541, -30.479784801000000982 ] } },
{ "type": "Feature", "properties": { "Name": "D-25-080" }, "geometry": { "type": "Point", "coordinates": [ -63.135414101999998593, -31.43946481600000098 ] } },
{ "type": "Feature", "properties": { "Name": "D-25-082" }, "geometry": { "type": "Point", "coordinates": [ -63.254631510999999477, -32.407199689000002252 ] } },
{ "type": "Feature", "properties": { "Name": "D-25-006" }, "geometry": { "type": "Point", "coordinates": [ -63.380294360999997139, -34.148488600000000304 ] } },
{ "type": "Feature", "properties": { "Name": "D-25-084" }, "geometry": { "type": "Point", "coordinates": [ -63.172032940000001133, -32.443859951000000308 ] } },
{ "type": "Feature", "properties": { "Name": "D-25-085" }, "geometry": { "type": "Point", "coordinates": [ -63.918928575999998998, -30.263328231999999218 ] } },
{ "type": "Feature", "properties": { "Name": "D-25-088" }, "geometry": { "type": "Point", "coordinates": [ -64.473431095999998774, -31.1632376519999994 ] } },
{ "type": "Feature", "properties": { "Name": "D-25-086" }, "geometry": { "type": "Point", "coordinates": [ -63.553865276999999878, -31.392944771999999887 ] } },
{ "type": "Feature", "properties": { "Name": "D-25-087" }, "geometry": { "type": "Point", "coordinates": [ -64.347860177000001158, -33.036242991999998253 ] } },
{ "type": "Feature", "properties": { "Name": "D-25-081" }, "geometry": { "type": "Point", "coordinates": [ -63.203440405999998575, -31.422964114999999197 ] } },
{ "type": "Feature", "properties": { "Name": "D-25-089" }, "geometry": { "type": "Point", "coordinates": [ -64.481816972999993709, -31.101978432999999313 ] } },
{ "type": "Feature", "properties": { "Name": "D-25-090" }, "geometry": { "type": "Point", "coordinates": [ -62.254019239999998092, -31.434540396999999246 ] } },
{ "type": "Feature", "properties": { "Name": "D-25-090BIS" }, "geometry": { "type": "Point", "coordinates": [ -62.754353276000003348, -31.394109968999998728 ] } },
{ "type": "Feature", "properties": { "Name": "D-25-091" }, "geometry": { "type": "Point", "coordinates": [ -62.789293972000002952, -31.389561553 ] } },
{ "type": "Feature", "properties": { "Name": "D-25-092" }, "geometry": { "type": "Point", "coordinates": [ -63.968568433000001505, -30.43078445600000137 ] } },
{ "type": "Feature", "properties": { "Name": "D-25-095" }, "geometry": { "type": "Point", "coordinates": [ -63.943405474999998717, -30.445294108999998883 ] } },
{ "type": "Feature", "properties": { "Name": "D-25-093" }, "geometry": { "type": "Point", "coordinates": [ -62.694270144000000755, -32.609982268999999633 ] } },
{ "type": "Feature", "properties": { "Name": "D-25-096" }, "geometry": { "type": "Point", "coordinates": [ -63.866498970000002089, -31.693820288000001284 ] } },
{ "type": "Feature", "properties": { "Name": "D-25-098" }, "geometry": { "type": "Point", "coordinates": [ -63.253462650999999539, -32.406584072000001129 ] } },
{ "type": "Feature", "properties": { "Name": "D-25-099" }, "geometry": { "type": "Point", "coordinates": [ -64.077891343000004554, -31.435605986999998862 ] } },
{ "type": "Feature", "properties": { "Name": "D-25-097" }, "geometry": { "type": "Point", "coordinates": [ -62.293342690000002904, -32.649286660000001348 ] } },
{ "type": "Feature", "properties": { "Name": "D-25-094" }, "geometry": { "type": "Point", "coordinates": [ -62.356430629999998416, -31.632645860000000226 ] } },
{ "type": "Feature", "properties": { "Name": "D-25-102" }, "geometry": { "type": "Point", "coordinates": [ -64.369996913999997901, -31.975905305000001277 ] } },
{ "type": "Feature", "properties": { "Name": "D-25-100" }, "geometry": { "type": "Point", "coordinates": [ -64.062909583000006819, -30.8608700330000012 ] } },
{ "type": "Feature", "properties": { "Name": "D-25-101" }, "geometry": { "type": "Point", "coordinates": [ -64.082872610999999097, -30.974892389000000748 ] } },
{ "type": "Feature", "properties": { "Name": "D-25-103" }, "geometry": { "type": "Point", "coordinates": [ -62.631222473000001116, -31.809783979999998849 ] } },
{ "type": "Feature", "properties": { "Name": "D-25-104" }, "geometry": { "type": "Point", "coordinates": [ -63.32877225, -33.389182894000001056 ] } },
{ "type": "Feature", "properties": { "Name": "D-25-111" }, "geometry": { "type": "Point", "coordinates": [ -64.334974489000003928, -33.083555738000001156 ] } },
{ "type": "Feature", "properties": { "Name": "D-25-110" }, "geometry": { "type": "Point", "coordinates": [ -62.949321349000001646, -32.040011165999999321 ] } },
{ "type": "Feature", "properties": { "Name": "D-25-112" }, "geometry": { "type": "Point", "coordinates": [ -64.311868938999992906, -31.726075308999998725 ] } },
{ "type": "Feature", "properties": { "Name": "D-25-117" }, "geometry": { "type": "Point", "coordinates": [ -64.353713020000000711, -32.851531712000003438 ] } },
{ "type": "Feature", "properties": { "Name": "D-25-105" }, "geometry": { "type": "Point", "coordinates": [ -63.351247366000002614, -32.291494788000001392 ] } },
{ "type": "Feature", "properties": { "Name": "D-25-106" }, "geometry": { "type": "Point", "coordinates": [ -64.360837559999993118, -34.826926702000001512 ] } },
{ "type": "Feature", "properties": { "Name": "D-25-107" }, "geometry": { "type": "Point", "coordinates": [ -64.495003144999998312, -31.078025579999998484 ] } },
{ "type": "Feature", "properties": { "Name": "D-25-108" }, "geometry": { "type": "Point", "coordinates": [ -64.411178824000003829, -32.561775341999997124 ] } },
{ "type": "Feature", "properties": { "Name": "D-25-109" }, "geometry": { "type": "Point", "coordinates": [ -62.518863596999999288, -31.417858904999999226 ] } },
{ "type": "Feature", "properties": { "Name": "D-25-113" }, "geometry": { "type": "Point", "coordinates": [ -62.494361382999997545, -32.588059221000001742 ] } },
{ "type": "Feature", "properties": { "Name": "D-25-114" }, "geometry": { "type": "Point", "coordinates": [ -63.966490256000000159, -31.356471208999998623 ] } },
{ "type": "Feature", "properties": { "Name": "D-25-115" }, "geometry": { "type": "Point", "coordinates": [ -62.23904452200000037, -31.558121326999998502 ] } },
{ "type": "Feature", "properties": { "Name": "D-25-116" }, "geometry": { "type": "Point", "coordinates": [ -64.857523618000001875, -33.472456678000000352 ] } },
{ "type": "Feature", "properties": { "Name": "D-25-118" }, "geometry": { "type": "Point", "coordinates": [ -64.237518632999993429, -31.460512951999998421 ] } },
{ "type": "Feature", "properties": { "Name": "D-25-119" }, "geometry": { "type": "Point", "coordinates": [ -63.196167123999998694, -33.42789306400000271 ] } },
{ "type": "Feature", "properties": { "Name": "D-25-120" }, "geometry": { "type": "Point", "coordinates": [ -63.19724544799999677, -33.4323230310000028 ] } },
{ "type": "Feature", "properties": { "Name": "D-25-121" }, "geometry": { "type": "Point", "coordinates": [ -63.037058647999998584, -31.422816619999998977 ] } },
{ "type": "Feature", "properties": { "Name": "D-25-122" }, "geometry": { "type": "Point", "coordinates": [ -63.987067813999999544, -31.546539379999998687 ] } },
{ "type": "Feature", "properties": { "Name": "D-25-123" }, "geometry": { "type": "Point", "coordinates": [ -64.77246194800000012, -33.876717071999998154 ] } },
{ "type": "Feature", "properties": { "Name": "D-25-124" }, "geometry": { "type": "Point", "coordinates": [ -64.402140716000005227, -33.926784296000001007 ] } },
{ "type": "Feature", "properties": { "Name": "D-25-125" }, "geometry": { "type": "Point", "coordinates": [ -63.232168780999998603, -32.335553234000002476 ] } },
{ "type": "Feature", "properties": { "Name": "D-25-126" }, "geometry": { "type": "Point", "coordinates": [ -64.732912728000002289, -33.398306304999998417 ] } },
{ "type": "Feature", "properties": { "Name": "D-25-128" }, "geometry": { "type": "Point", "coordinates": [ -63.746121588999997698, -32.728355446999998435 ] } },
{ "type": "Feature", "properties": { "Name": "D-25-129" }, "geometry": { "type": "Point", "coordinates": [ -64.465460089000004018, -31.301482106000001693 ] } },
{ "type": "Feature", "properties": { "Name": "D-25-127" }, "geometry": { "type": "Point", "coordinates": [ -63.247606111999999712, -34.192422207 ] } },
{ "type": "Feature", "properties": { "Name": "D-25-130" }, "geometry": { "type": "Point", "coordinates": [ -62.038784503999998776, -32.677425405999997565 ] } },
{ "type": "Feature", "properties": { "Name": "D-25-131" }, "geometry": { "type": "Point", "coordinates": [ -64.23865275, -31.431715231999998394 ] } },
{ "type": "Feature", "properties": { "Name": "D-25-133" }, "geometry": { "type": "Point", "coordinates": [ -63.20727987400000103, -32.388786863999996513 ] } },
{ "type": "Feature", "properties": { "Name": "D-25-132" }, "geometry": { "type": "Point", "coordinates": [ -62.10829577199999818, -32.686101976999999863 ] } },
{ "type": "Feature", "properties": { "Name": "D-25-134" }, "geometry": { "type": "Point", "coordinates": [ -63.692247293000001207, -31.293863413000000406 ] } },
{ "type": "Feature", "properties": { "Name": "D-25-135" }, "geometry": { "type": "Point", "coordinates": [ -64.238455349000005867, -31.431588588000000328 ] } },
{ "type": "Feature", "properties": { "Name": "D-25-137" }, "geometry": { "type": "Point", "coordinates": [ -64.200332516000003125, -33.992805091999997558 ] } },
{ "type": "Feature", "properties": { "Name": "D-25-136" }, "geometry": { "type": "Point", "coordinates": [ -64.206854293000006351, -31.491585354000001473 ] } },
{ "type": "Feature", "properties": { "Name": "D-25-138" }, "geometry": { "type": "Point", "coordinates": [ -63.891563179000002037, -32.826149759000003314 ] } },
{ "type": "Feature", "properties": { "Name": "D-25-139" }, "geometry": { "type": "Point", "coordinates": [ -64.168204947999996079, -33.009190052000001003 ] } },
{ "type": "Feature", "properties": { "Name": "D-25-140" }, "geometry": { "type": "Point", "coordinates": [ -63.939981351000000132, -30.358008355999999139 ] } },
{ "type": "Feature", "properties": { "Name": "D-25-141" }, "geometry": { "type": "Point", "coordinates": [ -64.401449604000006843, -31.456681330999998636 ] } },
{ "type": "Feature", "properties": { "Name": "D-25-142" }, "geometry": { "type": "Point", "coordinates": [ -62.315552461999999423, -32.655119953999999893 ] } },
{ "type": "Feature", "properties": { "Name": "D-25-143" }, "geometry": { "type": "Point", "coordinates": [ -64.483971268999994209, -31.133478205999999489 ] } },
{ "type": "Feature", "properties": { "Name": "D-25-144" }, "geometry": { "type": "Point", "coordinates": [ -63.939420269999999391, -30.348165777999998483 ] } },
{ "type": "Feature", "properties": { "Name": "D-25-149" }, "geometry": { "type": "Point", "coordinates": [ -64.176423094000000447, -31.313093286000000859 ] } },
{ "type": "Feature", "properties": { "Name": "D-25-145" }, "geometry": { "type": "Point", "coordinates": [ -62.133203981000001193, -32.679301354999999774 ] } },
{ "type": "Feature", "properties": { "Name": "D-25-151" }, "geometry": { "type": "Point", "coordinates": [ -62.095315569999996796, -31.421620871999998315 ] } },
{ "type": "Feature", "properties": { "Name": "D-25-146" }, "geometry": { "type": "Point", "coordinates": [ -63.358676019999997209, -32.232081608999997968 ] } },
{ "type": "Feature", "properties": { "Name": "D-25-147" }, "geometry": { "type": "Point", "coordinates": [ -64.101648280000006253, -30.77086431000000033 ] } },
{ "type": "Feature", "properties": { "Name": "D-25-148" }, "geometry": { "type": "Point", "coordinates": [ -64.101657134999996401, -30.768155817000000241 ] } },
{ "type": "Feature", "properties": { "Name": "D-25-150" }, "geometry": { "type": "Point", "coordinates": [ -64.255799585999994861, -33.133024773999999013 ] } }
]
}
