{
"type": "FeatureCollection",
"name": "VISADOS 2026",
"features": [
{ "type": "Feature", "properties": { "Name": "TAD-26-127" }, "geometry": { "type": "Point", "coordinates": [ -64.1101342, -31.4578345, 0.0 ] } },
{ "type": "Feature", "properties": { "Name": "TAD-26-001" }, "geometry": { "type": "Point", "coordinates": [ -63.7084257, -32.6975703, 0.0 ] } },
{ "type": "Feature", "properties": { "Name": "TAD-26-002" }, "geometry": { "type": "Point", "coordinates": [ -64.3810927, -32.391977, 0.0 ] } },
{ "type": "Feature", "properties": { "Name": "TAD-26-003" }, "geometry": { "type": "Point", "coordinates": [ -64.2082365, -31.356021, 0.0 ] } },
{ "type": "Feature", "properties": { "Name": "TAD-26-004" }, "geometry": { "type": "Point", "coordinates": [ -64.1108316, -31.0145344, 0.0 ] } },
{ "type": "Feature", "properties": { "Name": "TAD-26-005" }, "geometry": { "type": "Point", "coordinates": [ -64.3391839, -33.0767332, 0.0 ] } },
{ "type": "Feature", "properties": { "Name": "TAD-26-006" }, "geometry": { "type": "Point", "coordinates": [ -64.1159745, -31.3959714, 0.0 ] } },
{ "type": "Feature", "properties": { "Name": "TAD-26-007" }, "geometry": { "type": "Point", "coordinates": [ -64.4416278, -31.4404066, 0.0 ] } },
{ "type": "Feature", "properties": { "Name": "TAD-26-008" }, "geometry": { "type": "Point", "coordinates": [ -62.1361938, -31.4391378, 0.0 ] } },
{ "type": "Feature", "properties": { "Name": "TAD-26-009" }, "geometry": { "type": "Point", "coordinates": [ -62.2293389, -31.5524858, 0.0 ] } },
{ "type": "Feature", "properties": { "Name": "TAD-26-011" }, "geometry": { "type": "Point", "coordinates": [ -64.0797713, -31.433873, 0.0 ] } },
{ "type": "Feature", "properties": { "Name": "TAD-26-010" }, "geometry": { "type": "Point", "coordinates": [ -64.0812529, -31.4324297, 0.0 ] } },
{ "type": "Feature", "properties": { "Name": "TAD-26-012" }, "geometry": { "type": "Point", "coordinates": [ -63.2964555, -33.3945353, 0.0 ] } },
{ "type": "Feature", "properties": { "Name": "TAD-26-013" }, "geometry": { "type": "Point", "coordinates": [ -63.6089297, -34.1022317, 0.0 ] } },
{ "type": "Feature", "properties": { "Name": "TAD-26-014" }, "geometry": { "type": "Point", "coordinates": [ -62.6917971, -32.6103401, 0.0 ] } },
{ "type": "Feature", "properties": { "Name": "TAD-26-015" }, "geometry": { "type": "Point", "coordinates": [ -62.6918886, -32.6103502, 0.0 ] } },
{ "type": "Feature", "properties": { "Name": "TAD-26-016" }, "geometry": { "type": "Point", "coordinates": [ -64.3703758, -34.8206042, 0.0 ] } },
{ "type": "Feature", "properties": { "Name": "TAD-26-017" }, "geometry": { "type": "Point", "coordinates": [ -65.1768166, -32.027095, 0.0 ] } },
{ "type": "Feature", "properties": { "Name": "TAD-26-018" }, "geometry": { "type": "Point", "coordinates": [ -64.3531196, -32.6906616, 0.0 ] } },
{ "type": "Feature", "properties": { "Name": "TAD-26-019" }, "geometry": { "type": "Point", "coordinates": [ -64.3571918, -34.8210576, 0.0 ] } },
{ "type": "Feature", "properties": { "Name": "TAD-26-020" }, "geometry": { "type": "Point", "coordinates": [ -64.4630269, -31.3176035, 0.0 ] } },
{ "type": "Feature", "properties": { "Name": "TAD-26-021" }, "geometry": { "type": "Point", "coordinates": [ -64.2935238, -32.2121299, 0.0 ] } },
{ "type": "Feature", "properties": { "Name": "TAD-26-022" }, "geometry": { "type": "Point", "coordinates": [ -64.3678203, -32.0002008, 0.0 ] } },
{ "type": "Feature", "properties": { "Name": "TAD-26-023" }, "geometry": { "type": "Point", "coordinates": [ -64.4285751, -31.4506819, 0.0 ] } },
{ "type": "Feature", "properties": { "Name": "TAD-26-024" }, "geometry": { "type": "Point", "coordinates": [ -64.1118919, -31.0177797, 0.0 ] } },
{ "type": "Feature", "properties": { "Name": "TAD-26-025" }, "geometry": { "type": "Point", "coordinates": [ -62.1254405, -32.6766926, 0.0 ] } },
{ "type": "Feature", "properties": { "Name": "TAD-26-026" }, "geometry": { "type": "Point", "coordinates": [ -64.4258885, -33.7757411, 0.0 ] } },
{ "type": "Feature", "properties": { "Name": "TAD-26-027" }, "geometry": { "type": "Point", "coordinates": [ -64.3349426, -30.4375996, 0.0 ] } },
{ "type": "Feature", "properties": { "Name": "TAD-26-028" }, "geometry": { "type": "Point", "coordinates": [ -64.3459147, -31.4413076, 0.0 ] } },
{ "type": "Feature", "properties": { "Name": "TAD-26-030" }, "geometry": { "type": "Point", "coordinates": [ -65.1671734, -32.2290305, 0.0 ] } },
{ "type": "Feature", "properties": { "Name": "TAD-26-031" }, "geometry": { "type": "Point", "coordinates": [ -63.2092033, -32.3810674, 0.0 ] } },
{ "type": "Feature", "properties": { "Name": "TAD-26-033" }, "geometry": { "type": "Point", "coordinates": [ -63.8688097, -33.1977953, 0.0 ] } },
{ "type": "Feature", "properties": { "Name": "TAD-26-034" }, "geometry": { "type": "Point", "coordinates": [ -63.8989142, -31.6195996, 0.0 ] } },
{ "type": "Feature", "properties": { "Name": "TAD-26-035" }, "geometry": { "type": "Point", "coordinates": [ -64.4526533, -31.4244808, 0.0 ] } },
{ "type": "Feature", "properties": { "Name": "TAD-26-036" }, "geometry": { "type": "Point", "coordinates": [ -63.8848995, -31.6748923, 0.0 ] } },
{ "type": "Feature", "properties": { "Name": "TAD-26-029" }, "geometry": { "type": "Point", "coordinates": [ -64.2539308, -31.4554034, 0.0 ] } },
{ "type": "Feature", "properties": { "Name": "TAD-26-032" }, "geometry": { "type": "Point", "coordinates": [ -64.4770467, -31.4077211, 0.0 ] } },
{ "type": "Feature", "properties": { "Name": "TAD-26-037" }, "geometry": { "type": "Point", "coordinates": [ -65.1769818, -32.0287257, 0.0 ] } },
{ "type": "Feature", "properties": { "Name": "TAD-26-038" }, "geometry": { "type": "Point", "coordinates": [ -63.8846182, -31.6753218, 0.0 ] } },
{ "type": "Feature", "properties": { "Name": "TAD-26-039" }, "geometry": { "type": "Point", "coordinates": [ -62.047931, -32.6679418, 0.0 ] } },
{ "type": "Feature", "properties": { "Name": "TAD-26-040" }, "geometry": { "type": "Point", "coordinates": [ -63.1903396, -32.4036949, 0.0 ] } },
{ "type": "Feature", "properties": { "Name": "TAD-26-041" }, "geometry": { "type": "Point", "coordinates": [ -64.2629848, -32.1950739, 0.0 ] } },
{ "type": "Feature", "properties": { "Name": "TAD-26-042" }, "geometry": { "type": "Point", "coordinates": [ -63.2416309, -32.4049561, 0.0 ] } },
{ "type": "Feature", "properties": { "Name": "TAD-26-043" }, "geometry": { "type": "Point", "coordinates": [ -64.4266831, -33.2285542, 0.0 ] } },
{ "type": "Feature", "properties": { "Name": "TAD-26-044" }, "geometry": { "type": "Point", "coordinates": [ -63.5540956, -31.3938694, 0.0 ] } },
{ "type": "Feature", "properties": { "Name": "TAD-26-045" }, "geometry": { "type": "Point", "coordinates": [ -64.0860637, -31.4803008, 0.0 ] } },
{ "type": "Feature", "properties": { "Name": "TAD-26-046" }, "geometry": { "type": "Point", "coordinates": [ -64.3785904, -33.1032111, 0.0 ] } },
{ "type": "Feature", "properties": { "Name": "TAD-26-047" }, "geometry": { "type": "Point", "coordinates": [ -64.2159735, -31.3553326, 0.0 ] } },
{ "type": "Feature", "properties": { "Name": "TAD-26-048" }, "geometry": { "type": "Point", "coordinates": [ -64.4731158, -31.4050386, 0.0 ] } },
{ "type": "Feature", "properties": { "Name": "TAD-26-049" }, "geometry": { "type": "Point", "coordinates": [ -64.4830335, -31.410745, 0.0 ] } },
{ "type": "Feature", "properties": { "Name": "TAD-26-050" }, "geometry": { "type": "Point", "coordinates": [ -64.1737674, -33.0133909, 0.0 ] } },
{ "type": "Feature", "properties": { "Name": "TAD-26-051" }, "geometry": { "type": "Point", "coordinates": [ -64.0930354, -31.471029, 0.0 ] } },
{ "type": "Feature", "properties": { "Name": "TAD-26-052" }, "geometry": { "type": "Point", "coordinates": [ -64.0263476, -32.9135745, 0.0 ] } },
{ "type": "Feature", "properties": { "Name": "TAD-26-053" }, "geometry": { "type": "Point", "coordinates": [ -64.3691714, -34.0919665, 0.0 ] } },
{ "type": "Feature", "properties": { "Name": "TAD-26-054" }, "geometry": { "type": "Point", "coordinates": [ -63.6641973, -31.9276455, 0.0 ] } },
{ "type": "Feature", "properties": { "Name": "TAD-26-055" }, "geometry": { "type": "Point", "coordinates": [ -63.4661153, -32.1481422, 0.0 ] } },
{ "type": "Feature", "properties": { "Name": "TAD-26-056" }, "geometry": { "type": "Point", "coordinates": [ -64.3600695, -32.0053542, 0.0 ] } },
{ "type": "Feature", "properties": { "Name": "TAD-26-057" }, "geometry": { "type": "Point", "coordinates": [ -64.222825, -31.4661706, 0.0 ] } },
{ "type": "Feature", "properties": { "Name": "TAD-26-058" }, "geometry": { "type": "Point", "coordinates": [ -62.7127179, -31.4345606, 0.0 ] } },
{ "type": "Feature", "properties": { "Name": "TAD-26-059" }, "geometry": { "type": "Point", "coordinates": [ -64.2524052, -31.4586151, 0.0 ] } },
{ "type": "Feature", "properties": { "Name": "TAD-26-060" }, "geometry": { "type": "Point", "coordinates": [ -63.9348523, -34.0340345, 0.0 ] } },
{ "type": "Feature", "properties": { "Name": "TAD-26-061" }, "geometry": { "type": "Point", "coordinates": [ -64.3444041, -32.8403018, 0.0 ] } },
{ "type": "Feature", "properties": { "Name": "TAD-26-062" }, "geometry": { "type": "Point", "coordinates": [ -62.6118851, -31.79736, 0.0 ] } },
{ "type": "Feature", "properties": { "Name": "TAD-26-063" }, "geometry": { "type": "Point", "coordinates": [ -62.682441, -32.597904, 0.0 ] } },
{ "type": "Feature", "properties": { "Name": "TAD-26-064" }, "geometry": { "type": "Point", "coordinates": [ -64.3160596, -31.8205049, 0.0 ] } },
{ "type": "Feature", "properties": { "Name": "TAD-26-065" }, "geometry": { "type": "Point", "coordinates": [ -65.156589, -32.277092, 0.0 ] } },
{ "type": "Feature", "properties": { "Name": "TAD-26-066" }, "geometry": { "type": "Point", "coordinates": [ -62.0707669, -32.6891475, 0.0 ] } },
{ "type": "Feature", "properties": { "Name": "TAD-26-067" }, "geometry": { "type": "Point", "coordinates": [ -64.0820098, -30.9688163, 0.0 ] } },
{ "type": "Feature", "properties": { "Name": "TAD-26-068" }, "geometry": { "type": "Point", "coordinates": [ -64.0185613, -31.4911359, 0.0 ] } },
{ "type": "Feature", "properties": { "Name": "TAD-26-069" }, "geometry": { "type": "Point", "coordinates": [ -64.3225097, -33.1481861, 0.0 ] } },
{ "type": "Feature", "properties": { "Name": "TAD-26-070" }, "geometry": { "type": "Point", "coordinates": [ -62.9060454, -31.4655044, 0.0 ] } },
{ "type": "Feature", "properties": { "Name": "TAD-26-071" }, "geometry": { "type": "Point", "coordinates": [ -63.8281365, -31.316288, 0.0 ] } },
{ "type": "Feature", "properties": { "Name": "TAD-26-072" }, "geometry": { "type": "Point", "coordinates": [ -64.0921208, -31.4811233, 0.0 ] } },
{ "type": "Feature", "properties": { "Name": "TAD-26-073" }, "geometry": { "type": "Point", "coordinates": [ -64.3757573, -31.9897724, 0.0 ] } },
{ "type": "Feature", "properties": { "Name": "TAD-26-074" }, "geometry": { "type": "Point", "coordinates": [ -64.298485, -32.199479, 0.0 ] } },
{ "type": "Feature", "properties": { "Name": "TAD-26-075" }, "geometry": { "type": "Point", "coordinates": [ -64.0891384, -31.4250422, 0.0 ] } },
{ "type": "Feature", "properties": { "Name": "TAD-26-076" }, "geometry": { "type": "Point", "coordinates": [ -64.4989366, -31.0665752, 0.0 ] } },
{ "type": "Feature", "properties": { "Name": "TAD-26-077" }, "geometry": { "type": "Point", "coordinates": [ -62.1272803, -31.4258173, 0.0 ] } },
{ "type": "Feature", "properties": { "Name": "TAD-26-078" }, "geometry": { "type": "Point", "coordinates": [ -64.0548526, -30.7324778, 0.0 ] } },
{ "type": "Feature", "properties": { "Name": "TAD-26-079" }, "geometry": { "type": "Point", "coordinates": [ -64.2515717, -31.445747, 0.0 ] } },
{ "type": "Feature", "properties": { "Name": "TAD-26-080" }, "geometry": { "type": "Point", "coordinates": [ -64.3047846, -32.1373343, 0.0 ] } },
{ "type": "Feature", "properties": { "Name": "TAD-26-081" }, "geometry": { "type": "Point", "coordinates": [ -64.7913551, -30.7367853, 0.0 ] } },
{ "type": "Feature", "properties": { "Name": "TAD-26-082" }, "geometry": { "type": "Point", "coordinates": [ -64.3401284, -33.0812874, 0.0 ] } },
{ "type": "Feature", "properties": { "Name": "TAD-26-083" }, "geometry": { "type": "Point", "coordinates": [ -64.3375604, -33.0786853, 0.0 ] } },
{ "type": "Feature", "properties": { "Name": "TAD-26-084" }, "geometry": { "type": "Point", "coordinates": [ -64.3398812, -33.0798917, 0.0 ] } },
{ "type": "Feature", "properties": { "Name": "TAD-26-085" }, "geometry": { "type": "Point", "coordinates": [ -64.1784102, -31.3638267, 0.0 ] } },
{ "type": "Feature", "properties": { "Name": "TAD-26-086" }, "geometry": { "type": "Point", "coordinates": [ -64.1538439, -31.2116757, 0.0 ] } },
{ "type": "Feature", "properties": { "Name": "TAD-26-087" }, "geometry": { "type": "Point", "coordinates": [ -63.8309483, -31.7154282, 0.0 ] } },
{ "type": "Feature", "properties": { "Name": "TAD-26-088" }, "geometry": { "type": "Point", "coordinates": [ -65.1681882, -32.2430874, 0.0 ] } },
{ "type": "Feature", "properties": { "Name": "TAD-26-089" }, "geometry": { "type": "Point", "coordinates": [ -64.3107302, -33.1445214, 0.0 ] } },
{ "type": "Feature", "properties": { "Name": "TAD-26-090" }, "geometry": { "type": "Point", "coordinates": [ -64.5014861, -31.4072009, 0.0 ] } },
{ "type": "Feature", "properties": { "Name": "TAD-26-091" }, "geometry": { "type": "Point", "coordinates": [ -64.4774016, -31.1489186, 0.0 ] } },
{ "type": "Feature", "properties": { "Name": "TAD-26-092" }, "geometry": { "type": "Point", "coordinates": [ -64.483072, -31.4107704, 0.0 ] } },
{ "type": "Feature", "properties": { "Name": "TAD-26-093" }, "geometry": { "type": "Point", "coordinates": [ -64.4621634, -31.2912251, 0.0 ] } },
{ "type": "Feature", "properties": { "Name": "TAD-26-094" }, "geometry": { "type": "Point", "coordinates": [ -64.1768674, -31.2495239, 0.0 ] } },
{ "type": "Feature", "properties": { "Name": "TAD-26-095" }, "geometry": { "type": "Point", "coordinates": [ -62.8703043, -33.531915, 0.0 ] } },
{ "type": "Feature", "properties": { "Name": "TAD-26-096" }, "geometry": { "type": "Point", "coordinates": [ -63.6668979, -31.3372231, 0.0 ] } },
{ "type": "Feature", "properties": { "Name": "TAD-26-097" }, "geometry": { "type": "Point", "coordinates": [ -63.3171536, -31.4036193, 0.0 ] } },
{ "type": "Feature", "properties": { "Name": "TAD-26-098" }, "geometry": { "type": "Point", "coordinates": [ -64.4678467, -31.2482116, 0.0 ] } },
{ "type": "Feature", "properties": { "Name": "TAD-26-099" }, "geometry": { "type": "Point", "coordinates": [ -64.5199781, -30.8945936, 0.0 ] } },
{ "type": "Feature", "properties": { "Name": "TAD-26-100" }, "geometry": { "type": "Point", "coordinates": [ -64.5118168, -30.90121, 0.0 ] } },
{ "type": "Feature", "properties": { "Name": "TAD-26-101" }, "geometry": { "type": "Point", "coordinates": [ -64.3256406, -32.0835286, 0.0 ] } },
{ "type": "Feature", "properties": { "Name": "TAD-26-102" }, "geometry": { "type": "Point", "coordinates": [ -64.4337579, -30.3228094, 0.0 ] } },
{ "type": "Feature", "properties": { "Name": "TAD-26-103" }, "geometry": { "type": "Point", "coordinates": [ -64.3412939, -32.0842145, 0.0 ] } },
{ "type": "Feature", "properties": { "Name": "TAD-26-104" }, "geometry": { "type": "Point", "coordinates": [ -62.9331877, -34.2316674, 0.0 ] } },
{ "type": "Feature", "properties": { "Name": "TAD-26-105" }, "geometry": { "type": "Point", "coordinates": [ -62.6955406, -31.4310943, 0.0 ] } },
{ "type": "Feature", "properties": { "Name": "TAD-26-106" }, "geometry": { "type": "Point", "coordinates": [ -64.3128364, -31.798244, 0.0 ] } },
{ "type": "Feature", "properties": { "Name": "TAD-26-107" }, "geometry": { "type": "Point", "coordinates": [ -64.3128991, -31.798122, 0.0 ] } },
{ "type": "Feature", "properties": { "Name": "TAD-26-108" }, "geometry": { "type": "Point", "coordinates": [ -64.3128437, -31.7979829, 0.0 ] } },
{ "type": "Feature", "properties": { "Name": "TAD-26-109" }, "geometry": { "type": "Point", "coordinates": [ -64.1853279, -31.2872676, 0.0 ] } },
{ "type": "Feature", "properties": { "Name": "TAD-26-110" }, "geometry": { "type": "Point", "coordinates": [ -64.4423146, -33.2110144, 0.0 ] } },
{ "type": "Feature", "properties": { "Name": "TAD-26-111" }, "geometry": { "type": "Point", "coordinates": [ -65.1330459, -32.0730152, 0.0 ] } },
{ "type": "Feature", "properties": { "Name": "TAD-26-112" }, "geometry": { "type": "Point", "coordinates": [ -65.1635733, -32.0778522, 0.0 ] } },
{ "type": "Feature", "properties": { "Name": "TAD-26-113" }, "geometry": { "type": "Point", "coordinates": [ -65.1936802, -32.0879754, 0.0 ] } },
{ "type": "Feature", "properties": { "Name": "TAD-26-114" }, "geometry": { "type": "Point", "coordinates": [ -63.9752643, -34.032309, 0.0 ] } },
{ "type": "Feature", "properties": { "Name": "TAD-26-115" }, "geometry": { "type": "Point", "coordinates": [ -64.1671678, -33.0085422, 0.0 ] } },
{ "type": "Feature", "properties": { "Name": "TAD-26-116" }, "geometry": { "type": "Point", "coordinates": [ -64.313619, -31.7989201, 0.0 ] } },
{ "type": "Feature", "properties": { "Name": "TAD-26-117" }, "geometry": { "type": "Point", "coordinates": [ -64.3136341, -31.7991942, 0.0 ] } },
{ "type": "Feature", "properties": { "Name": "TAD-26-118" }, "geometry": { "type": "Point", "coordinates": [ -64.3136356, -31.799057, 0.0 ] } },
{ "type": "Feature", "properties": { "Name": "TAD-26-119" }, "geometry": { "type": "Point", "coordinates": [ -64.3128741, -31.7983915, 0.0 ] } },
{ "type": "Feature", "properties": { "Name": "TAD-26-120" }, "geometry": { "type": "Point", "coordinates": [ -64.3136428, -31.7994619, 0.0 ] } },
{ "type": "Feature", "properties": { "Name": "TAD-26-121" }, "geometry": { "type": "Point", "coordinates": [ -64.3136145, -31.7996055, 0.0 ] } },
{ "type": "Feature", "properties": { "Name": "TAD-26-122" }, "geometry": { "type": "Point", "coordinates": [ -64.3136381, -31.7993346, 0.0 ] } },
{ "type": "Feature", "properties": { "Name": "TAD-26-123" }, "geometry": { "type": "Point", "coordinates": [ -64.3307496, -32.088917, 0.0 ] } },
{ "type": "Feature", "properties": { "Name": "TAD-26-128" }, "geometry": { "type": "Point", "coordinates": [ -64.0215043, -30.5172642, 0.0 ] } },
{ "type": "Feature", "properties": { "Name": "TAD-26-136" }, "geometry": { "type": "Point", "coordinates": [ -64.1788058, -31.3448528, 0.0 ] } },
{ "type": "Feature", "properties": { "Name": "TAD-26-124" }, "geometry": { "type": "Point", "coordinates": [ -64.3135995, -31.8000067, 0.0 ] } },
{ "type": "Feature", "properties": { "Name": "TAD-26-125" }, "geometry": { "type": "Point", "coordinates": [ -64.3136178, -31.7998688, 0.0 ] } },
{ "type": "Feature", "properties": { "Name": "TAD-26-126" }, "geometry": { "type": "Point", "coordinates": [ -64.3136135, -31.7997332, 0.0 ] } },
{ "type": "Feature", "properties": { "Name": "TAD-26-129" }, "geometry": { "type": "Point", "coordinates": [ -64.3136445, -31.8002758, 0.0 ] } },
{ "type": "Feature", "properties": { "Name": "TAD-26-130" }, "geometry": { "type": "Point", "coordinates": [ -64.3136129, -31.8001504, 0.0 ] } },
{ "type": "Feature", "properties": { "Name": "TAD-26-131" }, "geometry": { "type": "Point", "coordinates": [ -64.3136115, -31.8004189, 0.0 ] } },
{ "type": "Feature", "properties": { "Name": "TAD-26-132" }, "geometry": { "type": "Point", "coordinates": [ -64.313616, -31.8008161, 0.0 ] } },
{ "type": "Feature", "properties": { "Name": "TAD-26-133" }, "geometry": { "type": "Point", "coordinates": [ -64.3136156, -31.800684, 0.0 ] } },
{ "type": "Feature", "properties": { "Name": "TAD-26-134" }, "geometry": { "type": "Point", "coordinates": [ -64.3136107, -31.8005458, 0.0 ] } },
{ "type": "Feature", "properties": { "Name": "TAD-26-135" }, "geometry": { "type": "Point", "coordinates": [ -64.3136558, -31.8009572, 0.0 ] } },
{ "type": "Feature", "properties": { "Name": "TAD-26-137" }, "geometry": { "type": "Point", "coordinates": [ -64.0544189, -31.5114285, 0.0 ] } },
{ "type": "Feature", "properties": { "Name": "TAD-26-138" }, "geometry": { "type": "Point", "coordinates": [ -63.8647469, -31.6439856, 0.0 ] } },
{ "type": "Feature", "properties": { "Name": "TAD-26-139" }, "geometry": { "type": "Point", "coordinates": [ -63.8625617, -31.6436037, 0.0 ] } },
{ "type": "Feature", "properties": { "Name": "TAD-26-140" }, "geometry": { "type": "Point", "coordinates": [ -64.1571554, -31.4673023, 0.0 ] } },
{ "type": "Feature", "properties": { "Name": "TAD-26-141" }, "geometry": { "type": "Point", "coordinates": [ -64.3136904, -31.8013156, 0.0 ] } },
{ "type": "Feature", "properties": { "Name": "TAD-26-142" }, "geometry": { "type": "Point", "coordinates": [ -64.3135525, -31.8010939, 0.0 ] } },
{ "type": "Feature", "properties": { "Name": "TAD-26-143" }, "geometry": { "type": "Point", "coordinates": [ -63.7617742, -31.3011961, 0.0 ] } },
{ "type": "Feature", "properties": { "Name": "TAD-26-144" }, "geometry": { "type": "Point", "coordinates": [ -64.1449468, -31.1587951, 0.0 ] } },
{ "type": "Feature", "properties": { "Name": "TAD-26-145" }, "geometry": { "type": "Point", "coordinates": [ -64.4991909, -31.4020966, 0.0 ] } },
{ "type": "Feature", "properties": { "Name": "TAD-26-146" }, "geometry": { "type": "Point", "coordinates": [ -63.1454827, -31.4335835, 0.0 ] } },
{ "type": "Feature", "properties": { "Name": "TAD-26-147" }, "geometry": { "type": "Point", "coordinates": [ -63.8660131, -31.6417828, 0.0 ] } },
{ "type": "Feature", "properties": { "Name": "TAD-26-148" }, "geometry": { "type": "Point", "coordinates": [ -63.8787761, -31.6382066, 0.0 ] } },
{ "type": "Feature", "properties": { "Name": "TAD-26-149" }, "geometry": { "type": "Point", "coordinates": [ -64.2629831, -32.1996947, 0.0 ] } },
{ "type": "Feature", "properties": { "Name": "TAD-26-150" }, "geometry": { "type": "Point", "coordinates": [ -63.868404, -31.636581, 0.0 ] } },
{ "type": "Feature", "properties": { "Name": "TAD-26-151" }, "geometry": { "type": "Point", "coordinates": [ -62.3140536, -31.4077827, 0.0 ] } },
{ "type": "Feature", "properties": { "Name": "TAD-26-152" }, "geometry": { "type": "Point", "coordinates": [ -64.3128339, -31.7982864, 0.0 ] } },
{ "type": "Feature", "properties": { "Name": "TAD-26-153" }, "geometry": { "type": "Point", "coordinates": [ -63.7603838, -31.3003157, 0.0 ] } },
{ "type": "Feature", "properties": { "Name": "TAD-26-154" }, "geometry": { "type": "Point", "coordinates": [ -64.312801, -31.7951658, 0.0 ] } },
{ "type": "Feature", "properties": { "Name": "TAD-26-155" }, "geometry": { "type": "Point", "coordinates": [ -64.3128077, -31.7950365, 0.0 ] } },
{ "type": "Feature", "properties": { "Name": "TAD-26-156" }, "geometry": { "type": "Point", "coordinates": [ -64.3128129, -31.7948989, 0.0 ] } },
{ "type": "Feature", "properties": { "Name": "TAD-26-157" }, "geometry": { "type": "Point", "coordinates": [ -64.3128016, -31.7947709, 0.0 ] } },
{ "type": "Feature", "properties": { "Name": "TAD-26-158" }, "geometry": { "type": "Point", "coordinates": [ -64.9263594, -33.5397214, 0.0 ] } },
{ "type": "Feature", "properties": { "Name": "TAD-26-159" }, "geometry": { "type": "Point", "coordinates": [ -64.2527773, -31.4587173, 0.0 ] } },
{ "type": "Feature", "properties": { "Name": "TAD-26-160" }, "geometry": { "type": "Point", "coordinates": [ -64.3128187, -31.7958539, 0.0 ] } },
{ "type": "Feature", "properties": { "Name": "TAD-26-161" }, "geometry": { "type": "Point", "coordinates": [ -64.3128145, -31.7957137, 0.0 ] } },
{ "type": "Feature", "properties": { "Name": "TAD-26-162" }, "geometry": { "type": "Point", "coordinates": [ -64.3128285, -31.7955784, 0.0 ] } },
{ "type": "Feature", "properties": { "Name": "TAD-26-163" }, "geometry": { "type": "Point", "coordinates": [ -64.312826, -31.7954433, 0.0 ] } },
{ "type": "Feature", "properties": { "Name": "TAD-26-164" }, "geometry": { "type": "Point", "coordinates": [ -64.312851, -31.7953048, 0.0 ] } },
{ "type": "Feature", "properties": { "Name": "TAD-26-165" }, "geometry": { "type": "Point", "coordinates": [ -64.3137945, -31.7972202, 0.0 ] } },
{ "type": "Feature", "properties": { "Name": "TAD-26-166" }, "geometry": { "type": "Point", "coordinates": [ -64.3135841, -31.7969169, 0.0 ] } },
{ "type": "Feature", "properties": { "Name": "TAD-26-167" }, "geometry": { "type": "Point", "coordinates": [ -64.3135839, -31.7967872, 0.0 ] } },
{ "type": "Feature", "properties": { "Name": "TAD-26-168" }, "geometry": { "type": "Point", "coordinates": [ -64.3135713, -31.7966487, 0.0 ] } },
{ "type": "Feature", "properties": { "Name": "TAD-26-169" }, "geometry": { "type": "Point", "coordinates": [ -64.3135666, -31.7965159, 0.0 ] } },
{ "type": "Feature", "properties": { "Name": "TAD-26-170" }, "geometry": { "type": "Point", "coordinates": [ -64.3135475, -31.7963834, 0.0 ] } },
{ "type": "Feature", "properties": { "Name": "TAD-26-171" }, "geometry": { "type": "Point", "coordinates": [ -64.3135772, -31.7962423, 0.0 ] } },
{ "type": "Feature", "properties": { "Name": "TAD-26-172" }, "geometry": { "type": "Point", "coordinates": [ -64.3135461, -31.7961122, 0.0 ] } },
{ "type": "Feature", "properties": { "Name": "TAD-26-173" }, "geometry": { "type": "Point", "coordinates": [ -64.3128286, -31.7961187, 0.0 ] } },
{ "type": "Feature", "properties": { "Name": "TAD-26-174" }, "geometry": { "type": "Point", "coordinates": [ -64.2884096, -33.1386673, 0.0 ] } },
{ "type": "Feature", "properties": { "Name": "TAD-26-175" }, "geometry": { "type": "Point", "coordinates": [ -64.3091858, -33.146169, 0.0 ] } },
{ "type": "Feature", "properties": { "Name": "TAD-26-176" }, "geometry": { "type": "Point", "coordinates": [ -64.31073, -33.146759, 0.0 ] } },
{ "type": "Feature", "properties": { "Name": "TAD-26-177" }, "geometry": { "type": "Point", "coordinates": [ -64.3109988, -33.1485117, 0.0 ] } },
{ "type": "Feature", "properties": { "Name": "TAD-26-178" }, "geometry": { "type": "Point", "coordinates": [ -64.2890117, -33.1388256, 0.0 ] } },
{ "type": "Feature", "properties": { "Name": "TAD-26-179" }, "geometry": { "type": "Point", "coordinates": [ -64.4122324, -31.4591619, 0.0 ] } },
{ "type": "Feature", "properties": { "Name": "TAD-26-180" }, "geometry": { "type": "Point", "coordinates": [ -63.0178214, -32.0933217, 0.0 ] } },
{ "type": "Feature", "properties": { "Name": "TAD-26-181" }, "geometry": { "type": "Point", "coordinates": [ -64.4648162, -31.2731083, 0.0 ] } },
{ "type": "Feature", "properties": { "Name": "TAD-26-182" }, "geometry": { "type": "Point", "coordinates": [ -64.0170014, -31.3747243, 0.0 ] } },
{ "type": "Feature", "properties": { "Name": "TAD-26-183" }, "geometry": { "type": "Point", "coordinates": [ -63.155886, -32.4227338, 0.0 ] } },
{ "type": "Feature", "properties": { "Name": "TAD-26-184" }, "geometry": { "type": "Point", "coordinates": [ -63.158435, -32.4233588, 0.0 ] } },
{ "type": "Feature", "properties": { "Name": "TAD-26-185" }, "geometry": { "type": "Point", "coordinates": [ -63.1635286, -32.4223233, 0.0 ] } },
{ "type": "Feature", "properties": { "Name": "TAD-26-186" }, "geometry": { "type": "Point", "coordinates": [ -63.1468087, -32.4222675, 0.0 ] } },
{ "type": "Feature", "properties": { "Name": "TAD-26-187" }, "geometry": { "type": "Point", "coordinates": [ -63.1545916, -32.4200591, 0.0 ] } },
{ "type": "Feature", "properties": { "Name": "TAD-26-188" }, "geometry": { "type": "Point", "coordinates": [ -63.13939, -32.4336539, 0.0 ] } },
{ "type": "Feature", "properties": { "Name": "TAD-26-189" }, "geometry": { "type": "Point", "coordinates": [ -63.1453029, -32.4284119, 0.0 ] } },
{ "type": "Feature", "properties": { "Name": "TAD-26-190" }, "geometry": { "type": "Point", "coordinates": [ -63.1515287, -32.4254574, 0.0 ] } },
{ "type": "Feature", "properties": { "Name": "TAD-26-191" }, "geometry": { "type": "Point", "coordinates": [ -63.2485399, -33.4215744, 0.0 ] } },
{ "type": "Feature", "properties": { "Name": "TAD-26-192" }, "geometry": { "type": "Point", "coordinates": [ -62.8846177, -31.3907748, 0.0 ] } },
{ "type": "Feature", "properties": { "Name": "TAD-26-193" }, "geometry": { "type": "Point", "coordinates": [ -63.4186983, -34.1458016, 0.0 ] } },
{ "type": "Feature", "properties": { "Name": "TAD-26-194" }, "geometry": { "type": "Point", "coordinates": [ -63.150879, -31.4326643, 0.0 ] } },
{ "type": "Feature", "properties": { "Name": "TAD-26-195" }, "geometry": { "type": "Point", "coordinates": [ -64.2519419, -31.5692858, 0.0 ] } },
{ "type": "Feature", "properties": { "Name": "TAD-26-196" }, "geometry": { "type": "Point", "coordinates": [ -64.446381, -31.4352289, 0.0 ] } },
{ "type": "Feature", "properties": { "Name": "TAD-26-197" }, "geometry": { "type": "Point", "coordinates": [ -62.6018839, -31.7997399, 0.0 ] } },
{ "type": "Feature", "properties": { "Name": "TAD-26-198" }, "geometry": { "type": "Point", "coordinates": [ -64.0895707, -31.4284305, 0.0 ] } },
{ "type": "Feature", "properties": { "Name": "TAD-26-199" }, "geometry": { "type": "Point", "coordinates": [ -63.2622573, -32.4102628, 0.0 ] } },
{ "type": "Feature", "properties": { "Name": "TAD-26-201" }, "geometry": { "type": "Point", "coordinates": [ -63.8752106, -33.1977021, 0.0 ] } },
{ "type": "Feature", "properties": { "Name": "TAD-26-202" }, "geometry": { "type": "Point", "coordinates": [ -63.6132149, -31.3364597, 0.0 ] } },
{ "type": "Feature", "properties": { "Name": "TAD-26-203" }, "geometry": { "type": "Point", "coordinates": [ -63.61246, -31.3368958, 0.0 ] } },
{ "type": "Feature", "properties": { "Name": "TAD-26-204" }, "geometry": { "type": "Point", "coordinates": [ -63.2542166, -33.4162081, 0.0 ] } },
{ "type": "Feature", "properties": { "Name": "TAD-26-205" }, "geometry": { "type": "Point", "coordinates": [ -63.2604666, -32.4101166, 0.0 ] } },
{ "type": "Feature", "properties": { "Name": "TAD-26-206" }, "geometry": { "type": "Point", "coordinates": [ -64.3647686, -34.777344, 0.0 ] } },
{ "type": "Feature", "properties": { "Name": "TAD-26-207" }, "geometry": { "type": "Point", "coordinates": [ -64.3374718, -33.1515389, 0.0 ] } },
{ "type": "Feature", "properties": { "Name": "TAD-26-208" }, "geometry": { "type": "Point", "coordinates": [ -63.2536479, -33.4173066, 0.0 ] } },
{ "type": "Feature", "properties": { "Name": "TAD-26-200" }, "geometry": { "type": "Point", "coordinates": [ -64.3771653, -30.3594146, 0.0 ] } },
{ "type": "Feature", "properties": { "Name": "TAD-26-209" }, "geometry": { "type": "Point", "coordinates": [ -64.4415552, -31.4404912, 0.0 ] } },
{ "type": "Feature", "properties": { "Name": "TAD-26-210" }, "geometry": { "type": "Point", "coordinates": [ -63.2041661, -32.4257692, 0.0 ] } },
{ "type": "Feature", "properties": { "Name": "TAD-26-211" }, "geometry": { "type": "Point", "coordinates": [ -63.4665938, -32.0939302, 0.0 ] } },
{ "type": "Feature", "properties": { "Name": "TAD-26-212" }, "geometry": { "type": "Point", "coordinates": [ -64.4999674, -31.0540505, 0.0 ] } },
{ "type": "Feature", "properties": { "Name": "TAD-26-213" }, "geometry": { "type": "Point", "coordinates": [ -63.2851562, -32.3639051, 0.0 ] } },
{ "type": "Feature", "properties": { "Name": "TAD-26-214" }, "geometry": { "type": "Point", "coordinates": [ -62.9913479, -32.5371311, 0.0 ] } },
{ "type": "Feature", "properties": { "Name": "TAD-26-215" }, "geometry": { "type": "Point", "coordinates": [ -65.2401061, -31.9719206, 0.0 ] } },
{ "type": "Feature", "properties": { "Name": "TAD-26-216" }, "geometry": { "type": "Point", "coordinates": [ -64.2495278, -31.5302558, 0.0 ] } },
{ "type": "Feature", "properties": { "Name": "TAD-26-217" }, "geometry": { "type": "Point", "coordinates": [ -62.4676127, -31.6935886, 0.0 ] } },
{ "type": "Feature", "properties": { "Name": "TAD-26-218" }, "geometry": { "type": "Point", "coordinates": [ -64.0804695, -31.4291765, 0.0 ] } },
{ "type": "Feature", "properties": { "Name": "TAD-26-219" }, "geometry": { "type": "Point", "coordinates": [ -64.2348719, -31.53048, 0.0 ] } },
{ "type": "Feature", "properties": { "Name": "TAD-26-239" }, "geometry": { "type": "Point", "coordinates": [ -64.2958464, -32.3371683, 0.0 ] } },
{ "type": "Feature", "properties": { "Name": "TAD-26-220" }, "geometry": { "type": "Point", "coordinates": [ -64.3398194, -33.0789362, 0.0 ] } },
{ "type": "Feature", "properties": { "Name": "TAD-26-221" }, "geometry": { "type": "Point", "coordinates": [ -64.2519865, -31.4468261, 0.0 ] } },
{ "type": "Feature", "properties": { "Name": "TAD-26-222" }, "geometry": { "type": "Point", "coordinates": [ -62.7100162, -33.5707787, 0.0 ] } },
{ "type": "Feature", "properties": { "Name": "TAD-26-223" }, "geometry": { "type": "Point", "coordinates": [ -63.0582437, -34.2056031, 0.0 ] } },
{ "type": "Feature", "properties": { "Name": "TAD-26-223" }, "geometry": { "type": "Point", "coordinates": [ -63.0591144, -34.2108229, 0.0 ] } },
{ "type": "Feature", "properties": { "Name": "TAD-26-225" }, "geometry": { "type": "Point", "coordinates": [ -64.0711761, -31.386157, 0.0 ] } },
{ "type": "Feature", "properties": { "Name": "TAD-26-226" }, "geometry": { "type": "Point", "coordinates": [ -63.2168785, -32.421894, 0.0 ] } },
{ "type": "Feature", "properties": { "Name": "TAD-26-227" }, "geometry": { "type": "Point", "coordinates": [ -64.3397206, -32.0858907, 0.0 ] } },
{ "type": "Feature", "properties": { "Name": "TAD-26-228" }, "geometry": { "type": "Point", "coordinates": [ -64.2531484, -31.4577744, 0.0 ] } },
{ "type": "Feature", "properties": { "Name": "TAD-26-229" }, "geometry": { "type": "Point", "coordinates": [ -63.2511505, -33.4184266, 0.0 ] } },
{ "type": "Feature", "properties": { "Name": "TAD-26-230" }, "geometry": { "type": "Point", "coordinates": [ -63.2500924, -33.4188037, 0.0 ] } },
{ "type": "Feature", "properties": { "Name": "TAD-26-231" }, "geometry": { "type": "Point", "coordinates": [ -63.2524637, -33.4180048, 0.0 ] } },
{ "type": "Feature", "properties": { "Name": "TAD-26-232" }, "geometry": { "type": "Point", "coordinates": [ -63.2543665, -33.4168783, 0.0 ] } },
{ "type": "Feature", "properties": { "Name": "TAD-26-233" }, "geometry": { "type": "Point", "coordinates": [ -64.2771668, -33.1180273, 0.0 ] } },
{ "type": "Feature", "properties": { "Name": "TAD-26-234" }, "geometry": { "type": "Point", "coordinates": [ -63.9460735, -30.3718525, 0.0 ] } },
{ "type": "Feature", "properties": { "Name": "TAD-26-235" }, "geometry": { "type": "Point", "coordinates": [ -64.1228367, -31.3993901, 0.0 ] } },
{ "type": "Feature", "properties": { "Name": "TAD-26-236" }, "geometry": { "type": "Point", "coordinates": [ -64.412871, -33.904155, 0.0 ] } },
{ "type": "Feature", "properties": { "Name": "TAD-26-237" }, "geometry": { "type": "Point", "coordinates": [ -64.4740514, -31.4047217, 0.0 ] } },
{ "type": "Feature", "properties": { "Name": "TAD-26-250" }, "geometry": { "type": "Point", "coordinates": [ -64.329257, -32.0951105, 0.0 ] } },
{ "type": "Feature", "properties": { "Name": "TAD-26-238" }, "geometry": { "type": "Point", "coordinates": [ -63.7155693, -31.8738687, 0.0 ] } },
{ "type": "Feature", "properties": { "Name": "TAD-26-240" }, "geometry": { "type": "Point", "coordinates": [ -63.2262335, -32.3645027, 0.0 ] } },
{ "type": "Feature", "properties": { "Name": "TAD-26-241" }, "geometry": { "type": "Point", "coordinates": [ -63.2176801, -32.3711083, 0.0 ] } },
{ "type": "Feature", "properties": { "Name": "TAD-26-242" }, "geometry": { "type": "Point", "coordinates": [ -64.3609751, -34.826908, 0.0 ] } },
{ "type": "Feature", "properties": { "Name": "TAD-26-243" }, "geometry": { "type": "Point", "coordinates": [ -63.0361656, -31.4220503, 0.0 ] } },
{ "type": "Feature", "properties": { "Name": "TAD-26-244" }, "geometry": { "type": "Point", "coordinates": [ -64.491565, -31.416563, 0.0 ] } },
{ "type": "Feature", "properties": { "Name": "TAD-26-245" }, "geometry": { "type": "Point", "coordinates": [ -64.2870613, -33.1500606, 0.0 ] } },
{ "type": "Feature", "properties": { "Name": "TAD-26-246" }, "geometry": { "type": "Point", "coordinates": [ -63.8750973, -33.197738, 0.0 ] } },
{ "type": "Feature", "properties": { "Name": "TAD-26-247" }, "geometry": { "type": "Point", "coordinates": [ -64.4413567, -31.4416919, 0.0 ] } },
{ "type": "Feature", "properties": { "Name": "TAD-26-248" }, "geometry": { "type": "Point", "coordinates": [ -62.5455504, -31.7504988, 0.0 ] } },
{ "type": "Feature", "properties": { "Name": "TAD-26-249" }, "geometry": { "type": "Point", "coordinates": [ -63.8738976, -31.6875585, 0.0 ] } },
{ "type": "Feature", "properties": { "Name": "TAD-26-251" }, "geometry": { "type": "Point", "coordinates": [ -62.9415007, -33.5625737, 0.0 ] } },
{ "type": "Feature", "properties": { "Name": "TAD-26-252" }, "geometry": { "type": "Point", "coordinates": [ -62.9513243, -33.5572232, 0.0 ] } },
{ "type": "Feature", "properties": { "Name": "TAD-26-253" }, "geometry": { "type": "Point", "coordinates": [ -64.2943557, -32.3285782, 0.0 ] } },
{ "type": "Feature", "properties": { "Name": "TAD-26-254" }, "geometry": { "type": "Point", "coordinates": [ -62.6143911, -31.4599017, 0.0 ] } },
{ "type": "Feature", "properties": { "Name": "TAD-26-255" }, "geometry": { "type": "Point", "coordinates": [ -64.5014352, -31.3528589, 0.0 ] } },
{ "type": "Feature", "properties": { "Name": "TAD-26-256" }, "geometry": { "type": "Point", "coordinates": [ -64.1218344, -31.4459463, 0.0 ] } },
{ "type": "Feature", "properties": { "Name": "TAD-26-257" }, "geometry": { "type": "Point", "coordinates": [ -64.1273042, -31.3703039, 0.0 ] } },
{ "type": "Feature", "properties": { "Name": "TAD-26-258" }, "geometry": { "type": "Point", "coordinates": [ -64.1261236, -31.3751439, 0.0 ] } },
{ "type": "Feature", "properties": { "Name": "TAD-26-259" }, "geometry": { "type": "Point", "coordinates": [ -64.2969862, -32.1313528, 0.0 ] } },
{ "type": "Feature", "properties": { "Name": "TAD-26-260" }, "geometry": { "type": "Point", "coordinates": [ -64.4090819, -33.9288853, 0.0 ] } },
{ "type": "Feature", "properties": { "Name": "TAD-26-261" }, "geometry": { "type": "Point", "coordinates": [ -63.6903438, -31.9042951, 0.0 ] } },
{ "type": "Feature", "properties": { "Name": "TAD-26-262" }, "geometry": { "type": "Point", "coordinates": [ -64.3554922, -34.8319246, 0.0 ] } },
{ "type": "Feature", "properties": { "Name": "TAD-26-263" }, "geometry": { "type": "Point", "coordinates": [ -64.1710773, -31.3019269, 0.0 ] } },
{ "type": "Feature", "properties": { "Name": "TAD-26-264" }, "geometry": { "type": "Point", "coordinates": [ -64.1674581, -31.3002722, 0.0 ] } },
{ "type": "Feature", "properties": { "Name": "TAD-26-265" }, "geometry": { "type": "Point", "coordinates": [ -62.7273745, -31.8837881, 0.0 ] } },
{ "type": "Feature", "properties": { "Name": "TAD-26-266" }, "geometry": { "type": "Point", "coordinates": [ -62.4214139, -32.6136602, 0.0 ] } },
{ "type": "Feature", "properties": { "Name": "TAD-26-267" }, "geometry": { "type": "Point", "coordinates": [ -62.4515164, -32.608875, 0.0 ] } },
{ "type": "Feature", "properties": { "Name": "TAD-26-268" }, "geometry": { "type": "Point", "coordinates": [ -64.306907, -33.1059619, 0.0 ] } },
{ "type": "Feature", "properties": { "Name": "TAD-26-269" }, "geometry": { "type": "Point", "coordinates": [ -64.4774463, -31.3446907, 0.0 ] } },
{ "type": "Feature", "properties": { "Name": "TAD-26-270" }, "geometry": { "type": "Point", "coordinates": [ -64.2535884, -32.1851267, 0.0 ] } },
{ "type": "Feature", "properties": { "Name": "TAD-26-271" }, "geometry": { "type": "Point", "coordinates": [ -63.8584927, -31.3157248, 0.0 ] } },
{ "type": "Feature", "properties": { "Name": "TAD-26-272" }, "geometry": { "type": "Point", "coordinates": [ -64.2990062, -33.0919901, 0.0 ] } },
{ "type": "Feature", "properties": { "Name": "TAD-26-273" }, "geometry": { "type": "Point", "coordinates": [ -64.2987919, -33.0919994, 0.0 ] } },
{ "type": "Feature", "properties": { "Name": "TAD-26-274" }, "geometry": { "type": "Point", "coordinates": [ -62.0832676, -32.6903146, 0.0 ] } }
]
}
